{
"type": "FeatureCollection",
"name": "1821_Paganuzzi_parish_boundaries_epsg4326",
"crs": { "type": "name", "properties": { "name": "urn:ogc:def:crs:OGC:1.3:CRS84" } },
"features": [
{ "type": "Feature", "properties": { "parish": "Santa Maria del Carmine" }, "geometry": { "type": "Polygon", "coordinates": [ [ [ 12.327768314113733, 45.434751526181593 ], [ 12.327471585195941, 45.434472970849598 ], [ 12.327463110669949, 45.433982988458787 ], [ 12.32755418596793, 45.433549343773798 ], [ 12.327863161383288, 45.432650902887154 ], [ 12.327250030730779, 45.432628386884836 ], [ 12.327073338327237, 45.432934299945998 ], [ 12.326684246299685, 45.432886445634551 ], [ 12.325915788976321, 45.432911173193347 ], [ 12.325164194506934, 45.432677304616334 ], [ 12.32537789417856, 45.432299555470358 ], [ 12.325244328202796, 45.432267896826659 ], [ 12.325040970881794, 45.432641133375277 ], [ 12.324504058517389, 45.432462503851326 ], [ 12.324689632973785, 45.431907172968955 ], [ 12.324558194434921, 45.431878116503285 ], [ 12.324376423652065, 45.432445313707575 ], [ 12.323746990216595, 45.43233704453165 ], [ 12.323739103237989, 45.431723840576261 ], [ 12.323635919393485, 45.431721420970057 ], [ 12.323638153223786, 45.432298126834645 ], [ 12.322766971696833, 45.431997160268438 ], [ 12.321963046724095, 45.431823069734982 ], [ 12.321971825250589, 45.431637604389643 ], [ 12.321840812413589, 45.431619871897666 ], [ 12.321802229617202, 45.4322883605047 ], [ 12.320654992472075, 45.43204155973006 ], [ 12.320785317265921, 45.431634187809692 ], [ 12.320550557806428, 45.431609132254401 ], [ 12.320427394477225, 45.432011785958863 ], [ 12.320325262024374, 45.432116881965399 ], [ 12.319547596928718, 45.431718955006126 ], [ 12.319484353635549, 45.431804955862752 ], [ 12.320281057308843, 45.432223601598459 ], [ 12.319575731791828, 45.4328736002307 ], [ 12.319431322750912, 45.43279938647111 ], [ 12.319300431793589, 45.432909007102218 ], [ 12.32022168872313, 45.43345197415637 ], [ 12.320888876486416, 45.433728188348887 ], [ 12.319941826592917, 45.43470300972389 ], [ 12.3193604850927, 45.434445278671632 ], [ 12.319291396806022, 45.434573091432654 ], [ 12.320071479234121, 45.434933009152353 ], [ 12.32039201210627, 45.43510989160557 ], [ 12.320264672815055, 45.435414508378862 ], [ 12.320423551710796, 45.435480451216712 ], [ 12.32050054527239, 45.435202302322523 ], [ 12.320831378948073, 45.43536905660681 ], [ 12.320892839387509, 45.435315199287182 ], [ 12.321718035516808, 45.435659656996911 ], [ 12.321412857955943, 45.43589337993744 ], [ 12.32155548808243, 45.435957500042129 ], [ 12.323003341221447, 45.435687605442965 ], [ 12.323032626235067, 45.435866812302308 ], [ 12.32326291936786, 45.435902600007196 ], [ 12.323256087379365, 45.435704928319346 ], [ 12.32374828492746, 45.435678487887571 ], [ 12.324043023517602, 45.435606038040433 ], [ 12.324131185044758, 45.435729432061507 ], [ 12.324258070957352, 45.435696560284534 ], [ 12.324169644829809, 45.435495952068841 ], [ 12.32477035503042, 45.435203138205736 ], [ 12.325329221795958, 45.435024922018904 ], [ 12.325920336648343, 45.434901419192748 ], [ 12.326818377115289, 45.434770386002143 ], [ 12.327277988752703, 45.435070574737473 ], [ 12.327768314113733, 45.434751526181593 ] ] ] } },
{ "type": "Feature", "properties": { "parish": "Santi Apostoli" }, "geometry": { "type": "Polygon", "coordinates": [ [ [ 12.336976259428404, 45.445512234719232 ], [ 12.339011259377452, 45.444337443674591 ], [ 12.340044282165723, 45.443768915266027 ], [ 12.340002311841912, 45.443640760007824 ], [ 12.339873984233863, 45.443556278739315 ], [ 12.339680376140802, 45.443503537100767 ], [ 12.339160540272568, 45.442464388143343 ], [ 12.339109536522697, 45.442352538402041 ], [ 12.339092333539885, 45.442197559414105 ], [ 12.339092111750803, 45.442152656355404 ], [ 12.339065384781659, 45.441951238212056 ], [ 12.339052205876262, 45.441884060004426 ], [ 12.339020699444466, 45.44165846461258 ], [ 12.338993322815474, 45.441471675137016 ], [ 12.338943685437933, 45.441266929701236 ], [ 12.338854581529231, 45.441109092320609 ], [ 12.33915351050295, 45.440974983473971 ], [ 12.339378491897774, 45.4407624152905 ], [ 12.339292869121669, 45.440698010214923 ], [ 12.339109190481976, 45.440896911171833 ], [ 12.338812500329835, 45.441029723149356 ], [ 12.338612508243283, 45.440758171039207 ], [ 12.338486949840616, 45.440614300602782 ], [ 12.338331077438994, 45.440455887203058 ], [ 12.338227106544871, 45.440395973333764 ], [ 12.338058185619458, 45.440302384807154 ], [ 12.337631817393685, 45.440164309157311 ], [ 12.337073738131249, 45.440022047219877 ], [ 12.336866778859243, 45.440002174479808 ], [ 12.336715255588725, 45.439961687316682 ], [ 12.336544669613417, 45.440025924642839 ], [ 12.336308872636627, 45.440060215596738 ], [ 12.335996690615815, 45.440088864319925 ], [ 12.335894541703974, 45.440048548056822 ], [ 12.335633376030938, 45.439862237738133 ], [ 12.33576106882915, 45.439720394689452 ], [ 12.33575811241953, 45.439636352150089 ], [ 12.335473101060991, 45.439521384966248 ], [ 12.335375825916916, 45.439531284021221 ], [ 12.334770652021838, 45.439864000720441 ], [ 12.333966239293037, 45.440283659740309 ], [ 12.334244774216421, 45.440579308444576 ], [ 12.334354317382672, 45.440536672161336 ], [ 12.33473825032979, 45.440883750118871 ], [ 12.334724580510958, 45.440920420521557 ], [ 12.335154651588654, 45.441012181295051 ], [ 12.335648585951599, 45.440778926913715 ], [ 12.336280927332494, 45.441435116854549 ], [ 12.33599088735005, 45.441521192133862 ], [ 12.336072850339038, 45.441598619558732 ], [ 12.336302900536221, 45.441532105018915 ], [ 12.336706774416886, 45.44219582079463 ], [ 12.336797347657749, 45.442345349029942 ], [ 12.336545435363751, 45.442391700456675 ], [ 12.336578292529349, 45.442462531719627 ], [ 12.336839602878106, 45.442408756114645 ], [ 12.337105203011177, 45.442908639243072 ], [ 12.335610961468028, 45.44337437145947 ], [ 12.335308684363593, 45.443462452858938 ], [ 12.335006101103852, 45.44313636194785 ], [ 12.334527277718625, 45.443231248210068 ], [ 12.334439327326965, 45.443380438972312 ], [ 12.334844256220025, 45.443683407484514 ], [ 12.334550344712223, 45.443869259887265 ], [ 12.334641996801675, 45.44392311730784 ], [ 12.334925594067286, 45.443741436864407 ], [ 12.335658034618501, 45.444325101971472 ], [ 12.335246464919024, 45.444605304030738 ], [ 12.335558263063376, 45.444843407921482 ], [ 12.335776451702779, 45.44478304365888 ], [ 12.33667731738263, 45.445503432919551 ], [ 12.336976259428404, 45.445512234719232 ] ] ] } },
{ "type": "Feature", "properties": { "parish": "San Zaccaria" }, "geometry": { "type": "Polygon", "coordinates": [ [ [ 12.342155740840839, 45.438217065589804 ], [ 12.344249358772748, 45.437609232729876 ], [ 12.344334518730763, 45.438087406762122 ], [ 12.344484651776662, 45.438054824805384 ], [ 12.344329481182935, 45.437347572124743 ], [ 12.344374728112841, 45.436421736629242 ], [ 12.344423215738264, 45.435512361926421 ], [ 12.344461958812488, 45.434982706590205 ], [ 12.344317132286477, 45.43402246454211 ], [ 12.344243621624988, 45.43373948536572 ], [ 12.3431558915221, 45.433638586905303 ], [ 12.341272648424852, 45.433265724584579 ], [ 12.340989929223259, 45.433503670809316 ], [ 12.340795226029133, 45.43418718208143 ], [ 12.340421699382363, 45.435338014346911 ], [ 12.340173093041455, 45.435651832365451 ], [ 12.339834310242452, 45.435867597893889 ], [ 12.339588806790346, 45.43570669470401 ], [ 12.339390087921398, 45.435870358981148 ], [ 12.33941039164332, 45.435893419450188 ], [ 12.338911551589426, 45.436274196628432 ], [ 12.339065230674535, 45.436310599770877 ], [ 12.339637079901127, 45.435880859462927 ], [ 12.340610252614173, 45.436499771098354 ], [ 12.34040169152822, 45.437134902964011 ], [ 12.340571666986209, 45.437155273774479 ], [ 12.340756429250547, 45.436530527129236 ], [ 12.341334460723505, 45.436795614265776 ], [ 12.341933470554997, 45.43711041716054 ], [ 12.34248765270571, 45.437374662173418 ], [ 12.342615660236238, 45.438006785545426 ], [ 12.342093890647323, 45.438153647263427 ], [ 12.342155740840839, 45.438217065589804 ] ] ] } },
{ "type": "Feature", "properties": { "parish": "Santa Maria Gloriosa" }, "geometry": { "type": "Polygon", "coordinates": [ [ [ 12.326944162375517, 45.439615974641214 ], [ 12.327135419158033, 45.439434124999593 ], [ 12.328378571173403, 45.43994873648419 ], [ 12.328625947192066, 45.439920410289169 ], [ 12.329064316947594, 45.439636742731331 ], [ 12.329225695328978, 45.439771736724339 ], [ 12.329294826564217, 45.439728740475807 ], [ 12.329129848199118, 45.439591037984542 ], [ 12.329376458490255, 45.439420977334585 ], [ 12.329646454488921, 45.439624121026839 ], [ 12.329742641258491, 45.439560762722394 ], [ 12.329476616424156, 45.43935246347548 ], [ 12.330040473684059, 45.438979996864951 ], [ 12.330267261594498, 45.439140095761815 ], [ 12.330389503927073, 45.439124624306515 ], [ 12.33022484498129, 45.438935427595261 ], [ 12.330065303794758, 45.438821710472268 ], [ 12.329900952590965, 45.438748615789152 ], [ 12.330362501593527, 45.43837891516764 ], [ 12.330692979117073, 45.438587861492714 ], [ 12.330774825474531, 45.438533946775571 ], [ 12.330441106516027, 45.438271206777543 ], [ 12.330568272855006, 45.438112038269445 ], [ 12.330747838976654, 45.437782435157743 ], [ 12.330754764770054, 45.437773114642908 ], [ 12.331190386123358, 45.437841472931225 ], [ 12.331223083239189, 45.437771139509991 ], [ 12.330715961460674, 45.43767078328834 ], [ 12.330788520296103, 45.437268029173872 ], [ 12.330789861397978, 45.43725920633392 ], [ 12.330764116629634, 45.43725794761216 ], [ 12.330798107556742, 45.437113179657885 ], [ 12.33082067386448, 45.436963379100611 ], [ 12.330953366202053, 45.436665147970054 ], [ 12.331130673934114, 45.436439160526945 ], [ 12.331541193882606, 45.436568338730595 ], [ 12.331679021750395, 45.436363989501672 ], [ 12.33161100482172, 45.436107447177413 ], [ 12.331123234840838, 45.435985487667715 ], [ 12.33128361125187, 45.435743208884745 ], [ 12.331147261833705, 45.435715073421449 ], [ 12.330995150229349, 45.435953497939543 ], [ 12.33065086823864, 45.435846273503586 ], [ 12.330780405465392, 45.435608643795717 ], [ 12.33065376566524, 45.435585847420626 ], [ 12.330539112153893, 45.435826469713696 ], [ 12.329490771532257, 45.435520894551352 ], [ 12.329607082263674, 45.435317803032859 ], [ 12.329515459695223, 45.435292791152712 ], [ 12.329380762516973, 45.435492185474892 ], [ 12.328453004993301, 45.435185414274237 ], [ 12.327354709703657, 45.434712044747847 ], [ 12.326982661586426, 45.435016690844506 ], [ 12.327261328401034, 45.435167110565949 ], [ 12.326471725750924, 45.43569936893558 ], [ 12.326075461499968, 45.435864951916848 ], [ 12.325777063783486, 45.4359749762231 ], [ 12.32508216822465, 45.436239278950197 ], [ 12.324587793045755, 45.436388098137677 ], [ 12.324354040519506, 45.435989994740488 ], [ 12.324209074421212, 45.436041176098065 ], [ 12.324488832332809, 45.436516665892469 ], [ 12.32439883619454, 45.436626238604887 ], [ 12.323683038280361, 45.437049587575402 ], [ 12.323371535742103, 45.43722973103791 ], [ 12.323133910641124, 45.437475467726912 ], [ 12.323002700644858, 45.438025200485043 ], [ 12.323036538194749, 45.438346641289954 ], [ 12.323164403116643, 45.43875414897532 ], [ 12.323375928715629, 45.438972101906941 ], [ 12.323359991782294, 45.439021133711549 ], [ 12.323496391234551, 45.438994099248134 ], [ 12.325263466952793, 45.438667078422498 ], [ 12.325727678335044, 45.438976012808148 ], [ 12.325736917288905, 45.439100419406785 ], [ 12.326439580573567, 45.439056560693963 ], [ 12.327220965272025, 45.439160021050562 ], [ 12.32681906893996, 45.439558661810025 ], [ 12.326932401743854, 45.439610679141239 ], [ 12.326944162375517, 45.439615974641214 ] ] ] } },
{ "type": "Feature", "properties": { "parish": "Santa Maria Zobenigo" }, "geometry": { "type": "Polygon", "coordinates": [ [ [ 12.333494556706572, 45.435791468632736 ], [ 12.333925762780925, 45.435094842717987 ], [ 12.333943989562957, 45.435059575801624 ], [ 12.334198089638996, 45.434815527751887 ], [ 12.334468402779706, 45.434601965913814 ], [ 12.33505448454649, 45.434739684456588 ], [ 12.33511005871123, 45.434664871410469 ], [ 12.334571307512475, 45.434542353085661 ], [ 12.334917414235965, 45.434079676885347 ], [ 12.335165971327802, 45.433508062981652 ], [ 12.335463852413973, 45.433478712600959 ], [ 12.33611143154774, 45.432142239145925 ], [ 12.33611143154774, 45.432142239145925 ], [ 12.336638038660107, 45.432258732539786 ], [ 12.336801836918246, 45.431848222375166 ], [ 12.335934786347755, 45.431664182268271 ], [ 12.335255401511256, 45.431498358096157 ], [ 12.334174463512735, 45.431325980820738 ], [ 12.334305677313008, 45.430782262587933 ], [ 12.334175594067309, 45.430770024493178 ], [ 12.334063181308775, 45.431307117677989 ], [ 12.332805123987422, 45.431201059860655 ], [ 12.332814109187614, 45.430456089711839 ], [ 12.332647056961147, 45.430488984697746 ], [ 12.332691576020579, 45.431207606001458 ], [ 12.332303744508375, 45.431186551110429 ], [ 12.332284347763769, 45.430502295550056 ], [ 12.332177705727085, 45.430499802842917 ], [ 12.332204209807093, 45.431179374894334 ], [ 12.331283175657854, 45.431138443585368 ], [ 12.331214678034868, 45.431568461688251 ], [ 12.331729555076269, 45.431604748417335 ], [ 12.332274354361662, 45.432997500047705 ], [ 12.331903868114832, 45.433069055437137 ], [ 12.332108178556657, 45.433500802616955 ], [ 12.331980520565681, 45.433660067901563 ], [ 12.331832453306905, 45.433750905299256 ], [ 12.331392141631547, 45.433398871249786 ], [ 12.331302713709512, 45.433483978505265 ], [ 12.331739324923529, 45.433824938871503 ], [ 12.331428531079379, 45.434104473850944 ], [ 12.331527212308496, 45.434162312937353 ], [ 12.33176897128735, 45.433933938235242 ], [ 12.331943405848978, 45.433819019380088 ], [ 12.3321704464084, 45.434141651329263 ], [ 12.332430134662301, 45.434488845227115 ], [ 12.332639464379875, 45.434626611723793 ], [ 12.332420530401878, 45.434977154925278 ], [ 12.332500109589988, 45.435028042986403 ], [ 12.332753490971797, 45.434677845726867 ], [ 12.33295748614859, 45.434694773049372 ], [ 12.333133726339952, 45.434777063781098 ], [ 12.332776093442812, 45.43514046009701 ], [ 12.332860394259583, 45.435184122130885 ], [ 12.333198800268793, 45.434809853303506 ], [ 12.333799564820394, 45.435076994606618 ], [ 12.333391145118153, 45.435744365367697 ], [ 12.333494556706572, 45.435791468632736 ] ] ] } },
{ "type": "Feature", "properties": { "parish": "Santi Gervasio e Protasio" }, "geometry": { "type": "Polygon", "coordinates": [ [ [ 12.327544729960881, 45.433262419238247 ], [ 12.327732620242594, 45.432895192837385 ], [ 12.327806417070891, 45.432758990850083 ], [ 12.327950010895574, 45.432523956733192 ], [ 12.328239257033253, 45.432218049346993 ], [ 12.328974520311428, 45.431792344473358 ], [ 12.328884024638107, 45.431673562535579 ], [ 12.328753238054613, 45.431425507089713 ], [ 12.328288388302715, 45.43081271553973 ], [ 12.328109409915797, 45.430520464532947 ], [ 12.328017483024484, 45.430562049456725 ], [ 12.328183262136807, 45.430816287274794 ], [ 12.327681116126866, 45.431017183371452 ], [ 12.327570120037292, 45.430827570896177 ], [ 12.327389385124514, 45.430830431153382 ], [ 12.32724760461713, 45.430475276175315 ], [ 12.326515725741071, 45.430813352349034 ], [ 12.3264553986937, 45.430835995357377 ], [ 12.326331621272985, 45.430540624433057 ], [ 12.326206105317114, 45.430267139227794 ], [ 12.3259704673287, 45.43007637367176 ], [ 12.325836005741126, 45.429975180269921 ], [ 12.325557385209912, 45.429710174769433 ], [ 12.3255240847823, 45.429664829448619 ], [ 12.32562118958243, 45.429646169631503 ], [ 12.325485728617263, 45.429247297129194 ], [ 12.325333778136542, 45.429010930772506 ], [ 12.323262403071238, 45.429611764213924 ], [ 12.321760810272364, 45.429886548904747 ], [ 12.318670388829011, 45.430399678765475 ], [ 12.318477036866676, 45.430417725713568 ], [ 12.318764495707931, 45.431072652448229 ], [ 12.318408359158926, 45.431598007275092 ], [ 12.319579353165407, 45.43191578638406 ], [ 12.319920171761861, 45.432029687740695 ], [ 12.320210344404174, 45.432194348670066 ], [ 12.320040353710381, 45.432368185151049 ], [ 12.320120667609414, 45.432469974369845 ], [ 12.320507387841252, 45.432102840426289 ], [ 12.320929000692438, 45.432217984623847 ], [ 12.321764087994914, 45.432371871430256 ], [ 12.32169896920508, 45.432523344199822 ], [ 12.321870370808611, 45.432540966414344 ], [ 12.321930075437811, 45.43233383284911 ], [ 12.321989821408382, 45.431928800235639 ], [ 12.322730899295742, 45.432015081044163 ], [ 12.322803766720014, 45.432026064567026 ], [ 12.323725578061859, 45.432253158292653 ], [ 12.324031783050877, 45.432318110149495 ], [ 12.324321106000223, 45.432384146737149 ], [ 12.324439849961411, 45.43245359052861 ], [ 12.324545212443677, 45.432494575162117 ], [ 12.324811279333767, 45.432563028001638 ], [ 12.325063125329955, 45.432620777581434 ], [ 12.325559803205403, 45.432830293113852 ], [ 12.325653096462149, 45.432862320960012 ], [ 12.325960496885729, 45.432966116618388 ], [ 12.326365602235468, 45.43294961129363 ], [ 12.327062127732361, 45.433000922141126 ], [ 12.327040584371229, 45.433084121356409 ], [ 12.327269006858634, 45.433132126753094 ], [ 12.327488045681049, 45.43323513000631 ], [ 12.327544729960881, 45.433262419238247 ] ] ] } },
{ "type": "Feature", "properties": { "parish": " San Felice" }, "geometry": { "type": "Polygon", "coordinates": [ [ [ 12.335081928730926, 45.443736992943599 ], [ 12.335625105073035, 45.443702557376305 ], [ 12.335469460407134, 45.44351902228383 ], [ 12.337712092257259, 45.442800349924468 ], [ 12.33771004227078, 45.442714634702064 ], [ 12.337223024026166, 45.442848907929552 ], [ 12.336963980354207, 45.442405960234375 ], [ 12.337564665427692, 45.442312890067562 ], [ 12.337543374456434, 45.442248142842075 ], [ 12.336888793464569, 45.44232282184845 ], [ 12.336691575731997, 45.441988400364991 ], [ 12.337472748591214, 45.441809591473309 ], [ 12.337417185499826, 45.441727064918425 ], [ 12.336655204250148, 45.441902617372762 ], [ 12.336625608470206, 45.441905819285772 ], [ 12.336418700393006, 45.441517058023386 ], [ 12.336409282549567, 45.441490559125661 ], [ 12.335853501214666, 45.440883024729139 ], [ 12.336315439151448, 45.440677362958908 ], [ 12.336240375511036, 45.4406391176501 ], [ 12.335802242456477, 45.440832750864175 ], [ 12.335447365197524, 45.440456299413491 ], [ 12.33538320708406, 45.440483512944546 ], [ 12.335618366189879, 45.440722282970569 ], [ 12.335185555911512, 45.440927513792076 ], [ 12.334595413320292, 45.440390445786043 ], [ 12.335566725620144, 45.439877631080748 ], [ 12.335247987902529, 45.439579516684226 ], [ 12.332055953791413, 45.441351359943802 ], [ 12.33145135337918, 45.44157458605504 ], [ 12.331710829683187, 45.44185560825197 ], [ 12.332169900455375, 45.441688566874362 ], [ 12.3324335991726, 45.441838985462041 ], [ 12.332737739671959, 45.442125616741684 ], [ 12.332737739671959, 45.442125616741684 ], [ 12.332784193165818, 45.442176873164421 ], [ 12.332962931237736, 45.44241431806396 ], [ 12.333243039731034, 45.442654789793799 ], [ 12.332675756941386, 45.442939266121215 ], [ 12.332787393115057, 45.442987700106158 ], [ 12.333318072046275, 45.442728423442638 ], [ 12.333818515624962, 45.443011792213284 ], [ 12.33353658721099, 45.443146326479258 ], [ 12.333216531748372, 45.443316332515323 ], [ 12.333299657973662, 45.443353420112928 ], [ 12.333928303276613, 45.443044769639542 ], [ 12.334252501168281, 45.443210496233931 ], [ 12.333732696090269, 45.443699175065802 ], [ 12.333809087199691, 45.443720289552985 ], [ 12.33435623840767, 45.443234006331778 ], [ 12.334410352441905, 45.443251085586382 ], [ 12.335054508733915, 45.443733177918872 ], [ 12.335081928730926, 45.443736992943599 ] ] ] } },
{ "type": "Feature", "properties": { "parish": "San Cassiano" }, "geometry": { "type": "Polygon", "coordinates": [ [ [ 12.328492822228945, 45.442813758304936 ], [ 12.329316805891285, 45.442648472650468 ], [ 12.330076298739071, 45.442505487862753 ], [ 12.330717089078652, 45.442368652701511 ], [ 12.331070069523667, 45.442236991728372 ], [ 12.331800794165416, 45.442559748571725 ], [ 12.331874199557092, 45.442460955966425 ], [ 12.331216691403567, 45.442162669909123 ], [ 12.33165338247173, 45.441931351900969 ], [ 12.332096275454177, 45.441779167389932 ], [ 12.332429385402504, 45.442059598300062 ], [ 12.332587027081781, 45.442270387845269 ], [ 12.332747974076561, 45.442253176586199 ], [ 12.332290068559667, 45.441697184957164 ], [ 12.332935387878493, 45.441295694866227 ], [ 12.333283571144756, 45.441731872814238 ], [ 12.333400330916422, 45.441668323380696 ], [ 12.33302432716712, 45.441239780382396 ], [ 12.333788309004895, 45.440866199351106 ], [ 12.335150172542916, 45.440284727867606 ], [ 12.3348998466555, 45.439861833675124 ], [ 12.334701899139764, 45.439805977539464 ], [ 12.333999298166026, 45.440099994406005 ], [ 12.333874033326124, 45.439919820483809 ], [ 12.333414101220475, 45.439414576752199 ], [ 12.332899097783182, 45.43895754766465 ], [ 12.332605793834309, 45.438697931080213 ], [ 12.332400725557982, 45.438560763013939 ], [ 12.332013761813192, 45.438435889576695 ], [ 12.331856221676047, 45.438358927624691 ], [ 12.331918153117, 45.438327281618882 ], [ 12.332626656379599, 45.438469125888112 ], [ 12.332670244893482, 45.438399229292642 ], [ 12.331958722484076, 45.438250223185122 ], [ 12.331760254019477, 45.438115572081379 ], [ 12.33116532097606, 45.437801587409012 ], [ 12.330874057441424, 45.437701941205276 ], [ 12.330786146772057, 45.4377019482639 ], [ 12.330862902191377, 45.437503632335101 ], [ 12.330754404864209, 45.437505220918773 ], [ 12.330556110614044, 45.437919372136868 ], [ 12.330289768108974, 45.438251658242145 ], [ 12.329728890804624, 45.438704176878502 ], [ 12.329383816416536, 45.438475152761875 ], [ 12.329324382042488, 45.438535070349339 ], [ 12.32969484838744, 45.438804299024177 ], [ 12.329908420237844, 45.438892061932592 ], [ 12.329173838531695, 45.439340635363607 ], [ 12.329046564014904, 45.439428040750478 ], [ 12.328644576308804, 45.439617845943019 ], [ 12.32860680322467, 45.439640941209916 ], [ 12.328202019142651, 45.439330082272548 ], [ 12.328100774697836, 45.439413160629002 ], [ 12.328442951224671, 45.43968132333481 ], [ 12.32830086643043, 45.439777132987786 ], [ 12.328361032555339, 45.43985335932922 ], [ 12.328542002515825, 45.440072073471299 ], [ 12.328837344518126, 45.440399335864434 ], [ 12.328686475378362, 45.440518002803792 ], [ 12.328233624827645, 45.440793665789784 ], [ 12.327849335881647, 45.440969182622027 ], [ 12.327656370816001, 45.44105731638318 ], [ 12.327741554641786, 45.441135793935509 ], [ 12.328292316593396, 45.440871726670764 ], [ 12.328373400332124, 45.441037020328032 ], [ 12.328375322064142, 45.441066036163484 ], [ 12.328649944222114, 45.441592946377142 ], [ 12.328927659236198, 45.442153691614386 ], [ 12.328097807811748, 45.44236105723207 ], [ 12.32819372746728, 45.44260383749284 ], [ 12.328397567336326, 45.442835399065778 ], [ 12.328492822228945, 45.442813758304936 ] ] ] } },
{ "type": "Feature", "properties": { "parish": "San Giacomo dell'Orio" }, "geometry": { "type": "Polygon", "coordinates": [ [ [ 12.326289442163326, 45.443234730201269 ], [ 12.326536083983962, 45.442876029667467 ], [ 12.326718707182435, 45.442718621513613 ], [ 12.326876840406928, 45.442667516555446 ], [ 12.327259220555986, 45.442649067382838 ], [ 12.32784174033829, 45.442679149947708 ], [ 12.328246934991622, 45.442672193363137 ], [ 12.328977860416584, 45.442609828774586 ], [ 12.32914048129788, 45.443205568990003 ], [ 12.32927463546905, 45.443167601749835 ], [ 12.329110695059473, 45.442596549080527 ], [ 12.329810661795813, 45.44244539037625 ], [ 12.330093817248645, 45.442384999817875 ], [ 12.330755025910999, 45.442158467752641 ], [ 12.330520420346275, 45.441862583270009 ], [ 12.330241288898803, 45.44172574766894 ], [ 12.329708804068956, 45.441914335035449 ], [ 12.328839904406404, 45.440711622979258 ], [ 12.329086009767231, 45.440544171306634 ], [ 12.329122458887896, 45.44045333346029 ], [ 12.328622313328554, 45.439745968487266 ], [ 12.329046955092654, 45.439505250663458 ], [ 12.328962052128684, 45.439418219628848 ], [ 12.328654474549488, 45.439603489125254 ], [ 12.328542900960446, 45.439542689553562 ], [ 12.328556790348301, 45.439459757327988 ], [ 12.328178171982755, 45.439184436762183 ], [ 12.327609456907551, 45.438922003735534 ], [ 12.327776225232057, 45.438662310870058 ], [ 12.327891801701476, 45.438396651826302 ], [ 12.327827481257907, 45.438395145907172 ], [ 12.327726120361854, 45.438468930340939 ], [ 12.327456874191077, 45.438879679674081 ], [ 12.326379795939822, 45.438703290491816 ], [ 12.326018530088106, 45.438714499815688 ], [ 12.325428596422178, 45.438242836682598 ], [ 12.325349259719813, 45.438308938113757 ], [ 12.325862044436699, 45.438692949041751 ], [ 12.325462989586084, 45.439019824683996 ], [ 12.325572451398846, 45.439122542249621 ], [ 12.325866881978653, 45.438913040237921 ], [ 12.325894472340563, 45.439257623294438 ], [ 12.326001694247871, 45.439287669489381 ], [ 12.3259973637151, 45.439425238213687 ], [ 12.32594534859502, 45.439468379927526 ], [ 12.325440482879079, 45.439162853640227 ], [ 12.325390349038633, 45.439212157863345 ], [ 12.325876403203784, 45.439501946927834 ], [ 12.325841245877633, 45.439556191253864 ], [ 12.325399840373352, 45.439425004241293 ], [ 12.325375896146124, 45.439471862851981 ], [ 12.325772812514534, 45.439670842627514 ], [ 12.325730999117139, 45.439727990296767 ], [ 12.325504395267616, 45.439603366266653 ], [ 12.325457879501105, 45.439668051987098 ], [ 12.325635718777026, 45.439767058756992 ], [ 12.325583995142249, 45.439849978518737 ], [ 12.32537634727616, 45.439738035773864 ], [ 12.325356599304326, 45.439788052053018 ], [ 12.32558045510317, 45.439924849328065 ], [ 12.325537069748176, 45.439984405960118 ], [ 12.32536423065687, 45.439881646573461 ], [ 12.325363307414069, 45.439901171293634 ], [ 12.325533382836307, 45.440150463586264 ], [ 12.325621626110204, 45.440163281864798 ], [ 12.325970491109052, 45.440207843677882 ], [ 12.325984443443636, 45.440378800307116 ], [ 12.325927400956294, 45.440381341782512 ], [ 12.325935674327114, 45.440602852853438 ], [ 12.325874300363244, 45.440731073281242 ], [ 12.325673412510938, 45.440712106298712 ], [ 12.325657747680552, 45.440763294532182 ], [ 12.325907146168062, 45.440794367360354 ], [ 12.325860655629413, 45.440928280078161 ], [ 12.32573415880857, 45.441071829249303 ], [ 12.325536377986767, 45.440966157938725 ], [ 12.325531385044581, 45.441043904209756 ], [ 12.325805935954927, 45.441168986263271 ], [ 12.325660237819413, 45.441447869152462 ], [ 12.325739432221358, 45.441446243806396 ], [ 12.325857629852932, 45.441194900075416 ], [ 12.3260720064256, 45.441314795866724 ], [ 12.326251964505065, 45.441325973859826 ], [ 12.326288619357122, 45.441596610261811 ], [ 12.32637291772749, 45.441591623040914 ], [ 12.326330830000391, 45.441331302403064 ], [ 12.326680949920826, 45.441351687328883 ], [ 12.326704480034284, 45.441761726480898 ], [ 12.326694282609436, 45.442102437697066 ], [ 12.326049900349727, 45.441989631256341 ], [ 12.325736625060753, 45.442368643857762 ], [ 12.326380724517437, 45.4425887693709 ], [ 12.32604593041731, 45.443246918540503 ], [ 12.326289442163326, 45.443234730201269 ] ] ] } },
{ "type": "Feature", "properties": { "parish": "San Luca" }, "geometry": { "type": "Polygon", "coordinates": [ [ [ 12.335053779393622, 45.437711785944018 ], [ 12.33478992255654, 45.436997702545376 ], [ 12.334736570814766, 45.436740934458825 ], [ 12.336798160139896, 45.435562612701915 ], [ 12.33619223463775, 45.435298950203467 ], [ 12.336235419586174, 45.435169409462674 ], [ 12.336140856955678, 45.435115551269888 ], [ 12.336357811735882, 45.43504465728288 ], [ 12.33695732915489, 45.435189294358295 ], [ 12.337014642367237, 45.435117712396917 ], [ 12.336394609919715, 45.434967894216975 ], [ 12.336047132603372, 45.435051360577233 ], [ 12.335975710737902, 45.435007750159485 ], [ 12.335977705852091, 45.434923210993702 ], [ 12.336534657041199, 45.434707688098548 ], [ 12.336464306654355, 45.434667909764521 ], [ 12.335903077979262, 45.434853120951622 ], [ 12.335597523263056, 45.434746833138 ], [ 12.335368551406882, 45.434703818937905 ], [ 12.334907308564517, 45.4346508707062 ], [ 12.334652559010731, 45.434594932208135 ], [ 12.334532348256777, 45.434556194839558 ], [ 12.334983751026853, 45.434211330364271 ], [ 12.334904840595618, 45.434150394088491 ], [ 12.334443152431902, 45.434494174250972 ], [ 12.334129890432218, 45.434554903927605 ], [ 12.333427060147047, 45.43445612097829 ], [ 12.333013038106724, 45.434375849131591 ], [ 12.332762237826783, 45.434260169303975 ], [ 12.332271596824661, 45.434325906404347 ], [ 12.33222163907593, 45.434345973616793 ], [ 12.332412413540652, 45.434497750128756 ], [ 12.332196260053887, 45.434610242357579 ], [ 12.332054308391214, 45.434759811212302 ], [ 12.331357426318185, 45.434355286069859 ], [ 12.33121681906227, 45.434524390002395 ], [ 12.33159743820057, 45.434746384832565 ], [ 12.330741555737371, 45.435634045660215 ], [ 12.330108625461973, 45.43582784603278 ], [ 12.33115133459628, 45.43618701064117 ], [ 12.330980698494404, 45.436670482340887 ], [ 12.33112925783718, 45.436699434246293 ], [ 12.331321628217864, 45.436238051207269 ], [ 12.332406666871826, 45.436580070554321 ], [ 12.332230159861716, 45.437143737717285 ], [ 12.332322257967208, 45.437164088906918 ], [ 12.332503071089908, 45.436618720733293 ], [ 12.333449369055074, 45.436974303607826 ], [ 12.333826040710246, 45.437198328619907 ], [ 12.333752537673083, 45.437784893649784 ], [ 12.33384161732107, 45.437840780899258 ], [ 12.333970935791868, 45.437259106718464 ], [ 12.335053779393622, 45.437711785944018 ] ] ] } },
{ "type": "Feature", "properties": { "parish": "San Simeone Profeta" }, "geometry": { "type": "Polygon", "coordinates": [ [ [ 12.325876239905028, 45.443171698572186 ], [ 12.326417075473659, 45.442646246951185 ], [ 12.326826003509504, 45.442485420141786 ], [ 12.326851991077129, 45.442420951306588 ], [ 12.326679544113318, 45.442111011065464 ], [ 12.326717986984933, 45.442040114508799 ], [ 12.326758067555076, 45.441806115623542 ], [ 12.326774222457368, 45.441555867204237 ], [ 12.326794357174114, 45.441121215515182 ], [ 12.326667485442739, 45.441109272722798 ], [ 12.326660567445057, 45.441255639035241 ], [ 12.326652733288933, 45.440612524978121 ], [ 12.326870545041384, 45.440587722895359 ], [ 12.326685939598814, 45.440352297801176 ], [ 12.326485612602625, 45.440056257126237 ], [ 12.326474506934092, 45.439665798431726 ], [ 12.326502548342729, 45.439541591756182 ], [ 12.326747630015168, 45.439516116560007 ], [ 12.326363233520681, 45.439049279386943 ], [ 12.326132208748557, 45.438858582890511 ], [ 12.325564417679894, 45.438436177476071 ], [ 12.32490738830302, 45.438553207932685 ], [ 12.32378764048536, 45.438849953264409 ], [ 12.323688459716056, 45.438822114303363 ], [ 12.323423030084045, 45.438692178312742 ], [ 12.323135684936224, 45.438485251471377 ], [ 12.323032170728235, 45.438309627430968 ], [ 12.322988018800249, 45.438162387288408 ], [ 12.323010036841934, 45.438034693588442 ], [ 12.323158463408625, 45.43782556337505 ], [ 12.323039049082048, 45.437802670844775 ], [ 12.322907709528744, 45.438031761199753 ], [ 12.322737615118838, 45.438007679580423 ], [ 12.322515327997206, 45.437944634643571 ], [ 12.322229604829314, 45.437927424785457 ], [ 12.321973199568005, 45.437921408674612 ], [ 12.321697613702396, 45.437942258864823 ], [ 12.321624269838757, 45.437978361209694 ], [ 12.321376775753535, 45.437869952730999 ], [ 12.321321643480573, 45.437908766106368 ], [ 12.321234459307471, 45.437952164392172 ], [ 12.321479960002998, 45.438058718776567 ], [ 12.321375977117896, 45.43845944847935 ], [ 12.321085838013595, 45.438895079390598 ], [ 12.320867628945571, 45.439181376463416 ], [ 12.320834022731441, 45.43920350818788 ], [ 12.320516086785949, 45.439042148900164 ], [ 12.320098869122477, 45.43940563146586 ], [ 12.320867308148745, 45.440412110297686 ], [ 12.32128786611014, 45.440780043094385 ], [ 12.322138454325103, 45.441440603102158 ], [ 12.322239778687436, 45.441514988244769 ], [ 12.322212447000078, 45.44155215109182 ], [ 12.322421141780339, 45.441681260844192 ], [ 12.322466779781344, 45.441635526438219 ], [ 12.322350043440265, 45.441562580114351 ], [ 12.322395255753888, 45.441525836727052 ], [ 12.322377970948711, 45.441512829843916 ], [ 12.322431101740559, 45.441470871629051 ], [ 12.322904358144953, 45.441581940548673 ], [ 12.323342921656304, 45.441708876109963 ], [ 12.323898431441815, 45.441926750439478 ], [ 12.323307008803926, 45.44238232412787 ], [ 12.323403829692655, 45.442407154878225 ], [ 12.323998754687123, 45.441972519358231 ], [ 12.324429430373737, 45.442138198910889 ], [ 12.325958454885388, 45.442508097324605 ], [ 12.326162314001751, 45.442557993107371 ], [ 12.325715435098836, 45.443109659553102 ], [ 12.325876239905028, 45.443171698572186 ] ] ] } },
{ "type": "Feature", "properties": { "parish": "San Giovanni Bragora" }, "geometry": { "type": "Polygon", "coordinates": [ [ [ 12.346192236288408, 45.438524003525558 ], [ 12.346210427520985, 45.437888236815375 ], [ 12.346980966426292, 45.437832429045514 ], [ 12.34694695776995, 45.437730612673413 ], [ 12.346222782183231, 45.437790228674722 ], [ 12.346234100364292, 45.436522690961766 ], [ 12.346363890255526, 45.43639497206842 ], [ 12.346399242318151, 45.436363281746829 ], [ 12.347070607627684, 45.43642440627481 ], [ 12.347172815224717, 45.436403187559534 ], [ 12.347302024394889, 45.436267080866784 ], [ 12.348229842440894, 45.436591873636438 ], [ 12.348296113699359, 45.436492221095037 ], [ 12.347572821601609, 45.436255215304257 ], [ 12.348248234500522, 45.435443151153841 ], [ 12.348619203770843, 45.434918324916254 ], [ 12.348662837085264, 45.43481874610481 ], [ 12.34966992311467, 45.434762881916079 ], [ 12.349669592325377, 45.43467752307739 ], [ 12.348709510845721, 45.434746672205463 ], [ 12.349004290358431, 45.434327047540677 ], [ 12.348995239666488, 45.433978085384638 ], [ 12.348957884533386, 45.433691062271734 ], [ 12.34842340928625, 45.433253832402471 ], [ 12.348283749080869, 45.433303884890748 ], [ 12.3481123300232, 45.433130094654203 ], [ 12.347935090913184, 45.433042931833519 ], [ 12.347798388655457, 45.432969723042866 ], [ 12.346636110449246, 45.433359916441148 ], [ 12.345705022220598, 45.433558459836973 ], [ 12.344249672924573, 45.433704235875062 ], [ 12.344106169650857, 45.433709157018917 ], [ 12.344099718369147, 45.433846581949588 ], [ 12.344119206487717, 45.43419821385865 ], [ 12.343854863788872, 45.434242747796318 ], [ 12.343975761948982, 45.435672901450125 ], [ 12.343389610838088, 45.435739947342888 ], [ 12.343400593808759, 45.435824399118758 ], [ 12.344016610776185, 45.435758048183317 ], [ 12.343929976190331, 45.436286944506975 ], [ 12.344001591552193, 45.436987618941714 ], [ 12.344194255997992, 45.437377684133246 ], [ 12.344174098630273, 45.437417940172139 ], [ 12.343207198332168, 45.437739916364094 ], [ 12.343273183453789, 45.437789547704988 ], [ 12.344241779262976, 45.437467058248018 ], [ 12.344365790177692, 45.437932532474171 ], [ 12.343530649769203, 45.438057055541179 ], [ 12.343475457729914, 45.43814374532981 ], [ 12.343892466377124, 45.438093468205651 ], [ 12.34434464291542, 45.438020014831189 ], [ 12.345033996998612, 45.437976070175495 ], [ 12.34576362974609, 45.437921061555485 ], [ 12.345783769441894, 45.438581337972579 ], [ 12.346192236288408, 45.438524003525558 ] ] ] } },
{ "type": "Feature", "properties": { "parish": "San Pantaleone" }, "geometry": { "type": "Polygon", "coordinates": [ [ [ 12.323252745671418, 45.435154454290902 ], [ 12.323120536708041, 45.435187347703064 ], [ 12.323144205502972, 45.4361277517486 ], [ 12.3226172500627, 45.436219374506393 ], [ 12.322388197712716, 45.436377974612235 ], [ 12.32244248676078, 45.436671201297195 ], [ 12.322457005020791, 45.436722351566146 ], [ 12.322791353772542, 45.436618956087301 ], [ 12.322858253319914, 45.436602379999258 ], [ 12.323008951404844, 45.437080436881018 ], [ 12.323039770024604, 45.43707258559067 ], [ 12.323107797202109, 45.437179214457331 ], [ 12.323153923870931, 45.437169578640507 ], [ 12.323245489477671, 45.437350041787326 ], [ 12.323307207960934, 45.437329075378628 ], [ 12.323329883153743, 45.437385641900249 ], [ 12.323375957967423, 45.437456959590925 ], [ 12.323749213624597, 45.437191473175631 ], [ 12.324325669252657, 45.436875077019373 ], [ 12.324604264786114, 45.436697332884144 ], [ 12.3246263295028, 45.436585343521934 ], [ 12.325286689074511, 45.436324891020526 ], [ 12.325694658812832, 45.436165241851185 ], [ 12.326510214376011, 45.435824275816685 ], [ 12.326782662681316, 45.435627897909775 ], [ 12.327490064832279, 45.435158540816026 ], [ 12.327826195249676, 45.435295757806578 ], [ 12.328125109562526, 45.435071463516898 ], [ 12.327756238054878, 45.434887955652513 ], [ 12.327434657561572, 45.434544671918651 ], [ 12.327375729135804, 45.43410960987935 ], [ 12.32744352547564, 45.433936325619641 ], [ 12.326995951864951, 45.433946828762785 ], [ 12.326740275944223, 45.434311568722272 ], [ 12.326792246801974, 45.434683514266219 ], [ 12.325932851930631, 45.434809484359548 ], [ 12.325334546912602, 45.434910671260482 ], [ 12.324547998389056, 45.435210274008611 ], [ 12.324561955587328, 45.435238602411523 ], [ 12.324363486568265, 45.435302077358728 ], [ 12.324370603181261, 45.435328794332733 ], [ 12.324127989444724, 45.435408656816954 ], [ 12.323615927347483, 45.435558755803697 ], [ 12.323288548774203, 45.435593357899734 ], [ 12.323252745671418, 45.435154454290902 ] ] ] } },
{ "type": "Feature", "properties": { "parish": "San Salvador" }, "geometry": { "type": "Polygon", "coordinates": [ [ [ 12.336670642229192, 45.439189304252707 ], [ 12.336435883742693, 45.438589943593243 ], [ 12.337835918428977, 45.438377361401265 ], [ 12.337824080755656, 45.438338615178409 ], [ 12.33790299845267, 45.438330838406451 ], [ 12.338246631988198, 45.438649018238678 ], [ 12.338363169076541, 45.438567582660411 ], [ 12.338008961644192, 45.438256369698891 ], [ 12.337989241987376, 45.438094816189889 ], [ 12.338197228106331, 45.438041715216016 ], [ 12.33821482316276, 45.4380665645498 ], [ 12.338675595537152, 45.437951406036774 ], [ 12.338640042425459, 45.437842856187189 ], [ 12.33797335828722, 45.438003578808839 ], [ 12.33790804290199, 45.437753281067614 ], [ 12.337797224736702, 45.437518977932605 ], [ 12.337610306347422, 45.43714954992182 ], [ 12.33756052267071, 45.436761431918832 ], [ 12.338074005499482, 45.436550864244303 ], [ 12.338716833005096, 45.436411582771917 ], [ 12.338673171833403, 45.436314773387821 ], [ 12.338075350257526, 45.436449822771927 ], [ 12.337851325715004, 45.436231509525179 ], [ 12.337155714980277, 45.43567798883889 ], [ 12.337510987318039, 45.435360545080336 ], [ 12.337405340845331, 45.435303604537879 ], [ 12.337082216960651, 45.435592959877575 ], [ 12.336251360827253, 45.435176679866203 ], [ 12.336438373123647, 45.434695495897785 ], [ 12.336300590929579, 45.434678666805077 ], [ 12.336108330678472, 45.435202837507461 ], [ 12.335781825629335, 45.435292779755315 ], [ 12.335278333549835, 45.435989067418305 ], [ 12.334582810784999, 45.436401226334361 ], [ 12.334041149972318, 45.436678502400341 ], [ 12.33376369639824, 45.436957621060664 ], [ 12.333723091664071, 45.437077427853382 ], [ 12.334694968167227, 45.437481920170974 ], [ 12.335040537195205, 45.437682137080927 ], [ 12.3354888707862, 45.438070388348351 ], [ 12.335469632040446, 45.438181631760003 ], [ 12.335749348857005, 45.438385266193009 ], [ 12.335844451061458, 45.438446617526772 ], [ 12.336198291627534, 45.439277182499161 ], [ 12.336198291627534, 45.439277182499161 ], [ 12.336670642229192, 45.439189304252707 ] ] ] } },
{ "type": "Feature", "properties": { "parish": "Santi Giovanni e Paolo" }, "geometry": { "type": "Polygon", "coordinates": [ [ [ 12.341992567034477, 45.442511940100218 ], [ 12.343144849862011, 45.441830115365732 ], [ 12.346063971908348, 45.44008360027469 ], [ 12.34620429640189, 45.439798856777884 ], [ 12.346152486042991, 45.439726708749134 ], [ 12.346008309254424, 45.439112248564058 ], [ 12.345825417716334, 45.438330264293221 ], [ 12.345818431324657, 45.438047547012829 ], [ 12.34696445293331, 45.437790595636955 ], [ 12.346885913027009, 45.437714791051036 ], [ 12.345820066087008, 45.437965118544788 ], [ 12.34583026056208, 45.437257932490304 ], [ 12.345708568110824, 45.437262037975216 ], [ 12.345681862548309, 45.437971151872318 ], [ 12.344492417132274, 45.438029241991067 ], [ 12.344286006460305, 45.437270317993729 ], [ 12.344146529195958, 45.437290479212621 ], [ 12.344187747117967, 45.437474791237399 ], [ 12.342733957216035, 45.43794802228782 ], [ 12.342475364834185, 45.437481187539369 ], [ 12.342348516284973, 45.437551117682055 ], [ 12.342588085291979, 45.437996349966056 ], [ 12.34215118710102, 45.438134616978616 ], [ 12.340972849390536, 45.438347207077314 ], [ 12.340482414709564, 45.437916328352578 ], [ 12.340430484623468, 45.437868815157536 ], [ 12.340347153008977, 45.437913176401537 ], [ 12.340866969030557, 45.438377424802262 ], [ 12.340148863504531, 45.438592207177685 ], [ 12.339848259635019, 45.437991431996821 ], [ 12.339739245959979, 45.438045835216428 ], [ 12.339739245959979, 45.438045835216428 ], [ 12.340016176847175, 45.43862315319587 ], [ 12.339676263747373, 45.43875915916491 ], [ 12.33879036168392, 45.439054639938391 ], [ 12.338841358192711, 45.439150748376619 ], [ 12.33965359427061, 45.438912843249852 ], [ 12.339868132207268, 45.439241686331712 ], [ 12.339970419005798, 45.439668110342573 ], [ 12.339102030129492, 45.439877000699745 ], [ 12.339130410775596, 45.439962002215111 ], [ 12.34000491463881, 45.439749882462664 ], [ 12.34028460061965, 45.440306413340473 ], [ 12.340784621085859, 45.441052607968807 ], [ 12.341058067054046, 45.441547031572398 ], [ 12.340947686468358, 45.441577900434339 ], [ 12.341274015970919, 45.441965913244189 ], [ 12.341731672075687, 45.442478048167054 ], [ 12.341782119317543, 45.442533822993276 ], [ 12.341823046850539, 45.442575007694309 ], [ 12.341992567034477, 45.442511940100218 ] ] ] } },
{ "type": "Feature", "properties": { "parish": "San Marziale" }, "geometry": { "type": "Polygon", "coordinates": [ [ [ 12.325711014900998, 45.449688700165424 ], [ 12.330442542376634, 45.448623860593869 ], [ 12.336235056880621, 45.446551751954566 ], [ 12.335365454079957, 45.445275747874526 ], [ 12.336251218140644, 45.444769099739901 ], [ 12.336176230224741, 45.444137962271668 ], [ 12.335598417079172, 45.443413001421476 ], [ 12.336212073215648, 45.443210356577119 ], [ 12.336123996451349, 45.443117173959102 ], [ 12.335523268923428, 45.443307102024356 ], [ 12.335197436057562, 45.442895932741486 ], [ 12.334623030419344, 45.442396509583041 ], [ 12.334527194899582, 45.442468040885522 ], [ 12.33498909979615, 45.442869371363081 ], [ 12.334887106318845, 45.442940759174434 ], [ 12.334899247119115, 45.443075563377263 ], [ 12.334798887266302, 45.443112274234963 ], [ 12.334639986144348, 45.442952345905262 ], [ 12.334517447453212, 45.442936466035839 ], [ 12.334451144155624, 45.44290454190778 ], [ 12.334362866512999, 45.442815692608811 ], [ 12.334265367051145, 45.442791718516837 ], [ 12.334031992827951, 45.442773249341812 ], [ 12.333703163139006, 45.442687459086763 ], [ 12.333450268529413, 45.442560048248346 ], [ 12.333218913323494, 45.442368049460988 ], [ 12.33309331051175, 45.442417187132676 ], [ 12.333251183829184, 45.442598790508697 ], [ 12.333251183829184, 45.442598790508697 ], [ 12.332432401287644, 45.443027033579 ], [ 12.332017880483392, 45.443298215561285 ], [ 12.331871435310626, 45.443416042152762 ], [ 12.331439390893316, 45.443016617394271 ], [ 12.331321882688869, 45.443059212778152 ], [ 12.33177856139627, 45.443501429725515 ], [ 12.331646139702904, 45.443603304309356 ], [ 12.331055619331044, 45.443821689448889 ], [ 12.33061738186387, 45.443928935689797 ], [ 12.33007086883889, 45.444056330234339 ], [ 12.329790091421097, 45.443528752781717 ], [ 12.32964568093683, 45.443538042535081 ], [ 12.329987526074184, 45.444175239115886 ], [ 12.330205150802684, 45.444902430747533 ], [ 12.327888242472062, 45.445483610889596 ], [ 12.327712223184891, 45.445525840299275 ], [ 12.327360118136255, 45.444915038025478 ], [ 12.326576465884468, 45.444777497295512 ], [ 12.326084178592554, 45.44535431950743 ], [ 12.325728527293318, 45.445397935605584 ], [ 12.325054381294892, 45.445332702924773 ], [ 12.324400883268451, 45.445509948509518 ], [ 12.323117269318606, 45.445879069337707 ], [ 12.321458267071241, 45.446360262972853 ], [ 12.321232169324723, 45.446476082125329 ], [ 12.321118796570319, 45.446629570050767 ], [ 12.321243534958031, 45.447332218078792 ], [ 12.321275395762896, 45.447846347064342 ], [ 12.321404773827783, 45.448460444855257 ], [ 12.325114777732535, 45.447955792933215 ], [ 12.325487897546617, 45.449681328077524 ], [ 12.325711014900998, 45.449688700165424 ] ] ] } },
{ "type": "Feature", "properties": { "parish": "San_Martino" }, "geometry": { "type": "Polygon", "coordinates": [ [ [ 12.347396056643234, 45.436075497265911 ], [ 12.34778854036449, 45.436218446972227 ], [ 12.349429009149443, 45.437313801442379 ], [ 12.350542244365137, 45.437085375131005 ], [ 12.350890713422556, 45.437762606310322 ], [ 12.349555435289748, 45.438266919653195 ], [ 12.350069164971197, 45.439068436477676 ], [ 12.358477616141309, 45.437309457343318 ], [ 12.356997365566638, 45.435629098109331 ], [ 12.356499053335153, 45.435309751942256 ], [ 12.35572891015758, 45.435519420117458 ], [ 12.355752654249637, 45.43501142185481 ], [ 12.356031874123847, 45.433104142376784 ], [ 12.355634390974121, 45.433068168008738 ], [ 12.35429590661032, 45.43323789143551 ], [ 12.352537596383396, 45.43303652438761 ], [ 12.35086693220733, 45.432181404558712 ], [ 12.350131030263897, 45.432472126903484 ], [ 12.347938507299219, 45.43342491533074 ], [ 12.348061392256776, 45.433641896402129 ], [ 12.348504558120752, 45.433919849875451 ], [ 12.348639542308623, 45.434284322795698 ], [ 12.348618867575846, 45.434725476704081 ], [ 12.348458194162026, 45.434909103991494 ], [ 12.347772940734737, 45.435334816224717 ], [ 12.347396056643234, 45.436075497265911 ] ] ] } },
{ "type": "Feature", "properties": { "parish": "Santo Stefano" }, "geometry": { "type": "Polygon", "coordinates": [ [ [ 12.329885405885836, 45.436630768381967 ], [ 12.330241983062859, 45.436151584925071 ], [ 12.330825313422478, 45.436383058966726 ], [ 12.331073157504349, 45.436022346787745 ], [ 12.331612679499594, 45.435349310318976 ], [ 12.331898972887597, 45.435457518868091 ], [ 12.331943551273945, 45.435414287719595 ], [ 12.331747697390526, 45.435315006086007 ], [ 12.332323424940734, 45.434693349100407 ], [ 12.332606145327411, 45.434874160013607 ], [ 12.332653497235253, 45.434816928111182 ], [ 12.332292557214826, 45.434590932477015 ], [ 12.332461265235006, 45.43449711158501 ], [ 12.332867657317966, 45.434713153183573 ], [ 12.333013084661914, 45.434781268666299 ], [ 12.333054945171746, 45.434723037575061 ], [ 12.332678902138523, 45.434526983357948 ], [ 12.332837128022579, 45.434448063492098 ], [ 12.332786066618542, 45.434411069267526 ], [ 12.332602508712666, 45.434488020066098 ], [ 12.332552817374491, 45.434463450394297 ], [ 12.332943263472641, 45.434289027088944 ], [ 12.333005437018159, 45.434251495982998 ], [ 12.332921015478991, 45.434227077898058 ], [ 12.332489081476245, 45.434420172664055 ], [ 12.332282156309661, 45.434182613666017 ], [ 12.332377955530823, 45.434108066221377 ], [ 12.332845197568126, 45.434039919160796 ], [ 12.332828262954637, 45.433985686832806 ], [ 12.332394345074215, 45.43403043787815 ], [ 12.332180452640651, 45.433820507404519 ], [ 12.332348157070321, 45.433692217702514 ], [ 12.332317918022456, 45.43364092634279 ], [ 12.332112048946886, 45.433782119679286 ], [ 12.332073986046575, 45.43375823694906 ], [ 12.332220176186201, 45.433649278724673 ], [ 12.332322099188163, 45.433506906956978 ], [ 12.33292328016169, 45.433516099663379 ], [ 12.332928226808695, 45.433440437928802 ], [ 12.332314550164572, 45.433432896186346 ], [ 12.332165256234669, 45.4331012472447 ], [ 12.332437067428458, 45.433035265510291 ], [ 12.33248421670325, 45.433007433499483 ], [ 12.332307323672666, 45.432534540612977 ], [ 12.331907830106241, 45.431509507906902 ], [ 12.332396029151036, 45.431527225968928 ], [ 12.332354295955822, 45.431418652565085 ], [ 12.332124448549663, 45.431079454326238 ], [ 12.332101614004815, 45.430912007708045 ], [ 12.330484675489297, 45.430942200772627 ], [ 12.330200436049472, 45.430571919039245 ], [ 12.330080281973222, 45.43060772455901 ], [ 12.330436603378981, 45.431099535228398 ], [ 12.329421257565336, 45.431368732221969 ], [ 12.328916757995355, 45.430832333476602 ], [ 12.328789420635154, 45.430899298956405 ], [ 12.329241567774391, 45.431363002335431 ], [ 12.328664261258409, 45.431597962623677 ], [ 12.328239010312563, 45.431178216509082 ], [ 12.328152905807936, 45.43121699458252 ], [ 12.328619641814807, 45.431706319735532 ], [ 12.327976006702809, 45.43210622589919 ], [ 12.327736837475772, 45.432050007077031 ], [ 12.32744274831621, 45.431524816981927 ], [ 12.327323290358722, 45.431559268482836 ], [ 12.327626130616492, 45.432066380253055 ], [ 12.326891758290975, 45.432135054641869 ], [ 12.326911100103937, 45.43219841070556 ], [ 12.327667973272669, 45.432133574795216 ], [ 12.327883274405588, 45.432185793058252 ], [ 12.327501450357314, 45.432703665960709 ], [ 12.326754193088423, 45.432528462788177 ], [ 12.326724879470289, 45.432602055411294 ], [ 12.327428807212808, 45.432786806381465 ], [ 12.327219180960302, 45.433189912593264 ], [ 12.326449811276701, 45.433017765374963 ], [ 12.326394012269409, 45.433000514067622 ], [ 12.326350666380012, 45.43311908007658 ], [ 12.327180359169077, 45.43329264067156 ], [ 12.327031484281738, 45.433753250966348 ], [ 12.327030018097208, 45.433836350074714 ], [ 12.326414328332126, 45.433903330390002 ], [ 12.326427849840295, 45.43398158474254 ], [ 12.327015448408055, 45.433936461763416 ], [ 12.326996377136755, 45.434310259841361 ], [ 12.327039120189699, 45.43439678085273 ], [ 12.326255521609509, 45.434441949315264 ], [ 12.326289859173944, 45.434557829490551 ], [ 12.327113653351452, 45.434507784683539 ], [ 12.327265471340963, 45.434814365385897 ], [ 12.327594930960313, 45.434996140763779 ], [ 12.32688473688429, 45.435391252926728 ], [ 12.327007940606272, 45.435480526136672 ], [ 12.327706684381186, 45.435074918182494 ], [ 12.328106934675043, 45.435293612994272 ], [ 12.328453596505843, 45.435447922572102 ], [ 12.328230984264545, 45.436114662156598 ], [ 12.328335924961415, 45.436123131961452 ], [ 12.328548663430368, 45.435476677312764 ], [ 12.330008836532885, 45.436077322230162 ], [ 12.329631141469884, 45.436592113920426 ], [ 12.329885405885836, 45.436630768381967 ] ] ] } },
{ "type": "Feature", "properties": { "parish": "San Geremia" }, "geometry": { "type": "Polygon", "coordinates": [ [ [ 12.319051248978294, 45.447856734788552 ], [ 12.320073353970376, 45.447332714927093 ], [ 12.32054955205901, 45.447118489507162 ], [ 12.320860414431975, 45.446926256495317 ], [ 12.321218164248551, 45.446580647798605 ], [ 12.321819409591003, 45.446397929719261 ], [ 12.322731082614579, 45.446118534410203 ], [ 12.324667886234428, 45.445613201864603 ], [ 12.326063074880445, 45.445788829408876 ], [ 12.326512323536639, 45.445146122480374 ], [ 12.327120354521467, 45.445194806439176 ], [ 12.327407098801755, 45.445449720589956 ], [ 12.32746483443775, 45.44531810868952 ], [ 12.327212286612548, 45.445114763529631 ], [ 12.327633022712529, 45.444683309118759 ], [ 12.32790523737817, 45.444315711176728 ], [ 12.328141908967002, 45.443993101750941 ], [ 12.328168765827614, 45.443856317571999 ], [ 12.327915811809193, 45.44377646671164 ], [ 12.327965262973267, 45.443694850419995 ], [ 12.327396370192981, 45.443494341300863 ], [ 12.326533179086203, 45.443356546227875 ], [ 12.326372078534535, 45.443231139326727 ], [ 12.326259484142309, 45.442932527739742 ], [ 12.326463120438689, 45.442812163092498 ], [ 12.327017786666833, 45.442625908895685 ], [ 12.327710800581674, 45.442613673534964 ], [ 12.327652209670829, 45.4423561284001 ], [ 12.327564345707188, 45.442183288887072 ], [ 12.326942566600417, 45.441875850103536 ], [ 12.323786268108771, 45.440960926098938 ], [ 12.323342672600326, 45.440686485491902 ], [ 12.322648024007622, 45.44016375811465 ], [ 12.321940706296568, 45.439313036474225 ], [ 12.321478918183757, 45.438890929291638 ], [ 12.321515736373922, 45.438756099977745 ], [ 12.321628722901332, 45.438512360911503 ], [ 12.321491586301727, 45.438516284343152 ], [ 12.321422848276731, 45.438682502431632 ], [ 12.320570806364769, 45.438229299562281 ], [ 12.319701728861864, 45.438032204422186 ], [ 12.318835558872539, 45.438303396125249 ], [ 12.318454059357574, 45.438674314107274 ], [ 12.318335356001439, 45.439325273356594 ], [ 12.318187813499874, 45.440055064693922 ], [ 12.318646164761736, 45.440445714614114 ], [ 12.3188901787937, 45.440592798061608 ], [ 12.318888028044201, 45.440747172514762 ], [ 12.318725254820466, 45.441107037226246 ], [ 12.318236344459619, 45.441422694212577 ], [ 12.318246732661988, 45.441550193105257 ], [ 12.318405940041714, 45.441889423814359 ], [ 12.319201108587531, 45.442605973681452 ], [ 12.317903621527091, 45.443503895483992 ], [ 12.317428772169977, 45.443870442174472 ], [ 12.317246684674535, 45.444101090389083 ], [ 12.316721195093281, 45.446406559792372 ], [ 12.318064752816978, 45.447253344452413 ], [ 12.318461144750968, 45.447703734821616 ], [ 12.319051248978294, 45.447856734788552 ] ] ] } },
{ "type": "Feature", "properties": { "parish": "L'Angelo" }, "geometry": { "type": "Polygon", "coordinates": [ [ [ 12.320545071808757, 45.435945823571146 ], [ 12.320646289606117, 45.435368199438969 ], [ 12.320638347482204, 45.435176012854328 ], [ 12.321137760253009, 45.43530773614183 ], [ 12.321153462209317, 45.435216104629781 ], [ 12.320693208513521, 45.435097300710524 ], [ 12.32014934695804, 45.434824531694012 ], [ 12.320115793198518, 45.434806680557465 ], [ 12.320260837937795, 45.434636689586988 ], [ 12.32053903703493, 45.434331275122062 ], [ 12.321069098045697, 45.433787272616343 ], [ 12.321372003302589, 45.433877124800546 ], [ 12.321433900822683, 45.433754463497202 ], [ 12.321417804042403, 45.433699550774705 ], [ 12.321049780034173, 45.433596371485294 ], [ 12.320858058225816, 45.433526592119172 ], [ 12.320498993359417, 45.433412365769463 ], [ 12.320071483476204, 45.433190734133362 ], [ 12.319803333595248, 45.433047126336568 ], [ 12.319679745300707, 45.432956434973953 ], [ 12.319901102739848, 45.432730950190169 ], [ 12.319977215631127, 45.43265679377852 ], [ 12.320205063710683, 45.432440602472624 ], [ 12.320559590611307, 45.432026666493776 ], [ 12.320408386155542, 45.431978735228611 ], [ 12.32029158013612, 45.432130362688611 ], [ 12.319763777506266, 45.432048502589339 ], [ 12.318720861186776, 45.431918702069524 ], [ 12.31869606225519, 45.431668694753718 ], [ 12.31866393902002, 45.43148732217017 ], [ 12.318586269751625, 45.431150064162978 ], [ 12.316835581959944, 45.431420134441467 ], [ 12.315854865095496, 45.431532914122073 ], [ 12.315054954868435, 45.431600492318672 ], [ 12.314052308697235, 45.431592387800961 ], [ 12.312732035336007, 45.431532469710831 ], [ 12.310534228150409, 45.431328175866945 ], [ 12.31020868594217, 45.431400665647971 ], [ 12.309926929870782, 45.431677687741406 ], [ 12.309847715186917, 45.432115703470068 ], [ 12.309941958856239, 45.432344032841087 ], [ 12.310304664195469, 45.4326979098214 ], [ 12.310696559689804, 45.432929141827216 ], [ 12.310873841491977, 45.433243431980408 ], [ 12.311302707817006, 45.433833493011896 ], [ 12.311573480935632, 45.43422953013534 ], [ 12.313291189525039, 45.436203843340131 ], [ 12.314070344785572, 45.437064169499799 ], [ 12.314663955778823, 45.437544742978098 ], [ 12.315257157169498, 45.437643535894139 ], [ 12.315559796259157, 45.437516872694253 ], [ 12.315588544084434, 45.437106414281111 ], [ 12.315637153960843, 45.436287169637843 ], [ 12.315709099012151, 45.436038943193971 ], [ 12.316243251076303, 45.435305985030332 ], [ 12.316364899570878, 45.434770885104015 ], [ 12.317353373687002, 45.434969063856265 ], [ 12.318799573559133, 45.435309440798811 ], [ 12.319280535467323, 45.435406200138665 ], [ 12.32035193721347, 45.435578249228854 ], [ 12.32028954968245, 45.435902397037083 ], [ 12.320545071808757, 45.435945823571146 ] ] ] } },
{ "type": "Feature", "properties": { "parish": "San Pietro" }, "geometry": { "type": "Polygon", "coordinates": [ [ [ 12.359594217162018, 45.431813736421084 ], [ 12.359715118592462, 45.431007402943344 ], [ 12.3597429553878, 45.429702493821935 ], [ 12.359711549591147, 45.429160728520948 ], [ 12.359566098093085, 45.428363544363314 ], [ 12.359490561808204, 45.427430446438983 ], [ 12.359288097687458, 45.427246561230277 ], [ 12.35908476190389, 45.427147885204619 ], [ 12.358929298591143, 45.427087468025327 ], [ 12.358616989843281, 45.427062757648166 ], [ 12.358410743900111, 45.427092950333858 ], [ 12.358155650192916, 45.427172275651451 ], [ 12.357983854695464, 45.427262270177074 ], [ 12.357883568235511, 45.427349549109913 ], [ 12.356905355240526, 45.428349483128606 ], [ 12.356731514719524, 45.428396347680994 ], [ 12.356543454535382, 45.428554205584476 ], [ 12.356406067499634, 45.428690972308971 ], [ 12.356391712223683, 45.428767554583708 ], [ 12.3562840407533, 45.428866637102978 ], [ 12.354819033977245, 45.430304307795751 ], [ 12.353580756726018, 45.430831235424741 ], [ 12.352700509913655, 45.431130608373905 ], [ 12.352307541350582, 45.431269085913208 ], [ 12.351035779096163, 45.431655447967792 ], [ 12.350980983738525, 45.431692570922351 ], [ 12.350949103620657, 45.431760176367135 ], [ 12.350817287995056, 45.431792129099755 ], [ 12.350591414659021, 45.431891922890507 ], [ 12.350561937849243, 45.431972129083256 ], [ 12.350575304665378, 45.432076414345318 ], [ 12.350658777799556, 45.432428392554563 ], [ 12.351412457623512, 45.432657369937232 ], [ 12.351475055289612, 45.432792050863796 ], [ 12.353053148265534, 45.433295828034204 ], [ 12.355966342750662, 45.433149263857814 ], [ 12.355767679362554, 45.434046650352627 ], [ 12.355401566656193, 45.435676814106991 ], [ 12.35654743124562, 45.435485119060921 ], [ 12.357179227580016, 45.436055507803779 ], [ 12.357449116932537, 45.436364657850582 ], [ 12.357528046375924, 45.436499766964289 ], [ 12.3576560044582, 45.436640279644941 ], [ 12.357789328678846, 45.436665915418402 ], [ 12.357982303389315, 45.436580185803486 ], [ 12.358573610357645, 45.436180549052828 ], [ 12.358943448825562, 45.435988923708045 ], [ 12.359424458653022, 45.435602251676045 ], [ 12.359494140444355, 45.43543704376134 ], [ 12.359476001502346, 45.435357063781659 ], [ 12.359465680127071, 45.43531258802237 ], [ 12.359786307944812, 45.435372963468531 ], [ 12.360274710553696, 45.435384260491254 ], [ 12.360660386976951, 45.435340221913187 ], [ 12.361057031434985, 45.435222294416263 ], [ 12.361601125133086, 45.435007153965941 ], [ 12.361698939039128, 45.434845245232523 ], [ 12.361555973255598, 45.434201148386997 ], [ 12.361545654955609, 45.433777245712932 ], [ 12.361564023581913, 45.433544655054739 ], [ 12.361319981210228, 45.433130268015631 ], [ 12.361214754994389, 45.432738900802399 ], [ 12.361235839454482, 45.432565511710543 ], [ 12.361136233371997, 45.432471694787907 ], [ 12.360803891979026, 45.432212346808193 ], [ 12.360065983486848, 45.43187040648894 ], [ 12.359594217162018, 45.431813736421084 ] ] ] } },
{ "type": "Feature", "properties": { "parish": "San Canziano" }, "geometry": { "type": "Polygon", "coordinates": [ [ [ 12.335506563639347, 45.439915137726778 ], [ 12.335510367654438, 45.439919579950526 ], [ 12.335818584963958, 45.440144649224237 ], [ 12.335987591333575, 45.440188090784559 ], [ 12.336209417320335, 45.440172964835412 ], [ 12.336429209463244, 45.440132975641149 ], [ 12.336701278734608, 45.440071646522291 ], [ 12.337017119023672, 45.440101575676451 ], [ 12.337560800744638, 45.44026089592122 ], [ 12.337835642397346, 45.440335605671343 ], [ 12.33814920730409, 45.440481963372392 ], [ 12.338257605119098, 45.440549314871618 ], [ 12.338632733431069, 45.440941128340974 ], [ 12.338798949650618, 45.441190744224535 ], [ 12.338913348620272, 45.441461051566186 ], [ 12.338336801757105, 45.441580183198923 ], [ 12.338377291882685, 45.441662954860142 ], [ 12.338925590932025, 45.44154560610766 ], [ 12.339048617775155, 45.441940260898178 ], [ 12.338283096255116, 45.442128825124279 ], [ 12.338355179783457, 45.442217206462033 ], [ 12.339057841078681, 45.442053997349859 ], [ 12.339117004456236, 45.442354699096093 ], [ 12.338343862255098, 45.442582322280188 ], [ 12.33843810967061, 45.442655748396938 ], [ 12.339150999277059, 45.442456386471278 ], [ 12.33975286840745, 45.443513587721327 ], [ 12.339738172905092, 45.443598130922474 ], [ 12.340047986943244, 45.443721342412651 ], [ 12.341923379269389, 45.442531242149563 ], [ 12.341750188754444, 45.442301223207586 ], [ 12.341197011488134, 45.441659988429514 ], [ 12.340677731958449, 45.440684930187466 ], [ 12.340100058206554, 45.439683762552924 ], [ 12.34002337377339, 45.439553738602001 ], [ 12.339808082168018, 45.438774543238942 ], [ 12.339783440062003, 45.438689263107968 ], [ 12.340522392115474, 45.438394355058435 ], [ 12.34045331282702, 45.438291953634625 ], [ 12.339751623205684, 45.438571162846245 ], [ 12.339520958797433, 45.438657462186562 ], [ 12.338754234655832, 45.438899087774494 ], [ 12.337948636431339, 45.438419462760514 ], [ 12.337836120463916, 45.438175945805334 ], [ 12.33805191517545, 45.438121628723593 ], [ 12.338060017167175, 45.438160220849667 ], [ 12.338486488004596, 45.438054957263446 ], [ 12.338443351395602, 45.437917794666369 ], [ 12.337795477077146, 45.438091209066663 ], [ 12.337732304206433, 45.437747598241522 ], [ 12.337669220945306, 45.437718197161153 ], [ 12.337574610907474, 45.437726463771483 ], [ 12.337613178983604, 45.438066009531155 ], [ 12.336358662342109, 45.438274139640058 ], [ 12.336312219365563, 45.438101987107274 ], [ 12.336215282510421, 45.438054339139988 ], [ 12.335828791240935, 45.438258280977124 ], [ 12.335756562394536, 45.438633644137866 ], [ 12.335697226993835, 45.438815409509033 ], [ 12.335615655006158, 45.439003351139377 ], [ 12.335503630604128, 45.439258840966751 ], [ 12.335440148365281, 45.439337454332552 ], [ 12.334826892003143, 45.439783066186372 ], [ 12.334840332942578, 45.439800288740948 ], [ 12.335003863782601, 45.440035792033825 ], [ 12.335318521919616, 45.440057323662515 ], [ 12.335506563639347, 45.439915137726778 ] ] ] } },
{ "type": "Feature", "properties": { "parish": "Santa Maria Formosa" }, "geometry": { "type": "Polygon", "coordinates": [ [ [ 12.338622690188265, 45.439031821135117 ], [ 12.338866291190374, 45.43955809233578 ], [ 12.338972019618192, 45.439529070105628 ], [ 12.338763882821706, 45.439072898261415 ], [ 12.339637197173452, 45.438826665025481 ], [ 12.33987027336986, 45.439323300555536 ], [ 12.340041331207052, 45.439299998286387 ], [ 12.33980698142814, 45.438756774236751 ], [ 12.340437043144657, 45.43855290944844 ], [ 12.34059414568209, 45.439142891468855 ], [ 12.340704557135922, 45.439094707885815 ], [ 12.340559263413306, 45.438521724733725 ], [ 12.340921073686646, 45.438493497542666 ], [ 12.340922927397497, 45.438454063660188 ], [ 12.34198617853626, 45.438344089656248 ], [ 12.34247539613291, 45.438386801558131 ], [ 12.343574044949666, 45.438385494542558 ], [ 12.343574699995621, 45.438308995956142 ], [ 12.342271436110432, 45.438288994897469 ], [ 12.342256839685508, 45.438224548813693 ], [ 12.34326448054782, 45.437846828081227 ], [ 12.343244711636844, 45.437792420936155 ], [ 12.342557253333414, 45.43805099301786 ], [ 12.342489631378784, 45.437391255312676 ], [ 12.34290496621859, 45.436778863924637 ], [ 12.343033559295302, 45.436580555594077 ], [ 12.342903299671796, 45.43654266338676 ], [ 12.342379719918595, 45.43732353172993 ], [ 12.34154163746204, 45.436817055035462 ], [ 12.341047471329011, 45.436537844475168 ], [ 12.340760069151585, 45.436387072571627 ], [ 12.341446376514829, 45.43569673780506 ], [ 12.341369902720972, 45.435624675491376 ], [ 12.341246907176551, 45.435586669864335 ], [ 12.340567894933827, 45.436227976773793 ], [ 12.340086308783778, 45.435854807355923 ], [ 12.34082287692288, 45.435369462368534 ], [ 12.340796262160465, 45.43529856132416 ], [ 12.340747724368379, 45.435269318039957 ], [ 12.339959978370938, 45.435781582151122 ], [ 12.339716629877609, 45.43564940456605 ], [ 12.3395364478232, 45.43583917849822 ], [ 12.339572309081523, 45.435855891963342 ], [ 12.339308637078551, 45.436127602264776 ], [ 12.339217239898089, 45.436212797969539 ], [ 12.338895996459708, 45.43638988462444 ], [ 12.338832063497387, 45.436418676777087 ], [ 12.338472727419695, 45.436440329381362 ], [ 12.338446247340542, 45.436422894154049 ], [ 12.338212988402997, 45.436461317769158 ], [ 12.337628965974121, 45.435829095474915 ], [ 12.337492084047119, 45.435858692354365 ], [ 12.338055896016346, 45.436473987665778 ], [ 12.33751048927105, 45.436637139375492 ], [ 12.337503831803589, 45.437127884686085 ], [ 12.337506129125314, 45.437171362012606 ], [ 12.33768947168152, 45.437633456002231 ], [ 12.337731961032718, 45.438301525193943 ], [ 12.337167301566776, 45.438650745595282 ], [ 12.33724895676, 45.438711195006285 ], [ 12.337808094384632, 45.438372972510436 ], [ 12.338008278613191, 45.43861696203799 ], [ 12.338062397370761, 45.438601683140284 ], [ 12.338273398620421, 45.43879306788314 ], [ 12.338345222837392, 45.438764668110096 ], [ 12.338534464982885, 45.438964567360472 ], [ 12.337738186165986, 45.439297923319998 ], [ 12.337835991411904, 45.439357009822679 ], [ 12.338625797454405, 45.439029591351861 ], [ 12.338622690188265, 45.439031821135117 ] ] ] } },
{ "type": "Feature", "properties": { "parish": "Santi Ermagora e Fortunato" }, "geometry": { "type": "Polygon", "coordinates": [ [ [ 12.334222287265703, 45.442784588002233 ], [ 12.333659656985827, 45.442685192683463 ], [ 12.333521660374961, 45.442621710049565 ], [ 12.333348337075675, 45.442524318652936 ], [ 12.332920378051993, 45.442116951748567 ], [ 12.332419526963943, 45.441621265737936 ], [ 12.332995231090367, 45.441339738539611 ], [ 12.333065603488079, 45.441202925792851 ], [ 12.332816212408904, 45.440965182233178 ], [ 12.332535599704169, 45.440972469900878 ], [ 12.331822822518326, 45.441281183205859 ], [ 12.331362381600343, 45.440887591512023 ], [ 12.331281504287798, 45.440931919617064 ], [ 12.331703400934789, 45.441341117845809 ], [ 12.331283523238717, 45.441501387422576 ], [ 12.330825721678252, 45.441024837534478 ], [ 12.330712598563924, 45.441108278755436 ], [ 12.331154891542578, 45.441545981824149 ], [ 12.330739091308049, 45.441775622462664 ], [ 12.330389098231754, 45.44190049380903 ], [ 12.330016667612213, 45.441987310193774 ], [ 12.329861107633121, 45.441997317856831 ], [ 12.329453770570392, 45.441450584680048 ], [ 12.329345913708503, 45.44149542984006 ], [ 12.329727062151921, 45.442023678591916 ], [ 12.329180967245659, 45.442086117560486 ], [ 12.328756913850047, 45.44159224719531 ], [ 12.328687654083369, 45.441616775713491 ], [ 12.329060622597007, 45.442109271306983 ], [ 12.328111412756456, 45.442215968298022 ], [ 12.327620302866301, 45.442222245185576 ], [ 12.32726124698554, 45.442242646637432 ], [ 12.327202011776567, 45.441764106407327 ], [ 12.327078864181923, 45.441772025877071 ], [ 12.327130773428578, 45.442243192294256 ], [ 12.326478355577377, 45.442276479687337 ], [ 12.325908569597363, 45.442253329315243 ], [ 12.325668300746228, 45.442255050966523 ], [ 12.325508825432049, 45.44238853943348 ], [ 12.325593448512461, 45.442586558672474 ], [ 12.326129287217135, 45.442738789333951 ], [ 12.325731753219948, 45.443268666537563 ], [ 12.325423988359088, 45.443673397613892 ], [ 12.325320923876708, 45.443725038195204 ], [ 12.325018570241074, 45.443904692030024 ], [ 12.325073559876222, 45.443995400582693 ], [ 12.325205243812576, 45.444040216010542 ], [ 12.325479367325778, 45.443866608285738 ], [ 12.32567769935557, 45.443755606206118 ], [ 12.326415091573045, 45.443777627285186 ], [ 12.327265394680854, 45.443806248844609 ], [ 12.327976116818428, 45.443955253757061 ], [ 12.328187811035381, 45.444010467020533 ], [ 12.32803899751827, 45.444178851474156 ], [ 12.327853213550661, 45.444135941733194 ], [ 12.327828515135552, 45.444161804741519 ], [ 12.328015602561353, 45.444210253635674 ], [ 12.327699690051388, 45.444562804190831 ], [ 12.327254242136016, 45.444927487003497 ], [ 12.327244414601465, 45.444935684357972 ], [ 12.327146695470825, 45.444930436214165 ], [ 12.326592368439551, 45.444912463783737 ], [ 12.326187129353325, 45.444916016386706 ], [ 12.326201064748529, 45.445013252685506 ], [ 12.327169076602916, 45.445034062741684 ], [ 12.327299376419807, 45.44513402394935 ], [ 12.327574716383356, 45.445576300629959 ], [ 12.32684037704008, 45.445731788846352 ], [ 12.326875348652546, 45.445814738718909 ], [ 12.32805366445757, 45.445571234265351 ], [ 12.329263339667063, 45.445293531610474 ], [ 12.329887044853358, 45.445141397758569 ], [ 12.330987031458038, 45.444787086867578 ], [ 12.330899557428385, 45.444691899699059 ], [ 12.330329023016192, 45.444905338435284 ], [ 12.330054454801855, 45.444141630106522 ], [ 12.331776193029938, 45.443609809328628 ], [ 12.331972434801441, 45.443454803359757 ], [ 12.332651606400589, 45.443030317919046 ], [ 12.333280460863296, 45.442693315879836 ], [ 12.333875175033857, 45.442902268766915 ], [ 12.33426112079637, 45.442819665217399 ], [ 12.334200574513162, 45.442806020950883 ], [ 12.334222287265703, 45.442784588002233 ] ] ] } },
{ "type": "Feature", "properties": { "parish": "San Nicola da Tolentino" }, "geometry": { "type": "Polygon", "coordinates": [ [ [ 12.316871550983477, 45.441554988377305 ], [ 12.318121588441217, 45.440812148448792 ], [ 12.318607880370047, 45.440689552656984 ], [ 12.318974654330592, 45.440219519994038 ], [ 12.319118335971986, 45.439480454240389 ], [ 12.319492980665736, 45.439095364396415 ], [ 12.319770923978234, 45.439160512309257 ], [ 12.320194074983181, 45.439382947740768 ], [ 12.320523499656256, 45.439909707767519 ], [ 12.320620094757793, 45.439715829134009 ], [ 12.320862212766198, 45.439448446384887 ], [ 12.32102883648783, 45.439390821493646 ], [ 12.321032295001601, 45.439202448310297 ], [ 12.32113416037212, 45.439050831136903 ], [ 12.321342817821833, 45.438746137411144 ], [ 12.321534512579193, 45.43833526824497 ], [ 12.321635178664868, 45.438066738427466 ], [ 12.321653905569299, 45.437933927920355 ], [ 12.321805262526134, 45.437864008778128 ], [ 12.322205594799234, 45.437866567718864 ], [ 12.322286808504769, 45.437842843748975 ], [ 12.322727707567948, 45.437860021630392 ], [ 12.322731830118187, 45.437926754794965 ], [ 12.323144043567865, 45.43798597383941 ], [ 12.32313321693387, 45.438060899502247 ], [ 12.323174268640786, 45.438065279585402 ], [ 12.323039902238666, 45.438499842778555 ], [ 12.32317304419677, 45.438490227555988 ], [ 12.323286795415614, 45.438061926543305 ], [ 12.323308585442488, 45.437995227237572 ], [ 12.323408711933741, 45.437842263573188 ], [ 12.323638154565538, 45.437614676399321 ], [ 12.324044322905909, 45.437340292795717 ], [ 12.323951664773778, 45.437289521627179 ], [ 12.323740137062616, 45.437444169023728 ], [ 12.323654676193785, 45.437275247471682 ], [ 12.323250800381473, 45.437362027730998 ], [ 12.322940791094901, 45.436748662906339 ], [ 12.322931835563331, 45.436728622499693 ], [ 12.323228835061061, 45.436672960830094 ], [ 12.323411725071573, 45.436475042689899 ], [ 12.322954476925975, 45.436621137990414 ], [ 12.322739750850804, 45.436640857985282 ], [ 12.322606734733238, 45.436695015600435 ], [ 12.32255941899739, 45.436509233616448 ], [ 12.322654088771507, 45.436405786525071 ], [ 12.323288647888084, 45.436326611993607 ], [ 12.32324228295405, 45.435762092449082 ], [ 12.323913308407867, 45.435721931066787 ], [ 12.323908427793977, 45.435611603870328 ], [ 12.323215188630506, 45.43564156531167 ], [ 12.323195674773951, 45.43530691410318 ], [ 12.322994246925463, 45.43540173670425 ], [ 12.323004508742951, 45.43561173717292 ], [ 12.321505778478393, 45.435867107115719 ], [ 12.321774459438474, 45.435678437997623 ], [ 12.321221413660604, 45.435428267548538 ], [ 12.321225557147436, 45.435340762979543 ], [ 12.320653963750614, 45.435148054435828 ], [ 12.320576432200452, 45.435061461348774 ], [ 12.32029015515068, 45.434900999408875 ], [ 12.319979917448205, 45.43491582243216 ], [ 12.320356396533494, 45.435130207529838 ], [ 12.320254714688543, 45.435444470922988 ], [ 12.318842309240212, 45.435194643748297 ], [ 12.317267475596935, 45.434901289056128 ], [ 12.317437044091506, 45.434593790480641 ], [ 12.317249669448273, 45.434623113821687 ], [ 12.317091269830064, 45.434873339355974 ], [ 12.316296194362538, 45.43474037859783 ], [ 12.31623516840828, 45.434786383463759 ], [ 12.315618228110182, 45.434775687840158 ], [ 12.31433467329979, 45.438248623547842 ], [ 12.315044750258442, 45.439767480618983 ], [ 12.315177707378846, 45.440805432137871 ], [ 12.316577807132619, 45.441567841279571 ], [ 12.316871550983477, 45.441554988377305 ] ] ] } },
{ "type": "Feature", "properties": { "parish": "Giudecca2" }, "geometry": { "type": "Polygon", "coordinates": [ [ [ 12.333591512117346, 45.425466322364251 ], [ 12.334180173384899, 45.423156204114029 ], [ 12.33238364942199, 45.423028808162648 ], [ 12.331030158473585, 45.423028935245036 ], [ 12.327536043794495, 45.423217221888812 ], [ 12.3228674990636, 45.423492126097287 ], [ 12.320036738669355, 45.424135588699585 ], [ 12.317342004598078, 45.425452637796212 ], [ 12.317126585584079, 45.425861681364999 ], [ 12.318556800646549, 45.428774323254146 ], [ 12.320162536028848, 45.428575405332239 ], [ 12.32354738666954, 45.427471669776637 ], [ 12.327125131445937, 45.426431509410847 ], [ 12.329922385965453, 45.425905403417389 ], [ 12.332011954338398, 45.425588891666727 ], [ 12.333591512117346, 45.425466322364251 ] ] ] } },
{ "type": "Feature", "properties": { "parish": "San Silvestro" }, "geometry": { "type": "Polygon", "coordinates": [ [ [ 12.333565537256142, 45.440219031884119 ], [ 12.333947262265148, 45.440506205497599 ], [ 12.334261194330953, 45.440554544470388 ], [ 12.335221722395058, 45.44008318120747 ], [ 12.335573937382488, 45.4399132296112 ], [ 12.336018109880486, 45.440155224977154 ], [ 12.336103202548125, 45.44006812379957 ], [ 12.335692399413842, 45.439816217264635 ], [ 12.335670119306455, 45.439803749575155 ], [ 12.336010937077281, 45.43953269212124 ], [ 12.336054378876081, 45.439540825848965 ], [ 12.336183049817098, 45.43944294565501 ], [ 12.336793383195937, 45.439514598639569 ], [ 12.336820339716684, 45.439430585275417 ], [ 12.336204612341874, 45.439362486643873 ], [ 12.336434741471161, 45.438949380505328 ], [ 12.336496518063306, 45.438601775871149 ], [ 12.337108849530578, 45.438506650365809 ], [ 12.337054202742488, 45.438420275710293 ], [ 12.336539499024468, 45.438495796498749 ], [ 12.336329509335162, 45.438107215919167 ], [ 12.336243350711172, 45.438062042639892 ], [ 12.336130664964013, 45.438059412587933 ], [ 12.336234269532177, 45.437994497288564 ], [ 12.335977662863737, 45.437819311221503 ], [ 12.335896430366967, 45.437877842515725 ], [ 12.335898691549438, 45.437777758437264 ], [ 12.335130918835087, 45.437166838103693 ], [ 12.335600764940667, 45.436753168519559 ], [ 12.335505830568811, 45.436719812052132 ], [ 12.335028883265204, 45.437113498946744 ], [ 12.33474627046296, 45.437011121363511 ], [ 12.333857886740317, 45.436672025701291 ], [ 12.333568408411976, 45.436584697999209 ], [ 12.332972129686841, 45.436400509522784 ], [ 12.332630137666964, 45.436297025943276 ], [ 12.332827159004035, 45.435985412852268 ], [ 12.332690779711944, 45.435954047896644 ], [ 12.332500789668172, 45.436257997924208 ], [ 12.330986614606253, 45.435894724109147 ], [ 12.330699567521309, 45.43630708850867 ], [ 12.331006699416619, 45.436395010948615 ], [ 12.330876559855179, 45.436722615787936 ], [ 12.33077771824807, 45.437197052818618 ], [ 12.330640713851585, 45.437595851174692 ], [ 12.330626563880079, 45.437652158358858 ], [ 12.330606250581658, 45.43793649213444 ], [ 12.330416493006528, 45.438255700235381 ], [ 12.330513088163267, 45.438303270086799 ], [ 12.330842957794024, 45.437840079525657 ], [ 12.331006748458055, 45.437876274558164 ], [ 12.331063158430489, 45.437898630719019 ], [ 12.331209054870355, 45.438021791546845 ], [ 12.331438296741299, 45.438132336856533 ], [ 12.331673199169618, 45.438220358793174 ], [ 12.331735145574228, 45.438270898638905 ], [ 12.331358846710051, 45.43860470902834 ], [ 12.331453094916501, 45.438662941321383 ], [ 12.331748270277478, 45.43841596283692 ], [ 12.332132553954402, 45.438579646963767 ], [ 12.332335197503287, 45.438643318735146 ], [ 12.332547254755282, 45.438816111979826 ], [ 12.332902285101444, 45.439194135455459 ], [ 12.333191922138848, 45.439453430837617 ], [ 12.333586638290969, 45.439882003233478 ], [ 12.33379444348955, 45.440005432758362 ], [ 12.333565537256142, 45.440219031884119 ] ] ] } },
{ "type": "Feature", "properties": { "parish": "Santa Maria del Rosario" }, "geometry": { "type": "Polygon", "coordinates": [ [ [ 12.328585584031101, 45.432089410115985 ], [ 12.329205284863169, 45.431812797551046 ], [ 12.329326548788364, 45.432017269902872 ], [ 12.329468481381266, 45.431957220126328 ], [ 12.329342451388055, 45.431767038878704 ], [ 12.329686934758184, 45.431662759875245 ], [ 12.330014120117404, 45.431578238634337 ], [ 12.330132386145152, 45.431759596033679 ], [ 12.330228007072039, 45.43172726689513 ], [ 12.330146248464557, 45.431552524603099 ], [ 12.330435502986823, 45.431500199735218 ], [ 12.330740125909102, 45.431460890075165 ], [ 12.331418750191412, 45.431436656951952 ], [ 12.331540361552257, 45.431654787415816 ], [ 12.331672911191761, 45.431641001165723 ], [ 12.331553896006662, 45.431431374172767 ], [ 12.331936582982056, 45.431452984869914 ], [ 12.332022859914945, 45.431657624851297 ], [ 12.332150217671966, 45.431645524665733 ], [ 12.332071193878278, 45.431458089491919 ], [ 12.332935016690314, 45.431489526621007 ], [ 12.333330848139074, 45.431508148984186 ], [ 12.333344194320912, 45.431722981723269 ], [ 12.333461440286131, 45.431725721084661 ], [ 12.333462768257679, 45.431522770883824 ], [ 12.334254169222859, 45.431584022130735 ], [ 12.335931141578223, 45.431902090008478 ], [ 12.335798635273546, 45.432149544640737 ], [ 12.335938143530518, 45.432181165011947 ], [ 12.336091214233502, 45.43192473557751 ], [ 12.336902103685247, 45.432099660751035 ], [ 12.337756168695703, 45.432355951614525 ], [ 12.337852022550841, 45.432173822202316 ], [ 12.337586455653542, 45.431048968577649 ], [ 12.337586455653542, 45.431048968577649 ], [ 12.337077716225263, 45.430526106116417 ], [ 12.336397876889878, 45.430033930703623 ], [ 12.335600050707448, 45.429230795338299 ], [ 12.333422507713934, 45.428152601307261 ], [ 12.332042782635273, 45.427877531416186 ], [ 12.329162800233178, 45.428238111883907 ], [ 12.326701557655609, 45.428695832300704 ], [ 12.325014008693248, 45.429128690615869 ], [ 12.325076313354867, 45.429530973733414 ], [ 12.325125672601747, 45.429622502946458 ], [ 12.325230001234027, 45.429620544391568 ], [ 12.325418549843388, 45.429909732084226 ], [ 12.325148190185976, 45.430028166005172 ], [ 12.325248776704145, 45.430105385333093 ], [ 12.325529964506959, 45.429978397625355 ], [ 12.325747316536484, 45.430187526231933 ], [ 12.325809030819597, 45.430249155409875 ], [ 12.326005091410963, 45.430557540664573 ], [ 12.326315422504093, 45.43119673289312 ], [ 12.326467689418109, 45.431072570978557 ], [ 12.326383323011671, 45.430904771193696 ], [ 12.327138216726544, 45.430622177776726 ], [ 12.327205505672103, 45.430612549322149 ], [ 12.327612688921791, 45.431088182649169 ], [ 12.328329917179531, 45.430845958612977 ], [ 12.328866193553761, 45.431465256741966 ], [ 12.328147306494863, 45.431750959447278 ], [ 12.328585584031101, 45.432089410115985 ] ] ] } },
{ "type": "Feature", "properties": { "parish": "San Marco" }, "geometry": { "type": "Polygon", "coordinates": [ [ [ 12.334072273816506, 45.435004766091872 ], [ 12.334482695661402, 45.434667791020125 ], [ 12.335350147745087, 45.43483884056657 ], [ 12.335845496482237, 45.434932415082059 ], [ 12.335923985737603, 45.435100913987213 ], [ 12.336162520010255, 45.435215497918719 ], [ 12.336195170686882, 45.435409010601454 ], [ 12.336481777714017, 45.435488370077174 ], [ 12.336756028555662, 45.43563854774726 ], [ 12.336957206561561, 45.435747407529462 ], [ 12.336404297772951, 45.436109399974136 ], [ 12.336504268948401, 45.436159768079328 ], [ 12.337033038698989, 45.435797433415345 ], [ 12.337510868504742, 45.436175051631089 ], [ 12.33801614086536, 45.43660934378898 ], [ 12.337694521417585, 45.436659302831885 ], [ 12.337790624625436, 45.43675956598296 ], [ 12.338949346176834, 45.436592790405307 ], [ 12.339422071881089, 45.436232726958941 ], [ 12.339707569016632, 45.435883554707921 ], [ 12.340460046670621, 45.436256492143123 ], [ 12.340544426231686, 45.436173471262833 ], [ 12.340027367220051, 45.435928351197724 ], [ 12.340119975433259, 45.435841185562481 ], [ 12.340173308637903, 45.435778768880347 ], [ 12.340214953596538, 45.435744256991605 ], [ 12.340560949596242, 45.435411600871852 ], [ 12.340590813568534, 45.435369633679848 ], [ 12.340646851573524, 45.435182794218335 ], [ 12.34110895421094, 45.433753358917521 ], [ 12.341183807705647, 45.433513390622061 ], [ 12.341183465137947, 45.433340304835397 ], [ 12.338179339419744, 45.432355837884593 ], [ 12.336815649805681, 45.431982327324192 ], [ 12.335897966040022, 45.431849201169669 ], [ 12.335815658428912, 45.432011557784755 ], [ 12.335875971519329, 45.432118103512217 ], [ 12.335334766639804, 45.433402405203829 ], [ 12.335256089103304, 45.433427076659818 ], [ 12.33504930711379, 45.433397299467877 ], [ 12.334915157515894, 45.433659250899225 ], [ 12.33429345110434, 45.433503804841308 ], [ 12.334230070658611, 45.433586111499203 ], [ 12.33490350396543, 45.433746138704819 ], [ 12.334651304186604, 45.434301121359454 ], [ 12.334387764330737, 45.434597228145435 ], [ 12.333933000560421, 45.434966651602871 ], [ 12.334072273816506, 45.435004766091872 ] ] ] } },
{ "type": "Feature", "properties": { "parish": "Giudecca1" }, "geometry": { "type": "Polygon", "coordinates": [ [ [ 12.333740684949943, 45.425536753743003 ], [ 12.336164515181515, 45.426108034904644 ], [ 12.340121535880179, 45.427723501806682 ], [ 12.341865941337785, 45.428580392073307 ], [ 12.342004402225296, 45.429191058289078 ], [ 12.34268965661694, 45.430154628512362 ], [ 12.34332641236993, 45.430641379191556 ], [ 12.343773683616607, 45.430745425835113 ], [ 12.346331768682752, 45.429928533492699 ], [ 12.346539279944697, 45.429730351458765 ], [ 12.346554732718671, 45.429400824897641 ], [ 12.346331688686728, 45.428393293680443 ], [ 12.345565535091124, 45.427055933748463 ], [ 12.344020269293441, 45.426195269205813 ], [ 12.343424519761697, 45.426219467636294 ], [ 12.341976727338125, 45.425970064379406 ], [ 12.341737254050201, 45.425387760813102 ], [ 12.339934374514515, 45.423815957597611 ], [ 12.337355853991021, 45.423018964683614 ], [ 12.334011853946942, 45.423020995339584 ], [ 12.333740684949943, 45.425536753743003 ] ] ] } }
]
}
