{
"type": "FeatureCollection",
"name": "sestiere",
"crs": { "type": "name", "properties": { "name": "urn:ogc:def:crs:EPSG::32633" } },
"features": [
{ "type": "Feature", "properties": { "division_name": "CANNAREGIO" }, "geometry": { "type": "Polygon", "coordinates": [ [ [ 291099.320176304318011, 5036273.470838621258736 ], [ 291131.817915267660283, 5036259.473603115417063 ], [ 291133.318777756998315, 5036262.473051927052438 ], [ 291135.322543599642813, 5036261.473176954314113 ], [ 291148.821412735502236, 5036254.9745411304757 ], [ 291165.816619899705984, 5036247.475935080088675 ], [ 291182.069639303721488, 5036240.477317340672016 ], [ 291197.819674474303611, 5036231.469135495834053 ], [ 291244.319387511815876, 5036206.474049706012011 ], [ 291271.317028963414486, 5036192.476796708069742 ], [ 291278.317998505604919, 5036192.47681896854192 ], [ 291285.31887123110937, 5036191.476959887892008 ], [ 291318.319713574193884, 5036173.470500783063471 ], [ 291322.06344699265901, 5036172.470731338486075 ], [ 291326.565866274875589, 5036171.470964311622083 ], [ 291338.819553841021843, 5036166.471896546892822 ], [ 291348.318992730579339, 5036161.472920022904873 ], [ 291373.815955784928519, 5036149.475224943831563 ], [ 291396.566870008828118, 5036137.47762113250792 ], [ 291421.313447045977227, 5036125.479923671111465 ], [ 291428.066930741944816, 5036122.480601107701659 ], [ 291488.56851470132824, 5036087.477446558885276 ], [ 291525.560495361103676, 5036065.48167457152158 ], [ 291550.315278637455776, 5036051.474414624273777 ], [ 291559.559125470055733, 5036045.475555939599872 ], [ 291583.316127305733971, 5036031.478292635641992 ], [ 291593.310356974601746, 5036026.479317683726549 ], [ 291613.810229048249312, 5036009.482599982060492 ], [ 291628.562495531281456, 5035996.475089576095343 ], [ 291639.315420604136307, 5035988.476672995835543 ], [ 291632.314479687716812, 5035979.478418622165918 ], [ 291602.810156738793012, 5035939.475871147587895 ], [ 291577.816427441604901, 5035906.482107250019908 ], [ 291545.566165204741992, 5035863.480107008479536 ], [ 291539.563005695701577, 5035854.481855802237988 ], [ 291536.817067996715195, 5035850.982512359507382 ], [ 291560.062787309871055, 5035834.485694066621363 ], [ 291584.322886163077783, 5035818.478769856505096 ], [ 291603.560969022102654, 5035805.481373526155949 ], [ 291622.312560947495513, 5035792.483875651843846 ], [ 291634.566267595160753, 5035781.486019807867706 ], [ 291640.313876395812258, 5035776.486931354738772 ], [ 291657.812091707717627, 5035763.479529676027596 ], [ 291671.558270543464459, 5035752.481578580103815 ], [ 291677.808869971253444, 5035747.482591724954545 ], [ 291688.05862490349682, 5035764.479407199658453 ], [ 291705.812382720177993, 5035799.482810573652387 ], [ 291733.312904843653087, 5035851.483027828857303 ], [ 291753.556981679284945, 5035834.486309313215315 ], [ 291835.061476000119001, 5035767.499318274669349 ], [ 291869.068331424263306, 5035739.484749085269868 ], [ 291895.81870292162057, 5035717.488944522105157 ], [ 291896.808287662104703, 5035716.489166322164237 ], [ 291956.559530114522204, 5035667.488670529797673 ], [ 291997.303482226328924, 5035632.485453148372471 ], [ 291998.556862050667405, 5035631.485675786621869 ], [ 292006.308238282334059, 5035624.986921682953835 ], [ 292018.561943337554112, 5035614.48895651102066 ], [ 292030.304351559723727, 5035605.990552402101457 ], [ 292043.308442630805075, 5035595.492589614354074 ], [ 292042.30246773804538, 5035593.493023722432554 ], [ 292063.808227452449501, 5035574.486646711826324 ], [ 292076.301129639381543, 5035563.488791626878083 ], [ 292114.051731166196987, 5035530.485227416269481 ], [ 292174.553369104280137, 5035478.505289589986205 ], [ 292178.049713524756953, 5035475.495856856927276 ], [ 292170.051103950478137, 5035462.488274112343788 ], [ 292160.551631852227729, 5035446.491342375054955 ], [ 292159.553855215664953, 5035444.991567184217274 ], [ 292157.055316086160019, 5035440.492443180643022 ], [ 292142.303176884190179, 5035413.487500122748315 ], [ 292123.304342227522284, 5035378.494092606939375 ], [ 292112.056721820146777, 5035356.48826742079109 ], [ 292101.806982785870787, 5035334.492345223203301 ], [ 292090.559373477939516, 5035308.997185142710805 ], [ 292078.808776754653081, 5035282.492142300121486 ], [ 292051.55568181531271, 5035220.493912391364574 ], [ 292040.811161542776972, 5035195.4985445830971 ], [ 292034.305030518735293, 5035180.491403897292912 ], [ 292033.554649271885864, 5035178.99172949232161 ], [ 292032.309483606368303, 5035175.492390820756555 ], [ 292025.803455728164408, 5035159.495368600822985 ], [ 292019.808515145792626, 5035144.498229352757335 ], [ 292019.561222934455145, 5035143.498447221703827 ], [ 292011.059599063359201, 5035106.495410580188036 ], [ 291997.560741067165509, 5035109.494811701588333 ], [ 291965.054708638926968, 5035121.492384505458176 ], [ 291946.80612639861647, 5035128.500995717942715 ], [ 291940.555536515195854, 5035130.500638538971543 ], [ 291893.058067543199286, 5035147.497270403429866 ], [ 291860.065544180455618, 5035159.494841656647623 ], [ 291850.813440441852435, 5035151.9962521456182 ], [ 291851.563829639111646, 5035150.996473184786737 ], [ 291816.064597728662193, 5035117.49268541764468 ], [ 291801.065009044192266, 5035107.494524272158742 ], [ 291787.813616406871006, 5035088.498136566951871 ], [ 291753.815005431883037, 5035102.495367312803864 ], [ 291732.061791712185368, 5035108.494086224585772 ], [ 291725.81130500684958, 5035109.49394769500941 ], [ 291683.81395580759272, 5035119.491927620954812 ], [ 291661.310471970296931, 5035120.491637418977916 ], [ 291657.814070302410983, 5035141.497634377330542 ], [ 291626.561130021174904, 5035211.494229027070105 ], [ 291594.31890994834248, 5035249.496917465701699 ], [ 291578.065849206410348, 5035269.493092704564333 ], [ 291537.56921478791628, 5035297.48764162696898 ], [ 291533.066889113630168, 5035300.49707115907222 ], [ 291524.317733066505753, 5035306.49583141785115 ], [ 291508.064700948423706, 5035317.493674543686211 ], [ 291476.828516227775253, 5035338.489683484658599 ], [ 291474.31345673429314, 5035340.48923818115145 ], [ 291452.815900049055927, 5035358.495733864605427 ], [ 291415.320896971272305, 5035390.489517711102962 ], [ 291410.068078951095231, 5035395.48860773909837 ], [ 291400.815925915667322, 5035403.487029084935784 ], [ 291389.815702273393981, 5035412.485326222144067 ], [ 291379.821359855646733, 5035421.493526369333267 ], [ 291360.071973805199377, 5035438.490246450528502 ], [ 291344.816716730885673, 5035451.487755438312888 ], [ 291335.325468150782399, 5035459.486176029779017 ], [ 291333.568996078334749, 5035460.995942275039852 ], [ 291295.818416844878811, 5035486.990837231278419 ], [ 291297.822169963736087, 5035489.990287641994655 ], [ 291265.068726235534996, 5035506.986966368742287 ], [ 291245.566759428300429, 5035516.485127144493163 ], [ 291227.070772285340354, 5035526.483081789687276 ], [ 291187.819362334499601, 5035539.490514286793768 ], [ 291163.320190238533542, 5035548.48876849655062 ], [ 291130.31937338510761, 5035558.486777019686997 ], [ 291119.31916564545827, 5035562.485967425629497 ], [ 291105.06992159911897, 5035565.495365964248776 ], [ 291094.325215493096039, 5035567.484894678927958 ], [ 291090.07029160077218, 5035568.48476249165833 ], [ 291075.3262663485948, 5035568.484715608879924 ], [ 291033.823733368306421, 5035570.48414633050561 ], [ 290997.573992961319163, 5035575.483137786388397 ], [ 290993.574667486711405, 5035575.483125069178641 ], [ 290956.079778911545873, 5035571.483680454082787 ], [ 290937.072542645968497, 5035568.484275975264609 ], [ 290927.828718081582338, 5035567.484365235082805 ], [ 290902.834888603421859, 5035565.984613738022745 ], [ 290884.578052668832242, 5035558.485995588824153 ], [ 290855.824020298197865, 5035548.487790694460273 ], [ 290827.078190956148319, 5035537.489804479293525 ], [ 290792.081884482933674, 5035524.482135882601142 ], [ 290761.579691052553244, 5035512.484262739308178 ], [ 290750.826900969725102, 5035509.484884506091475 ], [ 290748.575646101729944, 5035508.484996000304818 ], [ 290736.330293375183828, 5035502.48616898432374 ], [ 290715.830599238048308, 5035494.987443703226745 ], [ 290698.827136767969932, 5035488.488710884936154 ], [ 290694.333025286323391, 5035486.988924577832222 ], [ 290671.829571669222787, 5035478.490511573851109 ], [ 290657.332970437477343, 5035469.492133364081383 ], [ 290638.078376988065429, 5035454.484952135011554 ], [ 290618.832078580686357, 5035440.98744276445359 ], [ 290614.832761059631594, 5035438.487876682542264 ], [ 290587.332143508712761, 5035416.491999622434378 ], [ 290571.087484427494928, 5035404.484172002412379 ], [ 290568.580637504637707, 5035402.484601341187954 ], [ 290559.081236789876129, 5035395.485901709645987 ], [ 290548.831372328044381, 5035381.488530276343226 ], [ 290538.086717087484431, 5035367.49115726724267 ], [ 290515.830727286462206, 5035337.486746311187744 ], [ 290515.335939686861821, 5035336.486963390372694 ], [ 290479.333756940555759, 5035290.48560718819499 ], [ 290454.084332434344105, 5035257.491742487996817 ], [ 290448.839852432080079, 5035250.493056392297149 ], [ 290428.834876149951015, 5035234.486091430298984 ], [ 290379.589517891639844, 5035195.493262349627912 ], [ 290353.836997786536813, 5035195.493180452845991 ], [ 290340.585522458772175, 5035202.491807731799781 ], [ 290336.338788871420547, 5035206.491119608283043 ], [ 290332.339337951329071, 5035214.48955765273422 ], [ 290310.850001581595279, 5035257.491286988370121 ], [ 290263.838775387383066, 5035352.483165129087865 ], [ 290235.84322208177764, 5035407.482549919746816 ], [ 290200.087959263008088, 5035479.488792722113431 ], [ 290182.086762898310553, 5035489.486848929896951 ], [ 290158.593656149692833, 5035503.484113053418696 ], [ 290143.091013225377537, 5035513.4821772063151 ], [ 290124.842311929678544, 5035526.479576665908098 ], [ 290081.088531800196506, 5035556.483777699060738 ], [ 290050.594530059781391, 5035578.479470324702561 ], [ 290047.345590603072196, 5035578.479459988884628 ], [ 290027.596158629981801, 5035578.479397181421518 ], [ 290024.091480745992158, 5035623.480846403166652 ], [ 290025.847825747914612, 5035630.479521409608424 ], [ 290024.594420472625643, 5035639.477849534712732 ], [ 290022.590648268698715, 5035642.477287196554244 ], [ 290021.345461928518489, 5035645.476727275177836 ], [ 290021.08986032824032, 5035647.476289154030383 ], [ 290021.592838198877871, 5035651.485515950247645 ], [ 290022.59061324299546, 5035653.485181814059615 ], [ 290025.839539973880164, 5035657.484417527914047 ], [ 290025.344663299270906, 5035684.479312287643552 ], [ 290024.849921617656946, 5035700.476212250068784 ], [ 290024.33860248234123, 5035709.484542544931173 ], [ 290023.59638449922204, 5035719.482653643004596 ], [ 290022.095587015151978, 5035727.481099632568657 ], [ 290020.09179254155606, 5035737.479206721298397 ], [ 290018.590991876553744, 5035746.477534058503807 ], [ 290016.348011404159479, 5035753.476196341216564 ], [ 290011.845553916355129, 5035766.483639332465827 ], [ 290010.839550361561123, 5035773.492305368185043 ], [ 290006.84018992446363, 5035784.480287636630237 ], [ 290003.855123280431144, 5035791.478947561234236 ], [ 290000.845257098844741, 5035798.477607410401106 ], [ 289997.596295372233726, 5035805.476266495883465 ], [ 289994.099938256607857, 5035812.474924796260893 ], [ 289988.838907661964186, 5035821.473140179179609 ], [ 289982.340893722721376, 5035832.481014128774405 ], [ 289978.597147578722797, 5035837.480108953081071 ], [ 289974.845201588817872, 5035842.479103749617934 ], [ 289968.355493888841011, 5035851.477415217086673 ], [ 289962.591479029797483, 5035858.476066307164729 ], [ 289955.590584038174711, 5035866.474494809284806 ], [ 289949.339978245086968, 5035873.473144350573421 ], [ 289942.091694225848187, 5035879.472009371966124 ], [ 289934.092920978437178, 5035886.48065316490829 ], [ 289925.096463173627853, 5035894.479075320996344 ], [ 289904.340992677898612, 5035912.475573533214629 ], [ 289888.590944814612158, 5035925.473080933094025 ], [ 289873.591282969689928, 5035938.470590721815825 ], [ 289859.845104096108116, 5035949.478441618382931 ], [ 289850.848543110536411, 5035958.476645118556917 ], [ 289831.84134480857756, 5035974.973476871848106 ], [ 289827.594612808839884, 5035978.472798076458275 ], [ 289921.344265820342116, 5035978.473096246831119 ], [ 289942.594427097821608, 5035960.476599607616663 ], [ 289964.842372963787057, 5035941.480324795469642 ], [ 289997.843247115728445, 5035913.475752254016697 ], [ 290020.5942867876729, 5035893.479597697034478 ], [ 290022.342447848874144, 5035895.47916594799608 ], [ 290074.342315681045875, 5035852.477533643133938 ], [ 290079.34770650084829, 5035857.476656291633844 ], [ 290107.83795831061434, 5035831.481631911359727 ], [ 290130.094200869440101, 5035813.475138655863702 ], [ 290133.343130782945082, 5035816.47459302842617 ], [ 290163.589846679125912, 5035791.479455573484302 ], [ 290170.84638282447122, 5035800.477710766717792 ], [ 290176.841252024518326, 5035806.476617906242609 ], [ 290179.33979910297785, 5035808.476188545115292 ], [ 290183.091726004960947, 5035809.476081821136177 ], [ 290187.091051478986628, 5035809.476094541139901 ], [ 290186.093215959263034, 5035826.482874058187008 ], [ 290186.835351229412481, 5035842.479777954518795 ], [ 290182.836013030027971, 5035846.478990619070828 ], [ 290180.090057836729102, 5035848.478644575923681 ], [ 290173.336458238132764, 5035856.477073865011334 ], [ 290164.092592316737864, 5035868.474820612929761 ], [ 290161.091054613236338, 5035866.475148378871381 ], [ 290155.590834837697912, 5035873.473800307139754 ], [ 290153.587075358023867, 5035872.474012585356832 ], [ 290152.086296962399501, 5035874.473570506088436 ], [ 290150.33811681298539, 5035878.472890326753259 ], [ 290148.34253806155175, 5035883.481890521943569 ], [ 290148.086926918709651, 5035888.480896443128586 ], [ 290147.592123413283844, 5035892.480220250785351 ], [ 290146.841727852181066, 5035895.479561901651323 ], [ 290146.338730863004457, 5035897.479222990572453 ], [ 290146.841705583385192, 5035902.478231322020292 ], [ 290148.837255671503954, 5035906.4775630524382 ], [ 290150.090622772462666, 5035909.476911075413227 ], [ 290150.593600673833862, 5035913.476238058879972 ], [ 290151.83876474481076, 5035917.475467399694026 ], [ 290154.089913252275437, 5035920.474918601103127 ], [ 290154.840283362194896, 5035925.473927715793252 ], [ 290154.337283160188235, 5035928.483369966037571 ], [ 290155.343354899843689, 5035931.472817389294505 ], [ 290159.590069369645789, 5035933.482393398880959 ], [ 290163.836783902952448, 5035935.472069784067571 ], [ 290165.337549574673176, 5035937.471637250855565 ], [ 290167.588701262604445, 5035939.471307101659477 ], [ 290169.089466901146807, 5035941.480974378995597 ], [ 290179.100129455851857, 5035957.477907751686871 ], [ 290194.586274071014486, 5035978.473965263925493 ], [ 290197.835194440325722, 5035984.472863670438528 ], [ 290205.586437273770571, 5035988.472113707102835 ], [ 290209.841442077420652, 5035993.47123396769166 ], [ 290232.839697608607821, 5035998.470313841477036 ], [ 290261.338061539805494, 5036031.474088703282177 ], [ 290290.595004973351024, 5036066.47752866987139 ], [ 290297.084661741741002, 5036073.486218544654548 ], [ 290300.333572599920444, 5036082.474561179056764 ], [ 290302.090023962548003, 5036087.473673489876091 ], [ 290305.833719205693342, 5036098.471580201759934 ], [ 290319.588080155372154, 5036124.476638753898442 ], [ 290341.835835146950558, 5036165.468944694846869 ], [ 290349.834438346559182, 5036180.476090136915445 ], [ 290359.094881689467002, 5036175.477112856693566 ], [ 290362.335502214264125, 5036181.476011239923537 ], [ 290383.585703047574498, 5036182.475860168226063 ], [ 290423.843049694376532, 5036183.47576954215765 ], [ 290460.834957190789282, 5036184.47566853556782 ], [ 290505.330721676815301, 5036186.475472734309733 ], [ 290505.330715314135887, 5036188.475135425105691 ], [ 290514.582842906005681, 5036188.475164849311113 ], [ 290533.581785691552795, 5036189.475006615743041 ], [ 290550.32957360742148, 5036189.475059879943728 ], [ 290575.331682258169167, 5036197.473590159788728 ], [ 290581.334764032275416, 5036199.473271944560111 ], [ 290583.0829155506799, 5036204.47228423319757 ], [ 290590.331283663399518, 5036203.472525940276682 ], [ 290593.332824550103396, 5036204.472316830419004 ], [ 290595.58396987663582, 5036208.471549374982715 ], [ 290597.076535701635294, 5036210.471216812729836 ], [ 290600.078070226009004, 5036213.470670396462083 ], [ 290604.341293965058867, 5036212.470802609808743 ], [ 290608.076824355870485, 5036212.470814488828182 ], [ 290611.581359050818719, 5036212.470825634896755 ], [ 290617.831839395454153, 5036213.470726856961846 ], [ 290623.579425931209698, 5036215.470307828858495 ], [ 290629.829906275961548, 5036216.470209050923586 ], [ 290631.833665756043047, 5036217.469996769912541 ], [ 290632.831440801150165, 5036219.469562638550997 ], [ 290636.336072313250042, 5036220.469455123879015 ], [ 290638.579033698362764, 5036219.469580914825201 ], [ 290641.333182376809418, 5036219.46958967205137 ], [ 290645.332511032233015, 5036218.469821046106517 ], [ 290656.827584104961716, 5036222.469082985073328 ], [ 290658.080948024638928, 5036226.468312355689704 ], [ 290658.831321317353286, 5036230.467640125192702 ], [ 290658.831314955372363, 5036232.467202820815146 ], [ 290662.575041980890092, 5036233.476995885372162 ], [ 290665.329187477123924, 5036234.476885988377035 ], [ 290669.081217560684308, 5036234.476897920481861 ], [ 290668.825509601039812, 5036238.476122492924333 ], [ 290702.329372554435395, 5036242.475454424507916 ], [ 290704.58053375442978, 5036241.485680049285293 ], [ 290706.328707573120482, 5036239.476023106835783 ], [ 290732.081218148407061, 5036242.475549041293561 ], [ 290735.824945206055418, 5036243.4753422960639 ], [ 290750.824540249246638, 5036251.473940764553845 ], [ 290772.330204513506033, 5036262.471903957426548 ], [ 290787.329799557919614, 5036270.470402430742979 ], [ 290797.076702025486156, 5036275.469540157355368 ], [ 290804.827948043355718, 5036278.468908848240972 ], [ 290817.328999189019669, 5036283.468055331148207 ], [ 290823.57947317243088, 5036286.46751924790442 ], [ 290828.576673690928146, 5036288.467097833752632 ], [ 290837.325697903521359, 5036292.476350855082273 ], [ 290861.577410998172127, 5036303.474422781728208 ], [ 290880.823726908711251, 5036311.472934758290648 ], [ 290895.575932925799862, 5036317.471869749948382 ], [ 290902.824185136007145, 5036321.471118185669184 ], [ 290905.075339974137023, 5036322.480906503275037 ], [ 290907.573987082752865, 5036324.470577327534556 ], [ 290910.336329246405512, 5036326.470148802734911 ], [ 290914.327445332019124, 5036329.469605535268784 ], [ 290918.326758083945606, 5036333.468843638896942 ], [ 290920.825298800715245, 5036337.468076967634261 ], [ 290922.573459863313474, 5036339.467745221219957 ], [ 290924.321617744630203, 5036342.467194818891585 ], [ 290958.575917615089566, 5036330.469527595676482 ], [ 290997.571638675173745, 5036315.472531411796808 ], [ 291039.569003802258521, 5036300.475544771179557 ], [ 291070.318672190769576, 5036287.468085243366659 ], [ 291100.31784817064181, 5036276.470285832881927 ], [ 291099.320176304318011, 5036273.470838621258736 ] ] ] } },
{ "type": "Feature", "properties": { "division_name": "CASTELLO" }, "geometry": { "type": "MultiPolygon", "coordinates": [ [ [ [ 293661.809922240732703, 5034505.604223581030965 ], [ 293717.926421857438982, 5034397.014827968552709 ], [ 293732.010206358623691, 5034386.225430048070848 ], [ 293806.313967944297474, 5034278.100645948201418 ], [ 293793.595397620752919, 5034275.687832161784172 ], [ 293782.407469891477376, 5034287.075184135697782 ], [ 293762.027577582164668, 5034278.294983181171119 ], [ 293713.616831337974872, 5034356.394672148860991 ], [ 293655.040596026286948, 5034333.392615126445889 ], [ 293664.039706578711048, 5034308.786802819930017 ], [ 293688.217231595306657, 5034316.474336236715317 ], [ 293693.867372831096873, 5034301.844327157363296 ], [ 293712.508800357813016, 5034309.736939149908721 ], [ 293713.67878736439161, 5034306.96699455101043 ], [ 293671.549624288454652, 5034290.657164949923754 ], [ 293679.568689964711666, 5034223.013052522204816 ], [ 293690.228956013801508, 5034139.774039460346103 ], [ 293698.293742892914452, 5034096.640869859606028 ], [ 293712.128716215491295, 5033961.062143437564373 ], [ 293724.890570128161926, 5033963.664035454392433 ], [ 293725.990522156760562, 5033972.304077744483948 ], [ 293741.530427677556872, 5033973.844198404811323 ], [ 293829.614720684476197, 5033963.016780384816229 ], [ 293911.316225590009708, 5033954.404200755059719 ], [ 293930.36585919058416, 5033957.994194319471717 ], [ 293954.980108958669007, 5033986.786435351707041 ], [ 293972.087455915519968, 5033997.558488738723099 ], [ 293965.429948470438831, 5034007.466582716442645 ], [ 293969.894955187279265, 5034010.636337770149112 ], [ 293993.329422437411267, 5033982.53683296404779 ], [ 294041.586394053592812, 5033892.924295504577458 ], [ 293960.293204279325437, 5033853.035090584307909 ], [ 293955.243937832827214, 5033860.608990252017975 ], [ 293940.773540242982563, 5033860.608990252017975 ], [ 293948.081503482884727, 5033840.246047551743686 ], [ 293953.041790448944084, 5033815.276029203087091 ], [ 293958.582090868439991, 5033782.676055056974292 ], [ 293965.454664212709758, 5033757.767662848345935 ], [ 293976.335970386164263, 5033722.285142717882991 ], [ 293972.551168238860555, 5033718.973440838977695 ], [ 293999.503766906040255, 5033580.436250085011125 ], [ 293987.108440830954351, 5033564.80736068636179 ], [ 293972.018478652578779, 5033558.879161259159446 ], [ 293975.790969197172672, 5033547.022762404754758 ], [ 293879.082323157752398, 5033503.799942317418754 ], [ 293868.330746070831083, 5033526.434841447509825 ], [ 293798.031940764456522, 5033502.359947199001908 ], [ 293787.324856316379737, 5033507.7837396832183 ], [ 293760.211950966040604, 5033511.116091337054968 ], [ 293739.940791228960734, 5033509.723614041693509 ], [ 293658.122270756342914, 5033536.723725797608495 ], [ 293598.394750811334234, 5033561.269281938672066 ], [ 293527.212638000200968, 5033613.633135041221976 ], [ 293483.030636944982689, 5033643.905987616628408 ], [ 293394.042931514442898, 5033744.7601681612432 ], [ 293320.788185885467101, 5033819.524086307734251 ], [ 293284.538305570138618, 5033868.524656831286848 ], [ 293257.540494175453205, 5033904.527699272148311 ], [ 293240.784533291356638, 5033927.523216964676976 ], [ 293230.287078035995364, 5033943.520285122096539 ], [ 293220.037221315898933, 5033958.527372540906072 ], [ 293218.041661682422273, 5033957.527584850788116 ], [ 293207.288809597259387, 5033974.024442875757813 ], [ 293203.792457263334654, 5033979.523329162970185 ], [ 293206.035209110938013, 5033981.522898984141648 ], [ 293190.788223285286222, 5034003.518640122376382 ], [ 293182.039135417668149, 5034019.525713654235005 ], [ 293167.789731002296321, 5034041.521457963623106 ], [ 293165.291180741041899, 5034040.521668676286936 ], [ 293158.79327957163332, 5034047.520317444577813 ], [ 293148.287637186644133, 5034059.517860198393464 ], [ 293138.293388451449573, 5034070.515823229216039 ], [ 293126.79016780393431, 5034081.523781278170645 ], [ 293115.54234242963139, 5034092.521540329791605 ], [ 293104.286520382738672, 5034102.519718006253242 ], [ 293092.049319803481922, 5034111.517911219969392 ], [ 293072.044441715464927, 5034127.514749160036445 ], [ 293073.545004213578068, 5034130.514297967776656 ], [ 293067.541903330537025, 5034134.523404082283378 ], [ 293063.295172927551903, 5034137.52293461933732 ], [ 293060.788426000101026, 5034135.52316396124661 ], [ 293053.787543741113041, 5034139.522467089816928 ], [ 293033.040282667032443, 5034154.519521324895322 ], [ 293011.295440181449521, 5034169.51657238882035 ], [ 292997.788263267895672, 5034178.514761566184461 ], [ 292954.289975245366804, 5034209.518844821490347 ], [ 292861.793495359597728, 5034273.516356733627617 ], [ 292829.80701828468591, 5034296.511826002970338 ], [ 292765.042282035457902, 5034341.513180493377149 ], [ 292765.297870912938379, 5034343.512743998318911 ], [ 292769.297177307482343, 5034349.511644784361124 ], [ 292761.545902672340162, 5034355.510508217848837 ], [ 292755.048011039150879, 5034359.50961294863373 ], [ 292750.792909410840366, 5034353.510911343619227 ], [ 292748.294349611853249, 5034355.51046609506011 ], [ 292727.044294691295363, 5034371.517299888655543 ], [ 292693.79603158752434, 5034397.512309183366597 ], [ 292674.796741115977056, 5034411.509587624110281 ], [ 292674.805131419678219, 5034414.508931688964367 ], [ 292681.550380284606945, 5034422.507603894919157 ], [ 292673.295914993388578, 5034428.516265545040369 ], [ 292665.800235593982507, 5034434.515129792504013 ], [ 292658.79959466739092, 5034425.516875422559679 ], [ 292656.79562883102335, 5034426.516650397330523 ], [ 292635.297972195665352, 5034444.513246280141175 ], [ 292612.299737130873837, 5034464.519399895332754 ], [ 292608.795018372940831, 5034459.510282214730978 ], [ 292611.301984375459142, 5034455.51096480153501 ], [ 292609.801218701410107, 5034453.511397337540984 ], [ 292608.04485461092554, 5034452.511610409244895 ], [ 292609.545433007413521, 5034450.512052485719323 ], [ 292606.304906113771722, 5034446.512716804631054 ], [ 292595.057287091447506, 5034455.51091316062957 ], [ 292598.297813984565437, 5034459.510248846374452 ], [ 292600.301579824998043, 5034458.510473866015673 ], [ 292602.297129918879364, 5034462.509605594910681 ], [ 292605.298673985642381, 5034462.509615136310458 ], [ 292609.801174183725379, 5034467.508736180141568 ], [ 292595.048810929933097, 5034479.506465429440141 ], [ 292587.544934831908904, 5034484.515348118729889 ], [ 292575.307724709156901, 5034496.513085362501442 ], [ 292569.296217652794439, 5034502.511954328045249 ], [ 292562.047936822229531, 5034507.511038014665246 ], [ 292554.799655992421322, 5034512.50992170162499 ], [ 292548.301761178241577, 5034517.509007771499455 ], [ 292544.797220125212334, 5034519.508559324778616 ], [ 292537.548745657491963, 5034522.508080315776169 ], [ 292520.306241526850499, 5034530.506476268172264 ], [ 292513.296962603111751, 5034533.505798023194075 ], [ 292502.799945459875744, 5034537.51508984901011 ], [ 292491.552147141424939, 5034540.004607644863427 ], [ 292485.301658815704286, 5034541.514359600841999 ], [ 292465.305018727085553, 5034545.513421416282654 ], [ 292428.049093900597654, 5034551.51219105347991 ], [ 292394.050511554814875, 5034556.511189694516361 ], [ 292360.80231522617396, 5034561.509990728460252 ], [ 292326.300539077376015, 5034567.508769116364419 ], [ 292293.308137980988249, 5034572.507770958356559 ], [ 292286.307068444672041, 5034572.507748703472316 ], [ 292264.554070626152679, 5034573.507460890337825 ], [ 292254.551657018600963, 5034573.50742909219116 ], [ 292231.305896525620483, 5034571.517792314291 ], [ 292222.053868966759183, 5034571.507763086818159 ], [ 292212.059658386337105, 5034570.507949966937304 ], [ 292211.30907873401884, 5034568.508184892125428 ], [ 292204.803003153181635, 5034567.508382860571146 ], [ 292197.562938070332166, 5034567.50835984479636 ], [ 292196.053759832750075, 5034569.508117735385895 ], [ 292181.054239345889073, 5034569.508070047013462 ], [ 292167.802689465112053, 5034568.508046576753259 ], [ 292147.303084190993104, 5034564.508856020867825 ], [ 292113.304536828247365, 5034558.509859860874712 ], [ 292088.558010695036501, 5034554.510455803945661 ], [ 292060.809943675645627, 5034549.511460856534541 ], [ 292026.308412046637386, 5034541.512900403700769 ], [ 291997.306767614092678, 5034662.509750649333 ], [ 291994.057764554047026, 5034682.505967235192657 ], [ 291990.058157989289612, 5034708.001078831963241 ], [ 291989.810757829050999, 5034709.50085006095469 ], [ 291986.561770637810696, 5034724.507959731854498 ], [ 291982.562391100567766, 5034741.504629895091057 ], [ 291982.059394112206064, 5034743.504390983842313 ], [ 291980.055586928850971, 5034757.501723452471197 ], [ 291979.808185179135762, 5034759.50128535926342 ], [ 291975.808789708302356, 5034781.507062060758471 ], [ 291969.558256890974008, 5034797.004153048619628 ], [ 291968.312872147245798, 5034799.503702455200255 ], [ 291953.808097915374674, 5034813.500995174981654 ], [ 291940.812365530524403, 5034805.502303097397089 ], [ 291928.806014708126895, 5034797.503814160823822 ], [ 291916.560572930728085, 5034819.499764828011394 ], [ 291907.811488230654504, 5034834.506857011467218 ], [ 291900.060191328986548, 5034847.504389862529933 ], [ 291895.557652970601339, 5034854.503044967539608 ], [ 291893.314683636184782, 5034858.002372547052801 ], [ 291892.308697612897959, 5034859.501941367052495 ], [ 291885.810790075338446, 5034868.500352817587554 ], [ 291884.310014861868694, 5034869.500129392370582 ], [ 291883.064834884484299, 5034870.499906780198216 ], [ 291860.561211298510898, 5034883.997183398343623 ], [ 291855.308504410320893, 5034885.496938718482852 ], [ 291845.314285878674127, 5034886.996678960509598 ], [ 291844.57210607099114, 5034884.996913912706077 ], [ 291837.060047645063605, 5034884.497099353931844 ], [ 291837.562833504751325, 5034885.996872967109084 ], [ 291805.312637659139, 5034884.996789090335369 ], [ 291795.813005139818415, 5034887.996302922256291 ], [ 291797.066377012757584, 5034889.49607892613858 ], [ 291779.312488738098182, 5034895.504710369743407 ], [ 291764.312923693098128, 5034909.512001333758235 ], [ 291762.309119719779119, 5034922.499552642926574 ], [ 291760.313525102566928, 5034932.497759751044214 ], [ 291764.560182326938957, 5034952.503999980166554 ], [ 291764.815974380238913, 5034953.503782141953707 ], [ 291767.314499197236728, 5034962.502022199332714 ], [ 291771.816564416396432, 5034978.498938045464456 ], [ 291782.313855866377708, 5035014.002309009432793 ], [ 291782.808441878936719, 5035015.502082595601678 ], [ 291784.309201191994362, 5035019.501212754286826 ], [ 291784.812371142907068, 5035026.000093100592494 ], [ 291785.562733306607697, 5035033.498555579222739 ], [ 291785.562707863398828, 5035041.49700634367764 ], [ 291785.059636105317622, 5035067.002328872680664 ], [ 291785.059631335374434, 5035068.501900895498693 ], [ 291787.558125938638113, 5035086.998363737948239 ], [ 291787.813716405071318, 5035088.498136567883193 ], [ 291801.065009043551981, 5035107.494624268263578 ], [ 291816.064697726338636, 5035117.49268541764468 ], [ 291851.563929636613466, 5035150.996573181822896 ], [ 291850.813540439936332, 5035151.996352142654359 ], [ 291860.065744176390581, 5035159.494841654784977 ], [ 291893.058167540817522, 5035147.497370400466025 ], [ 291940.555736511189025, 5035130.500638538971543 ], [ 291946.806226396351121, 5035128.501095716841519 ], [ 291965.054708638403099, 5035121.492484503425658 ], [ 291997.560741067165509, 5035109.494811701588333 ], [ 292011.059699060861021, 5035106.495510580018163 ], [ 292019.561422930448316, 5035143.49844722263515 ], [ 292019.80861514393473, 5035144.498229353688657 ], [ 292025.803455728164408, 5035159.495368600822985 ], [ 292032.309683601837605, 5035175.492490821518004 ], [ 292033.554649271653034, 5035178.991829490289092 ], [ 292034.305230514728464, 5035180.491403897292912 ], [ 292040.811261540511623, 5035195.498544582165778 ], [ 292051.555781813687645, 5035220.49391239322722 ], [ 292078.808876753086224, 5035282.492242299951613 ], [ 292090.55957347387448, 5035308.997185143642128 ], [ 292101.807082783780061, 5035334.492345223203301 ], [ 292112.056821817939635, 5035356.488367422483861 ], [ 292123.3045422246214, 5035378.494192606769502 ], [ 292142.303276881750207, 5035413.487600119784474 ], [ 292157.055316085810773, 5035440.492543180473149 ], [ 292159.553855215199292, 5035444.991667181253433 ], [ 292160.551631851878483, 5035446.491442370228469 ], [ 292170.051203948270995, 5035462.48837411031127 ], [ 292178.049813523364719, 5035475.495956854894757 ], [ 292241.305609740666114, 5035420.496584121137857 ], [ 292282.800151005503722, 5035384.503587585873902 ], [ 292344.546972188865766, 5035330.493991581723094 ], [ 292411.298909611126874, 5035273.495067265816033 ], [ 292417.046418410609476, 5035268.495978809893131 ], [ 292423.297079671989195, 5035275.494668102823198 ], [ 292433.299518724670634, 5035267.496249134652317 ], [ 292426.801662068814039, 5035260.497559057548642 ], [ 292446.056357332039624, 5035243.500737389549613 ], [ 292454.54981817456428, 5035237.492076500318944 ], [ 292485.546916885417886, 5035213.496622742153704 ], [ 292512.544483765144832, 5035191.500918959267437 ], [ 292518.555987644533161, 5035186.50183134060353 ], [ 292558.549477401538752, 5035175.494163865223527 ], [ 292590.544309818302281, 5035166.495833468623459 ], [ 292610.293757698731497, 5035161.49698952306062 ], [ 292636.796492456807755, 5035152.498641665093601 ], [ 292663.04383197351126, 5035143.500492992810905 ], [ 292676.04800236877054, 5035139.501208949834108 ], [ 292697.793016243551392, 5035133.502589999698102 ], [ 292712.545157245884184, 5035128.503530168905854 ], [ 292732.797602145932615, 5035121.494925318285823 ], [ 292740.540467403247021, 5035118.495405896566808 ], [ 292744.539996053965297, 5035117.495637262240052 ], [ 292745.290375710930675, 5035119.495402339845896 ], [ 292778.291189380572177, 5035110.497075139544904 ], [ 292837.794937803933863, 5035092.500800072215497 ], [ 292884.038917413970921, 5035079.503389581106603 ], [ 292934.538020945037715, 5035065.496211458928883 ], [ 292973.286333874159027, 5035054.498339832760394 ], [ 292997.290715185343288, 5035045.500184023752809 ], [ 293058.790039140963927, 5035023.504589910618961 ], [ 293059.540418798453175, 5035025.504154988564551 ], [ 293079.289863498765044, 5035021.504892386496067 ], [ 293094.784152513835579, 5035028.503811058588326 ], [ 293279.784587468544487, 5035065.507308763451874 ], [ 293287.783374821068719, 5035085.503561112098396 ], [ 293327.785127665149048, 5035117.49749134387821 ], [ 293384.031330079014879, 5035164.498793220147491 ], [ 293425.278056515089702, 5035197.502708570100367 ], [ 293457.280977493093815, 5035223.497725305147469 ], [ 293508.027339600899722, 5035252.512545278295875 ], [ 293548.779307120712474, 5035275.498245966620743 ], [ 293556.778142170456704, 5035280.497378123924136 ], [ 293659.029176364419982, 5035299.503948542289436 ], [ 293714.772905833204277, 5035309.502339196391404 ], [ 293746.273125559557229, 5035244.504851998761296 ], [ 293763.771313993143849, 5035208.501579340547323 ], [ 293775.777772930916399, 5035182.506702501326799 ], [ 293775.522073114407249, 5035152.502261489629745 ], [ 293774.771922411513515, 5035078.506439669989049 ], [ 293774.021628630463965, 5035049.501978429034352 ], [ 293773.023977581353392, 5035008.509740063920617 ], [ 293731.777171652705874, 5035000.500958379358053 ], [ 293719.276010961621068, 5034998.501355951651931 ], [ 293714.526299468590878, 5034998.501340853981674 ], [ 293677.526211195508949, 5034991.502553822472692 ], [ 293676.281040756613947, 5034989.502987171523273 ], [ 293671.028338604839519, 5034989.512970286421478 ], [ 293671.275743566162419, 5034986.503427225165069 ], [ 293606.527696391451173, 5034940.502079678699374 ], [ 293583.529375822166912, 5034924.505105034448206 ], [ 293581.030825561028905, 5034923.50511575024575 ], [ 293576.77590802765917, 5034922.505320880562067 ], [ 293573.03218732890673, 5034919.505964940413833 ], [ 293569.78325422864873, 5034917.506391920149326 ], [ 293568.282488554250449, 5034915.506624460220337 ], [ 293557.777109751827084, 5034907.508140299469233 ], [ 293550.528667078353465, 5034900.509447833523154 ], [ 293548.277509027451742, 5034900.509440680034459 ], [ 293542.777427416003775, 5034895.51031646784395 ], [ 293521.280072551686317, 5034881.502909475937486 ], [ 293511.780471827485599, 5034874.504209856502712 ], [ 293509.776712345192209, 5034873.504422140307724 ], [ 293507.541963527386542, 5034870.505070999264717 ], [ 293501.283264256315306, 5034875.504157834686339 ], [ 293491.033499768702313, 5034861.506786408834159 ], [ 293490.777710894239135, 5034859.50702290609479 ], [ 293460.283745902299415, 5034838.510917708277702 ], [ 293456.779220746015199, 5034835.511562531813979 ], [ 293443.528036226285622, 5034782.511509256437421 ], [ 293445.531814784917515, 5034777.512408898212016 ], [ 293458.033064532210119, 5034751.507533823139966 ], [ 293459.286447536549531, 5034749.507775115780532 ], [ 293474.03040458727628, 5034739.509808522649109 ], [ 293490.530928904539905, 5034729.511847507208586 ], [ 293495.280472196754999, 5034719.513649146072567 ], [ 293515.532923451624811, 5034710.505481594242156 ], [ 293543.281044536328409, 5034698.507793643511832 ], [ 293562.279919119551778, 5034689.509621920064092 ], [ 293575.028440224123187, 5034702.507219939492643 ], [ 293579.778167613083497, 5034697.508128305897117 ], [ 293567.780229343043175, 5034685.510314020328224 ], [ 293570.534390737651847, 5034681.511197387240827 ], [ 293574.286336720921099, 5034676.512102586217225 ], [ 293580.033864593540784, 5034665.51412604842335 ], [ 293589.038754056382459, 5034647.507690627127886 ], [ 293596.278666836791672, 5034632.510593449696898 ], [ 293605.530951657565311, 5034614.513958632946014 ], [ 293611.52587492071325, 5034603.515982885845006 ], [ 293616.531426189700142, 5034589.508660138584673 ], [ 293616.778627942199819, 5034587.509098230861127 ], [ 293620.027818266768008, 5034571.512207022868097 ], [ 293619.780476927815471, 5034554.515323356725276 ], [ 293618.782717776950449, 5034547.516650763340294 ], [ 293622.526251197443344, 5034546.516881317831576 ], [ 293618.78274960257113, 5034537.508637489750981 ], [ 293617.281790290609933, 5034533.509307336062193 ], [ 293614.033082623092923, 5034523.511283548548818 ], [ 293612.276534432370681, 5034517.512389891780913 ], [ 293612.029145401553251, 5034515.512826411984861 ], [ 293612.532142387586646, 5034513.513265317305923 ], [ 293613.282534763333388, 5034511.513505013659596 ], [ 293617.537471371237189, 5034506.51461180485785 ], [ 293661.809922240732703, 5034505.604223581030965 ] ], [ [ 293587.777784935431555, 5034456.51385010778904 ], [ 293574.278896891279146, 5034437.517561626620591 ], [ 293565.282305871951394, 5034424.519975535571575 ], [ 293587.777784935431555, 5034456.51385010778904 ] ] ], [ [ [ 292536.299799455562606, 5035770.490992030128837 ], [ 292510.299604440806434, 5035795.486243022605777 ], [ 292483.549353405018337, 5035842.487081069499254 ], [ 292428.309106822824106, 5035803.484433121047914 ], [ 292344.545289560686797, 5035859.483522010967135 ], [ 292243.802648712531663, 5035959.484135966747999 ], [ 292315.55121275188867, 5036053.476610450074077 ], [ 292381.297219044878148, 5036106.476630658842623 ], [ 292463.295858850819059, 5036179.483129279688001 ], [ 292518.041431968682446, 5036244.480890668928623 ], [ 292554.299292735464405, 5036264.477232876233757 ], [ 292584.04293213377241, 5036266.476890134625137 ], [ 292661.292556667001918, 5036183.482884163968265 ], [ 292716.302039783913642, 5036149.479493461549282 ], [ 292739.044911400764249, 5036119.485325372777879 ], [ 292744.792499738803599, 5036089.481103437021375 ], [ 292732.29163126682397, 5036058.486841954290867 ], [ 292696.792419999139383, 5036018.484475421719253 ], [ 292628.044866447220556, 5035966.484027031809092 ], [ 292585.297444310854189, 5035909.484754567965865 ], [ 292649.039847375242971, 5035849.486276629380882 ], [ 292589.800196161610074, 5035772.490724813193083 ], [ 292536.299799455562606, 5035770.490992030128837 ] ] ] ] } },
{ "type": "Feature", "properties": { "division_name": "DORSODURO" }, "geometry": { "type": "Polygon", "coordinates": [ [ [ 290087.844622685632203, 5034765.494057526811957 ], [ 290091.093635305936914, 5034742.498396920971572 ], [ 290114.347582879068796, 5034748.497358940541744 ], [ 290162.092354976921342, 5034760.495286920107901 ], [ 290243.340877250069752, 5034780.501672014594078 ], [ 290257.837494380073622, 5034784.500943497754633 ], [ 290290.838253960479051, 5034792.499599205330014 ], [ 290348.585433304775506, 5034806.497121677733958 ], [ 290418.338976185768843, 5034824.49390771239996 ], [ 290408.336271695559844, 5034884.492456441745162 ], [ 290405.087271768832579, 5034903.498891483992338 ], [ 290407.585767951677553, 5034921.49546364787966 ], [ 290403.841983639053069, 5034938.492234612815082 ], [ 290395.58750700764358, 5034979.494343344122171 ], [ 290393.591912385076284, 5034989.492450451478362 ], [ 290394.837044647079892, 5035003.489793247543275 ], [ 290422.337744896882214, 5034999.490655318833888 ], [ 290473.842810551519506, 5034991.492368341423571 ], [ 290482.336258639581501, 5034989.492732658982277 ], [ 290501.582631794153713, 5034979.494680408388376 ], [ 290522.337980010022875, 5034968.496851610019803 ], [ 290550.086107458570041, 5034954.499601012095809 ], [ 290577.083848922920879, 5034940.492348214611411 ], [ 290585.082512592081912, 5034936.493148264475167 ], [ 290584.332131346338429, 5034934.99347386136651 ], [ 290583.334376977931242, 5034926.49502925388515 ], [ 290584.332276108209044, 5034889.492122832685709 ], [ 290587.333820174797438, 5034889.492132375948131 ], [ 290602.580842409166507, 5034887.492518168874085 ], [ 290614.084131227340549, 5034886.492773403413594 ], [ 290615.081883973907679, 5034895.501008500345051 ], [ 290625.587397747091018, 5034892.501597870141268 ], [ 290642.343407798209228, 5034885.49298192281276 ], [ 290639.581145156407729, 5034858.498176808468997 ], [ 290637.833034988259897, 5034840.501607032492757 ], [ 290635.334470646688715, 5034812.496821600943804 ], [ 290672.582076537597459, 5034812.496940042823553 ], [ 290702.836925462819636, 5034808.497810871340334 ], [ 290706.085842653061263, 5034815.496490621007979 ], [ 290712.080683226813562, 5034830.493729863315821 ], [ 290725.579423498362303, 5034864.497238347306848 ], [ 290733.083323226484936, 5034883.493707775138319 ], [ 290733.578010828001425, 5034884.493490691296756 ], [ 290748.841405490529723, 5034922.496330167166889 ], [ 290768.079578797798604, 5034912.498277889564633 ], [ 290796.833697041263804, 5034895.50158645119518 ], [ 290802.333804089692421, 5034892.502159900963306 ], [ 290817.077854814240709, 5034884.493756209500134 ], [ 290837.33021558332257, 5034872.496144460514188 ], [ 290861.079015967668965, 5034858.99877181276679 ], [ 290880.580989128910005, 5034847.501048352569342 ], [ 290892.075994004961103, 5034841.502196832560003 ], [ 290896.07543060858734, 5034838.002874842844903 ], [ 290918.331577924080193, 5034818.496609561145306 ], [ 290935.582513707748149, 5034800.500100193545222 ], [ 290959.075652252708096, 5034776.504722606390715 ], [ 290980.325829445617273, 5034753.499219416640699 ], [ 290987.838014903361909, 5034745.50069254077971 ], [ 290945.082223011530004, 5034710.497209682129323 ], [ 290943.829021336976439, 5034655.4976318879053 ], [ 290943.829075407877099, 5034638.500949011184275 ], [ 290943.829080178809818, 5034637.001176996156573 ], [ 290944.332101022475399, 5034627.502955812029541 ], [ 290944.579505953704938, 5034624.50361256301403 ], [ 290944.579510725103319, 5034623.003840547986329 ], [ 290945.577389173209667, 5034592.499612870626152 ], [ 290948.075974418548867, 5034582.501507360488176 ], [ 290948.826369977381546, 5034579.502165711484849 ], [ 290955.580026821175124, 5034553.507072206586599 ], [ 290956.083023808489088, 5034551.507511115632951 ], [ 290957.57551508070901, 5034545.508627789095044 ], [ 290962.077982067596167, 5034529.511640580371022 ], [ 290968.575940527254716, 5034504.506427792832255 ], [ 290969.078937514917925, 5034502.506766702048481 ], [ 290974.076220758084673, 5034478.50143049005419 ], [ 290979.831940535863396, 5034470.003007354214787 ], [ 290978.075576445902698, 5034469.003220423124731 ], [ 290987.575058264832478, 5034450.506795740686357 ], [ 290997.577613214962184, 5034437.509270056150854 ], [ 291001.576951409806497, 5034433.510057391598821 ], [ 291021.334640507178847, 5034415.503556186333299 ], [ 291031.576281459827442, 5034405.505475296638906 ], [ 291054.574710133485496, 5034387.508884208276868 ], [ 291068.576584193506278, 5034376.511033931747079 ], [ 291083.576233299041633, 5034367.512849514372647 ], [ 291121.32679345732322, 5034347.506742825731635 ], [ 291172.328787559876218, 5034333.509566157124937 ], [ 291185.572053491778206, 5034329.510382883250713 ], [ 291219.826243787189014, 5034320.512159688398242 ], [ 291308.82619480782887, 5034317.512998631224036 ], [ 291315.076678330311552, 5034317.513018501922488 ], [ 291329.325912794971373, 5034317.513063808903098 ], [ 291339.823217176599428, 5034317.51309718657285 ], [ 291348.324858747771941, 5034317.513124214485288 ], [ 291364.569652844802476, 5034318.51305721141398 ], [ 291385.325062886695378, 5034319.512904548086226 ], [ 291394.321492057177238, 5034320.512714496813715 ], [ 291434.323230720881838, 5034325.51194840669632 ], [ 291471.818119280680548, 5034329.511292999610305 ], [ 291548.069582432392053, 5034334.51054216362536 ], [ 291639.823653512867168, 5034340.509721955284476 ], [ 291672.313141711289063, 5034342.509487939998507 ], [ 291699.566430667066015, 5034343.509355935268104 ], [ 291720.313537685316987, 5034345.508984588086605 ], [ 291719.068481557886116, 5034339.010301886126399 ], [ 291705.817236836068332, 5034273.512681815773249 ], [ 291701.826119161443785, 5034271.0131157618016 ], [ 291634.571204473380931, 5034229.51077629160136 ], [ 291639.321041401999537, 5034221.512340627610683 ], [ 291626.819999801577069, 5034213.513850120827556 ], [ 291622.317593245650642, 5034210.514391767792404 ], [ 291614.07155963225523, 5034206.515140171162784 ], [ 291612.818173448322341, 5034209.514480224810541 ], [ 291622.070288313087076, 5034213.513835018500686 ], [ 291624.56883539177943, 5034215.513405653648078 ], [ 291621.814564455358777, 5034222.512066316790879 ], [ 291597.31556870037457, 5034207.51486824452877 ], [ 291583.066420134564396, 5034180.509926802478731 ], [ 291521.319977539475076, 5034115.512043232098222 ], [ 291518.318449374462944, 5034110.513026958331466 ], [ 291524.568955158232711, 5034103.514377417042851 ], [ 291514.31918432796374, 5034091.516568685881793 ], [ 291506.831698415800929, 5034099.515095642767847 ], [ 291495.328450945205986, 5034087.517282928340137 ], [ 291461.321664206101559, 5034062.51194136030972 ], [ 291455.574180852272548, 5034059.512479052878916 ], [ 291442.075354667729698, 5034052.513766719028354 ], [ 291444.070936561678536, 5034046.514984990470111 ], [ 291424.32163639657665, 5034036.516808745451272 ], [ 291421.823067056655418, 5034041.515807528048754 ], [ 291376.321284958161414, 5034019.519873266108334 ], [ 291376.321291319327429, 5034017.520210575312376 ], [ 291364.826218285888899, 5034013.510948834009469 ], [ 291359.070531904115342, 5034011.511367843486369 ], [ 291356.819373855250888, 5034011.511360686272383 ], [ 291346.825066461693496, 5034009.511666219681501 ], [ 291348.070265519665554, 5034002.513000760227442 ], [ 291338.826444141217507, 5034000.513308680616319 ], [ 291336.575263829785399, 5034007.51197094283998 ], [ 291285.5732333449414, 5034001.513020713813603 ], [ 291267.077278021140955, 5034001.512961905449629 ], [ 291169.583828012226149, 5034022.518659989349544 ], [ 291138.075589731219225, 5034030.517010570503771 ], [ 291125.088022215466481, 5034033.516413311474025 ], [ 291118.573634071508422, 5034036.515836636535823 ], [ 291044.086729916394688, 5034065.510058811865747 ], [ 291032.575131715799216, 5034069.509247589856386 ], [ 291028.83143010531785, 5034060.511003576219082 ], [ 291015.076970520080067, 5034065.509966572746634 ], [ 291018.325881319469772, 5034074.518308820202947 ], [ 290997.331347112485673, 5034082.516692824661732 ], [ 290958.830416877754033, 5034097.513690588064492 ], [ 290955.334110657859128, 5034088.515447365120053 ], [ 290944.581198318512179, 5034092.514638557098806 ], [ 290947.079726312425919, 5034100.513097261078656 ], [ 290938.083287602756172, 5034102.512731347233057 ], [ 290933.333469755481929, 5034104.512278935872018 ], [ 290929.3341411028523, 5034105.512147564440966 ], [ 290926.827390997088514, 5034104.512258249334991 ], [ 290923.331049791304395, 5034106.511909822002053 ], [ 290921.079794925055467, 5034105.512121319770813 ], [ 290916.833067701780237, 5034107.511670506559312 ], [ 290912.083353033929598, 5034108.511436748318374 ], [ 290911.827751435746904, 5034110.511098623275757 ], [ 290906.327547571854666, 5034112.510743827559054 ], [ 290907.077927227364853, 5034114.510308904573321 ], [ 290896.580713303759694, 5034117.50971956178546 ], [ 290893.579204224515706, 5034106.511815221980214 ], [ 290890.833255395642482, 5034106.511806489899755 ], [ 290889.340692751749884, 5034103.512357709929347 ], [ 290894.082210753753316, 5034101.512710096314549 ], [ 290893.331837459583767, 5034097.513482330366969 ], [ 290880.58336548920488, 5034100.512885829433799 ], [ 290882.092418283165898, 5034106.511778698302805 ], [ 290886.833836287609302, 5034104.51213108561933 ], [ 290886.833823565277271, 5034108.511356464587152 ], [ 290880.583333683258388, 5034110.510999279096723 ], [ 290883.584842762444168, 5034121.508903621695936 ], [ 290845.331307884654962, 5034136.515901979990304 ], [ 290840.581528235750739, 5034126.507873608730733 ], [ 290817.830623547546566, 5034135.516033190302551 ], [ 290816.585456293774769, 5034132.516585196368396 ], [ 290804.834762547863647, 5034136.515773212537169 ], [ 290808.331081489042845, 5034141.514891054481268 ], [ 290808.586770331778098, 5034143.52445437386632 ], [ 290809.081454783212394, 5034145.514118822291493 ], [ 290812.586089473799802, 5034145.514129964634776 ], [ 290811.579992319806479, 5034150.513133494183421 ], [ 290811.085291996074375, 5034153.512575956061482 ], [ 290800.084981085732579, 5034158.511647703126073 ], [ 290789.332068746676669, 5034162.510838895104825 ], [ 290787.080917058046907, 5034160.511169044300914 ], [ 290782.586797626863699, 5034161.51103609893471 ], [ 290679.337494442705065, 5034201.513061417266726 ], [ 290609.336513047688641, 5034228.507735148072243 ], [ 290604.586839728232007, 5034216.509943903423846 ], [ 290643.838159162318334, 5034200.513167191296816 ], [ 290639.088479481055401, 5034190.515038636513054 ], [ 290525.597557640518062, 5034233.506475599482656 ], [ 290529.588648276752792, 5034244.504383089020848 ], [ 290558.845738051983062, 5034233.506581324152648 ], [ 290564.58498656883603, 5034247.503938405774534 ], [ 290543.837844537221827, 5034256.512204349972308 ], [ 290495.837375421600882, 5034276.508278619498014 ], [ 290443.342809138935991, 5034290.505450528115034 ], [ 290438.3373960548779, 5034292.504997303709388 ], [ 290434.841099379933439, 5034280.507310043089092 ], [ 290436.83667491574306, 5034276.508091006428003 ], [ 290435.838906232558656, 5034272.508762454614043 ], [ 290437.84267207281664, 5034271.508987481705844 ], [ 290436.836703542561736, 5034267.509758903644979 ], [ 290424.088231570960488, 5034270.509162396192551 ], [ 290424.838601683848538, 5034275.508171510882676 ], [ 290427.089759700465947, 5034275.518178482539952 ], [ 290427.840136206825264, 5034278.507625090889633 ], [ 290429.588297266629525, 5034280.507293339818716 ], [ 290431.600337506388314, 5034287.505969151854515 ], [ 290431.592128116637468, 5034290.505413161590695 ], [ 290432.589899980870541, 5034293.504760372452438 ], [ 290406.086968421703205, 5034301.503226854838431 ], [ 290399.085992525215261, 5034303.502767284400761 ], [ 290389.091855110484175, 5034279.507283221930265 ], [ 290386.840697060863022, 5034279.507276062853634 ], [ 290241.594122425885871, 5034336.506050671450794 ], [ 290233.842827311891597, 5034317.50958046503365 ], [ 290204.841345496592112, 5034324.508157658390701 ], [ 290206.342050729494076, 5034345.50417067669332 ], [ 290033.850601506244857, 5034365.509848862886429 ], [ 290019.345775021414738, 5034364.500021579675376 ], [ 289997.345185009064153, 5034364.499951616860926 ], [ 289854.59735470591113, 5034361.500053625553846 ], [ 289733.602719028596766, 5034358.500224805437028 ], [ 289734.353181391139515, 5034334.504774913191795 ], [ 289728.358293108292855, 5034334.504755847156048 ], [ 289720.598737711261492, 5034334.504731168970466 ], [ 289703.100528803304769, 5034345.502570318058133 ], [ 289667.856709204905201, 5034369.507910327985883 ], [ 289626.857087354641408, 5034396.502676256932318 ], [ 289610.356659852550365, 5034407.500518574379385 ], [ 289588.85091608192306, 5034421.497789008542895 ], [ 289571.855697768507525, 5034432.505629571154714 ], [ 289559.602010214002803, 5034437.504697323776782 ], [ 289547.109130298020318, 5034441.50388297252357 ], [ 289563.601205254439265, 5034478.496945188380778 ], [ 289677.602636673487723, 5034649.504817015491426 ], [ 289756.352293733390979, 5034767.492666004225612 ], [ 289831.10264120210195, 5034880.491395373828709 ], [ 289896.345310389937367, 5034979.492755676619709 ], [ 289933.345245893928222, 5035034.492447153665125 ], [ 289959.345037286169827, 5035073.495102124288678 ], [ 289977.849125657347031, 5035094.491169225424528 ], [ 289989.855581447482109, 5035069.495973773300648 ], [ 289996.848298888129648, 5035054.488876016810536 ], [ 290008.846386646153405, 5035019.495567084290087 ], [ 290021.347584147937596, 5034978.493371865712106 ], [ 290040.84153404890094, 5034911.496183908544481 ], [ 290041.847524845972657, 5034908.496743073686957 ], [ 290058.59540185239166, 5034880.492118852213025 ], [ 290071.855231102905236, 5034856.496708730235696 ], [ 290075.095886618597433, 5034851.497712309472263 ], [ 290084.843014966580085, 5034785.500274701975286 ], [ 290087.844622685632203, 5034765.494057526811957 ] ] ] } },
{ "type": "Feature", "properties": { "division_name": "GIUDECCA" }, "geometry": { "type": "Polygon", "coordinates": [ [ [ 292051.092025499441661, 5033974.877005593851209 ], [ 291895.064075012807734, 5033867.379415269941092 ], [ 291780.326399811194278, 5033808.700145347975194 ], [ 291639.384682973846793, 5033728.002302946522832 ], [ 291509.761786835384555, 5033700.241308813914657 ], [ 291423.615499970386736, 5033666.359967095777392 ], [ 291260.146484207361937, 5033685.870783319696784 ], [ 291142.370109590061475, 5033707.694501653313637 ], [ 291067.82295382337179, 5033721.834500797092915 ], [ 291036.767984424368478, 5033736.961619810201228 ], [ 290880.995029104175046, 5033786.694596567191184 ], [ 290738.415703327627853, 5033844.156171062029898 ], [ 290627.619637301831972, 5033885.257051880471408 ], [ 290510.820586392423138, 5033956.769346165470779 ], [ 290390.386334564420395, 5034018.429912705905735 ], [ 290320.676655654795468, 5034042.939233727753162 ], [ 290270.103735993383452, 5034062.46060866676271 ], [ 290198.87500626250403, 5034080.410047249868512 ], [ 290022.795207223040052, 5034105.667016053572297 ], [ 289946.289591540349647, 5034118.67852998059243 ], [ 289900.460466998396441, 5034111.948509807698429 ], [ 289813.919748176413123, 5034090.4339360287413 ], [ 289783.630337550130207, 5034051.173472250811756 ], [ 289726.580739115306642, 5033913.381261841394007 ], [ 289708.65429004811449, 5033876.651590164750814 ], [ 289701.282625991152599, 5033845.672244755551219 ], [ 289655.213788368506357, 5033750.171480175107718 ], [ 289763.87367617583368, 5033683.302573424763978 ], [ 289803.499601426301524, 5033694.709986589848995 ], [ 289838.301620180194732, 5033704.98390556499362 ], [ 289933.172092617547605, 5033723.714457769878209 ], [ 290063.4808124412084, 5033771.425881918519735 ], [ 290078.130609750107396, 5033780.756054418161511 ], [ 290147.080413053743541, 5033753.026791066862643 ], [ 290222.150387503148522, 5033698.517446856945753 ], [ 290269.450300434022211, 5033668.847850861959159 ], [ 290364.341422565048561, 5033608.974369765259326 ], [ 290417.450170303694904, 5033565.7692447938025 ], [ 290490.32129136583535, 5033540.918940181843936 ], [ 290526.355413572862744, 5033511.457804468460381 ], [ 290583.159718862152658, 5033491.380859701894224 ], [ 290651.39937494660262, 5033482.651539561338723 ], [ 290701.678891226532869, 5033497.342125323601067 ], [ 290814.568244125053752, 5033479.533316561020911 ], [ 290826.678253281512298, 5033468.583459375426173 ], [ 290843.318151426094119, 5033465.993560607545078 ], [ 290845.368090543663129, 5033473.123634088784456 ], [ 290902.123860990162939, 5033464.283779486082494 ], [ 290923.432443843572401, 5033470.586729633621871 ], [ 291049.087874181219377, 5033447.955651422962546 ], [ 291061.371985501376912, 5033498.178253394551575 ], [ 291093.537407944095321, 5033491.30618388671428 ], [ 291081.847896477440372, 5033437.646047944203019 ], [ 291140.10805896052625, 5033422.496615851297975 ], [ 291165.777989876340143, 5033419.576851945370436 ], [ 291294.526668747363146, 5033426.441733198240399 ], [ 291364.758580704568885, 5033419.91497827321291 ], [ 291428.677929062978365, 5033407.489513333886862 ], [ 291663.097662837826647, 5033406.771872004494071 ], [ 291746.683214061660692, 5033435.422003171406686 ], [ 291782.027524380362593, 5033445.17693352419883 ], [ 291814.367101821117103, 5033451.433519599027932 ], [ 291842.176932524947915, 5033467.483808536082506 ], [ 291859.21593649109127, 5033492.166302168741822 ], [ 291930.466130769636948, 5033548.114884766750038 ], [ 291990.015537049039267, 5033605.965594680979848 ], [ 292069.433184888097458, 5033848.746917269192636 ], [ 292073.382910203654319, 5033880.527036864310503 ], [ 292059.853722071333323, 5033956.061284516006708 ], [ 292051.092025499441661, 5033974.877005593851209 ] ] ] } },
{ "type": "Feature", "properties": { "division_name": "SAN MARCO" }, "geometry": { "type": "MultiPolygon", "coordinates": [ [ [ [ 292219.053562153887469, 5034182.511611429974437 ], [ 292221.560115444299299, 5034182.511619397439063 ], [ 292229.05578848393634, 5034178.512317846529186 ], [ 292245.803695467067882, 5034172.513683013617992 ], [ 292261.809419461525977, 5034165.515064477920532 ], [ 292280.808290859684348, 5034157.516474114730954 ], [ 292301.555529677076265, 5034149.518089306540787 ], [ 292324.306537512573414, 5034139.520148175768554 ], [ 292342.307824320101645, 5034132.521535986103117 ], [ 292357.30736391688697, 5034126.512695781886578 ], [ 292371.55671746050939, 5034120.513853007927537 ], [ 292383.307314388686791, 5034115.514783637598157 ], [ 292390.802984247857239, 5034112.515463427640498 ], [ 292395.80010066635441, 5034109.516135276295245 ], [ 292399.05724633007776, 5034107.516382941044867 ], [ 292403.806973685976118, 5034102.527491122484207 ], [ 292406.305536697851494, 5034099.517955218441784 ], [ 292408.301109018619172, 5034096.528617340140045 ], [ 292409.810290467459708, 5034093.51907828822732 ], [ 292411.805666002212092, 5034089.519959245808423 ], [ 292413.306653931736946, 5034084.52085729315877 ], [ 292414.304448057431728, 5034080.521535083651543 ], [ 292416.052431351388805, 5034075.532633723691106 ], [ 292413.0590967356693, 5034072.513080549426377 ], [ 292409.554809705005027, 5034057.525949039496481 ], [ 292411.302789883164223, 5034053.516829398460686 ], [ 292408.557047409703955, 5034051.517057983204722 ], [ 292405.05233815999236, 5034043.518596075475216 ], [ 292396.055985304759815, 5034018.523433838039637 ], [ 292397.55676369718276, 5034016.523675921373069 ], [ 292399.313153258524835, 5034009.515012270770967 ], [ 292399.55235834029736, 5034006.515668995678425 ], [ 292400.055361687322147, 5034002.516345214098692 ], [ 292400.558358673355542, 5034000.516784123145044 ], [ 292402.553934205905534, 5033996.517465085722506 ], [ 292402.306545175844803, 5033994.517901607789099 ], [ 292401.564565362990834, 5033992.518336557783186 ], [ 292400.055399845354259, 5033990.518769067712128 ], [ 292398.554640531190671, 5033986.519438913092017 ], [ 292405.052528984146193, 5033983.519915537908673 ], [ 292415.805541320471093, 5033979.520824338309467 ], [ 292416.300144824257586, 5033975.521500530652702 ], [ 292409.810719812696334, 5033958.524797026999295 ], [ 292399.552593682426959, 5033932.519649622961879 ], [ 292392.807373437914066, 5033915.522945307195187 ], [ 292390.053237481217366, 5033911.523611172102392 ], [ 292387.051502958289348, 5033908.524257590994239 ], [ 292383.802773038507439, 5033905.524703229777515 ], [ 292380.306441372144036, 5033904.5249107722193 ], [ 292376.801713043125346, 5033902.525336937978864 ], [ 292371.557410770794377, 5033902.525320266373456 ], [ 292367.054894674685784, 5033902.525305953808129 ], [ 292364.55634759523673, 5033900.525735316798091 ], [ 292362.057832345948555, 5033888.517951419577003 ], [ 292361.307452689507045, 5033886.518386339768767 ], [ 292366.551964497659355, 5033883.518858978524804 ], [ 292371.054296496149618, 5033878.519766566343606 ], [ 292374.056053277105093, 5033874.52065072208643 ], [ 292376.554622616677079, 5033869.521551941521466 ], [ 292378.055204192525707, 5033866.52221267297864 ], [ 292378.55821071844548, 5033861.523107550106943 ], [ 292378.302631380793173, 5033856.524000010453165 ], [ 292378.05525188986212, 5033851.525092493742704 ], [ 292375.556917526118923, 5033845.526196481660008 ], [ 292366.807782355870586, 5033813.52216580696404 ], [ 292356.055103600141592, 5033775.519440683536232 ], [ 292346.803177768131718, 5033743.525408226065338 ], [ 292338.309631474898197, 5033713.521141050383449 ], [ 292335.555517776869237, 5033702.523137502372265 ], [ 292334.054752103867941, 5033700.523570036515594 ], [ 292330.302831561537459, 5033697.524014076218009 ], [ 292318.807655314099975, 5033694.524633496068418 ], [ 292298.308050046965946, 5033690.525242949835956 ], [ 292266.560667103738524, 5033682.526691264472902 ], [ 292240.057780069066212, 5033676.527718944475055 ], [ 292229.057394602219574, 5033673.528339935466647 ], [ 292225.816854990436696, 5033673.528329634107649 ], [ 292222.807104717474431, 5033675.527882759459317 ], [ 292195.80899156263331, 5033743.524928222410381 ], [ 292165.059313336969353, 5033822.519756561145186 ], [ 292139.562188105890527, 5033885.517700071446598 ], [ 292119.557008230825886, 5033933.51854086574167 ], [ 292111.071702753542922, 5033953.514740795828402 ], [ 292105.810718078981154, 5033979.519838862121105 ], [ 292095.807958165882155, 5034025.521148759871721 ], [ 292090.810773376375437, 5034050.016475835815072 ], [ 292089.309977494354825, 5034057.514931159093976 ], [ 292105.307387127948459, 5034086.519440843723714 ], [ 292105.810368214501068, 5034089.518986478447914 ], [ 292102.808820968028158, 5034090.518758282996714 ], [ 292098.561896929866634, 5034091.518526127561927 ], [ 292102.561393778887577, 5034100.516770952381194 ], [ 292105.810339594783727, 5034098.517218590714037 ], [ 292108.811890020442661, 5034096.51766544021666 ], [ 292111.063048069714569, 5034096.517672594636679 ], [ 292111.805227879551239, 5034098.517237647436559 ], [ 292122.805540206667501, 5034124.512387597933412 ], [ 292123.811311924248002, 5034127.511734832078218 ], [ 292129.05597917677369, 5034138.519746117293835 ], [ 292132.560488430492114, 5034146.518208022229373 ], [ 292135.306234083254822, 5034147.517998099327087 ], [ 292146.059236881555989, 5034146.518250937573612 ], [ 292157.810033806948923, 5034141.519181570038199 ], [ 292163.3099185959436, 5034145.518524431623518 ], [ 292165.058270115579944, 5034150.517436722293496 ], [ 292164.307674562558532, 5034153.516978370957077 ], [ 292175.30800915020518, 5034172.51345890108496 ], [ 292180.568898393772542, 5034176.512601013295352 ], [ 292186.555777287925594, 5034179.512164077721536 ], [ 292190.307701011304744, 5034181.511738697998226 ], [ 292192.055665257852525, 5034182.511525602079928 ], [ 292195.304801531077828, 5034183.511317276395857 ], [ 292199.31232367141638, 5034184.511111361905932 ], [ 292204.804221329861321, 5034184.511128820478916 ], [ 292210.05692344577983, 5034184.511145520024002 ], [ 292215.054030325089116, 5034184.511161403730512 ], [ 292219.053562153887469, 5034182.511611429974437 ] ] ], [ [ [ 291805.312637659139, 5034884.996789090335369 ], [ 291837.562833504751325, 5034885.996872967109084 ], [ 291837.060047645063605, 5034884.497099353931844 ], [ 291844.57210607099114, 5034884.996913912706077 ], [ 291845.314285878674127, 5034886.996678960509598 ], [ 291855.308504410320893, 5034885.496938718482852 ], [ 291860.561211298510898, 5034883.997183398343623 ], [ 291883.064834884484299, 5034870.499906780198216 ], [ 291884.310014861868694, 5034869.500129392370582 ], [ 291885.810790075338446, 5034868.500352817587554 ], [ 291892.308697612897959, 5034859.501941367052495 ], [ 291893.314683636184782, 5034858.002372547052801 ], [ 291895.557652970601339, 5034854.503044967539608 ], [ 291900.060191328986548, 5034847.504389862529933 ], [ 291907.811488230654504, 5034834.506857011467218 ], [ 291916.560572930728085, 5034819.499764828011394 ], [ 291928.806014708126895, 5034797.503814160823822 ], [ 291940.812365530524403, 5034805.502303097397089 ], [ 291953.808097915374674, 5034813.500995174981654 ], [ 291968.312872147245798, 5034799.503702455200255 ], [ 291969.558256890974008, 5034797.004153048619628 ], [ 291975.808789708302356, 5034781.507062060758471 ], [ 291979.808185179135762, 5034759.50128535926342 ], [ 291980.055586928850971, 5034757.501723452471197 ], [ 291982.059394112206064, 5034743.504390983842313 ], [ 291982.562391100567766, 5034741.504629895091057 ], [ 291986.561770637810696, 5034724.507959731854498 ], [ 291989.810757829050999, 5034709.50085006095469 ], [ 291990.058157989289612, 5034708.001078831963241 ], [ 291994.057764554047026, 5034682.505967235192657 ], [ 291997.306767614092678, 5034662.509750649333 ], [ 292026.308412046637386, 5034541.512900403700769 ], [ 292013.807451392349321, 5034539.503098158165812 ], [ 291997.059582566958852, 5034533.504156839102507 ], [ 291942.314063164638355, 5034514.507737223058939 ], [ 291914.557812201208435, 5034504.509435524232686 ], [ 291873.071829810214695, 5034490.511964790523052 ], [ 291871.810040601645596, 5034494.511286162771285 ], [ 291864.809180602838751, 5034491.511719866655767 ], [ 291865.815174576826394, 5034487.51259768102318 ], [ 291862.813636870472692, 5034485.513025445863605 ], [ 291842.808831951580942, 5034478.504292611964047 ], [ 291810.566667763865553, 5034467.506195305846632 ], [ 291773.311006543342955, 5034453.508738021366298 ], [ 291779.816936190589331, 5034437.511857175268233 ], [ 291785.812018112977967, 5034439.511438928544521 ], [ 291798.312985158758238, 5034439.511478672735393 ], [ 291798.312991518992931, 5034437.511915982700884 ], [ 291799.063387076137587, 5034434.512374333105981 ], [ 291801.314745122566819, 5034434.512381493113935 ], [ 291802.5679376705084, 5034429.513478745706379 ], [ 291773.566513124736957, 5034418.505391928367317 ], [ 291773.319095441373065, 5034425.514060370624065 ], [ 291772.560503216809593, 5034427.513620651327074 ], [ 291770.317738649493549, 5034429.513376210816205 ], [ 291773.063481123012025, 5034431.512947632931173 ], [ 291767.810728123295121, 5034447.509832464158535 ], [ 291749.817885679949541, 5034440.511105838231742 ], [ 291743.814603911479935, 5034438.511524059809744 ], [ 291743.814610272063874, 5034436.511961368843913 ], [ 291729.318096314789727, 5034431.512808552011847 ], [ 291729.318105856073089, 5034428.513264518231153 ], [ 291731.816687949001789, 5034419.505040538497269 ], [ 291738.561965431785211, 5034418.505280636250973 ], [ 291743.814658007468097, 5034421.504641376435757 ], [ 291744.062266113702208, 5034417.505516775883734 ], [ 291745.07645675574895, 5034414.505975970067084 ], [ 291747.814002561499365, 5034415.505966013297439 ], [ 291750.065179692639504, 5034409.507085098885 ], [ 291732.064137402689084, 5034402.508358447812498 ], [ 291720.313737681368366, 5034345.508984588086605 ], [ 291699.566530664917082, 5034343.509355935268104 ], [ 291672.313241709314752, 5034342.509487942792475 ], [ 291639.823853509442415, 5034340.509821953251958 ], [ 291548.069782428210601, 5034334.510642163455486 ], [ 291471.818219279753976, 5034329.511292999610305 ], [ 291434.323330719373189, 5034325.512048403732479 ], [ 291394.321492057060823, 5034320.512814492918551 ], [ 291385.32526288239751, 5034319.513004548847675 ], [ 291364.569852841028478, 5034318.513157210312784 ], [ 291348.324958746903576, 5034317.51312421541661 ], [ 291339.82331717479974, 5034317.51309718657285 ], [ 291329.32611279131379, 5034317.513063811697066 ], [ 291315.076778328395449, 5034317.513018503785133 ], [ 291308.826294806494843, 5034317.512998631224036 ], [ 291219.826343785040081, 5034320.512259685434401 ], [ 291185.572153490269557, 5034329.510382884182036 ], [ 291172.328987554879859, 5034333.50966615229845 ], [ 291121.326893456222024, 5034347.506842825561762 ], [ 291083.576333296718076, 5034367.512949512340128 ], [ 291068.576584193506278, 5034376.511133929714561 ], [ 291054.574810131744016, 5034387.50888420920819 ], [ 291031.576381457736716, 5034405.505475294776261 ], [ 291021.334740504971705, 5034415.503656185232103 ], [ 291001.577051407773979, 5034433.510057392530143 ], [ 290997.57771321258042, 5034437.509370054118335 ], [ 290987.575058264308609, 5034450.506895737722516 ], [ 290978.075776441721246, 5034469.00332042388618 ], [ 290979.832140531507321, 5034470.003107352182269 ], [ 290974.076420753786806, 5034478.501530489884317 ], [ 290969.079037512477953, 5034502.506866700015962 ], [ 290968.576040525455028, 5034504.506427795626223 ], [ 290962.078082065447234, 5034529.511740578338504 ], [ 290957.57551508070901, 5034545.508627789095044 ], [ 290956.083123806398362, 5034551.507511114701629 ], [ 290955.580126818967983, 5034553.507072206586599 ], [ 290948.826569973025471, 5034579.502165709622204 ], [ 290948.075974418548867, 5034582.501507360488176 ], [ 290945.577589168504346, 5034592.499712868593633 ], [ 290944.579510724521242, 5034623.003940543159842 ], [ 290944.579505953355692, 5034624.503712561912835 ], [ 290944.332301018293947, 5034627.503055813722312 ], [ 290943.829080178868026, 5034637.001276996918023 ], [ 290943.829075407469645, 5034638.501049010083079 ], [ 290943.829021336510777, 5034655.497731886804104 ], [ 290945.082223011297174, 5034710.497309681028128 ], [ 290987.83811490109656, 5034745.500792538747191 ], [ 290997.329312586749438, 5034753.499273484572768 ], [ 291013.837981094140559, 5034760.997986066155136 ], [ 291050.574244003510103, 5034777.504794892854989 ], [ 291095.836933743557893, 5034798.500947071239352 ], [ 291116.328329623793252, 5034805.499681645072997 ], [ 291137.322716130875051, 5034812.498417821712792 ], [ 291176.821535545634106, 5034826.496082248166203 ], [ 291216.575750171148684, 5034840.503547302447259 ], [ 291250.574278447078541, 5034852.501231555826962 ], [ 291269.820697527960874, 5034859.499962170608342 ], [ 291277.324548154021613, 5034862.499530066736042 ], [ 291297.073757866281085, 5034869.498262280598283 ], [ 291302.82144439779222, 5034871.497843246906996 ], [ 291319.321717834915034, 5034877.496783784590662 ], [ 291362.572464125463739, 5034892.50404130294919 ], [ 291372.0718743831967, 5034896.503396890126169 ], [ 291405.567408853909001, 5034909.50086088757962 ], [ 291426.322599821723998, 5034916.499596298672259 ], [ 291440.31631678796839, 5034923.49831020925194 ], [ 291454.821221048128791, 5034931.497007095254958 ], [ 291482.569256261631381, 5034946.494215506128967 ], [ 291491.070685086306185, 5034950.50336773507297 ], [ 291518.068534280697349, 5034965.500573763623834 ], [ 291538.568117290735245, 5034976.498633742332458 ], [ 291541.817050387850031, 5034978.498206765390933 ], [ 291547.820125798811205, 5034982.49755123257637 ], [ 291564.064984914963134, 5034994.495379034429789 ], [ 291576.565916978637688, 5035005.493213585577905 ], [ 291585.817919094348326, 5035013.501693582162261 ], [ 291603.316143722040579, 5035028.998860075138509 ], [ 291630.561148556298576, 5035056.493833706714213 ], [ 291647.317172672599554, 5035076.499913711100817 ], [ 291659.067709178081714, 5035090.497289916500449 ], [ 291659.562496777274646, 5035091.497272831387818 ], [ 291661.310571968497243, 5035120.491737416014075 ], [ 291683.814155802945606, 5035119.492027621716261 ], [ 291725.811405004933476, 5035109.493947696872056 ], [ 291732.061891709337942, 5035108.494186220690608 ], [ 291753.815105429850519, 5035102.495367311872542 ], [ 291787.813716405071318, 5035088.498136567883193 ], [ 291787.558125938638113, 5035086.998363737948239 ], [ 291785.059631335374434, 5035068.501900895498693 ], [ 291785.059636105317622, 5035067.002328872680664 ], [ 291785.562707863398828, 5035041.49700634367764 ], [ 291785.562733306607697, 5035033.498555579222739 ], [ 291784.812371142907068, 5035026.000093100592494 ], [ 291784.309201191994362, 5035019.501212754286826 ], [ 291782.808441878936719, 5035015.502082595601678 ], [ 291782.313855866377708, 5035014.002309009432793 ], [ 291771.816564416396432, 5034978.498938045464456 ], [ 291767.314499197236728, 5034962.502022199332714 ], [ 291764.815974380238913, 5034953.503782141953707 ], [ 291764.560182326938957, 5034952.503999980166554 ], [ 291760.313525102566928, 5034932.497759751044214 ], [ 291762.309119719779119, 5034922.499552642926574 ], [ 291764.312923693098128, 5034909.512001333758235 ], [ 291779.312488738098182, 5034895.504710369743407 ], [ 291797.066377012757584, 5034889.49607892613858 ], [ 291795.813005139818415, 5034887.996302922256291 ], [ 291805.312637659139, 5034884.996789090335369 ] ] ] ] } },
{ "type": "Feature", "properties": { "division_name": "SAN POLO" }, "geometry": { "type": "Polygon", "coordinates": [ [ [ 291661.310471970296931, 5035120.491637418977916 ], [ 291659.562396779889241, 5035091.497172835282981 ], [ 291659.067609180114232, 5035090.497289913706481 ], [ 291647.316972676897421, 5035076.499913713894784 ], [ 291630.561048558272887, 5035056.493733706884086 ], [ 291603.316043724189512, 5035028.998860076069832 ], [ 291585.817919094348326, 5035013.501693582162261 ], [ 291576.565916978637688, 5035005.493213585577905 ], [ 291564.064884916471783, 5034994.495279032737017 ], [ 291547.820125799044035, 5034982.497451234608889 ], [ 291541.816950388776604, 5034978.498206766322255 ], [ 291538.568017292767763, 5034976.498633743263781 ], [ 291518.068334284587763, 5034965.500573760829866 ], [ 291491.070685086306185, 5034950.50336773507297 ], [ 291482.569056266453117, 5034946.494115508161485 ], [ 291454.821021052543074, 5034931.496907096356153 ], [ 291440.316216789884493, 5034923.498310211114585 ], [ 291426.322599821723998, 5034916.499596298672259 ], [ 291405.56730885617435, 5034909.500860886648297 ], [ 291372.071774385520257, 5034896.503296891227365 ], [ 291362.572264129063115, 5034892.503941304981709 ], [ 291319.321617837238591, 5034877.496683785691857 ], [ 291302.821244401740842, 5034871.497743247076869 ], [ 291297.073757866746746, 5034869.498162283562124 ], [ 291277.324448155530263, 5034862.499430066905916 ], [ 291269.820497532433365, 5034859.499962169677019 ], [ 291250.574178448645398, 5034852.501231555826962 ], [ 291216.575650172773749, 5034840.503447303548455 ], [ 291176.821335549815558, 5034826.495982248336077 ], [ 291137.322716130875051, 5034812.498417821712792 ], [ 291116.328229625127278, 5034805.499681647866964 ], [ 291095.836733746575192, 5034798.500947068445385 ], [ 291050.574044006527402, 5034777.504794892854989 ], [ 291013.83788109512534, 5034760.997886066325009 ], [ 290997.329212588898372, 5034753.499273482710123 ], [ 290987.838014903361909, 5034745.50069254077971 ], [ 290980.325829445617273, 5034753.499219416640699 ], [ 290959.075652252708096, 5034776.504722606390715 ], [ 290935.582513707748149, 5034800.500100193545222 ], [ 290918.331577924080193, 5034818.496609561145306 ], [ 290896.07543060858734, 5034838.002874842844903 ], [ 290892.075994004961103, 5034841.502196832560003 ], [ 290880.580989128910005, 5034847.501048352569342 ], [ 290861.079015967668965, 5034858.99877181276679 ], [ 290837.33021558332257, 5034872.496144460514188 ], [ 290817.077854814240709, 5034884.493756209500134 ], [ 290802.333804089692421, 5034892.502159900963306 ], [ 290796.833697041263804, 5034895.50158645119518 ], [ 290768.079578797798604, 5034912.498277889564633 ], [ 290748.841405490529723, 5034922.496330167166889 ], [ 290750.333942687720992, 5034933.494229715317488 ], [ 290743.580352635530289, 5034938.49331496655941 ], [ 290731.83794282679446, 5034947.491509739309549 ], [ 290720.342828377673868, 5034956.499805107712746 ], [ 290709.078709654510021, 5034965.498001398518682 ], [ 290695.332424463937059, 5034978.495515177957714 ], [ 290687.828538851696067, 5034986.493942082859576 ], [ 290679.334978041762952, 5034992.492803146131337 ], [ 290659.585607898596209, 5035004.49051649030298 ], [ 290642.582192914327607, 5035014.498475689440966 ], [ 290636.084288553684019, 5035022.497005788609385 ], [ 290627.335116603993811, 5035033.49487276840955 ], [ 290622.082385859568603, 5035042.493188172578812 ], [ 290618.330336692801211, 5035048.491964317858219 ], [ 290617.332504391903058, 5035064.488962672650814 ], [ 290620.581399283721112, 5035078.496311652474105 ], [ 290623.830381481791846, 5035096.492886207997799 ], [ 290624.580754775437526, 5035100.492113974876702 ], [ 290628.085248117044102, 5035113.489682611078024 ], [ 290631.086747619090602, 5035127.497030806727707 ], [ 290640.330611742683686, 5035147.493287113495171 ], [ 290663.328810012724716, 5035170.488931199535728 ], [ 290676.332829482213128, 5035182.496748508885503 ], [ 290683.828462764038704, 5035190.995113782584667 ], [ 290719.327948984806426, 5035175.988106668926775 ], [ 290720.078331820317544, 5035176.987890403717756 ], [ 290734.327483785222284, 5035171.489038314670324 ], [ 290764.829866274725646, 5035155.492133779451251 ], [ 290773.578915960853919, 5035151.492936217226088 ], [ 290798.828464526333846, 5035145.494128433987498 ], [ 290800.576633540331386, 5035144.994243321940303 ], [ 290831.581879619625397, 5035137.495781820267439 ], [ 290849.582983736880124, 5035156.492184633389115 ], [ 290875.83020871062763, 5035183.49716424010694 ], [ 290886.327416277956218, 5035182.497416275553405 ], [ 290901.079641374235507, 5035182.497463186271489 ], [ 290912.327334988745861, 5035181.487617794424295 ], [ 290929.825512095063459, 5035180.487892088480294 ], [ 290947.323676447500475, 5035183.497391579672694 ], [ 290969.324156931019388, 5035186.496905572712421 ], [ 290983.828980276477523, 5035188.496514390222728 ], [ 290988.323090167716146, 5035190.496191367506981 ], [ 290997.327806463348679, 5035195.495226731523871 ], [ 291033.074460813950282, 5035220.490674042142928 ], [ 291052.329047936364077, 5035237.487518141977489 ], [ 291052.337236619205214, 5035240.996852693147957 ], [ 291055.322377811418846, 5035241.996643531136215 ], [ 291052.831997182685882, 5035250.494977051392198 ], [ 291072.325670307909604, 5035270.49126594979316 ], [ 291085.321555170055944, 5035261.992965835146606 ], [ 291090.326876211562194, 5035257.493765697814524 ], [ 291097.575260224286467, 5035251.495000670664012 ], [ 291106.835613107075915, 5035243.496479352936149 ], [ 291109.07027782604564, 5035241.496923764236271 ], [ 291128.572271697572432, 5035223.490321741439402 ], [ 291150.32553471904248, 5035201.99449197947979 ], [ 291155.570052892260719, 5035196.995501925237477 ], [ 291157.334724779822864, 5035195.495735519565642 ], [ 291181.322647780238185, 5035173.490022377111018 ], [ 291180.069174318341538, 5035172.490237045101821 ], [ 291163.824521562899463, 5035158.492846548557281 ], [ 291164.822307740279939, 5035156.993077704682946 ], [ 291193.576497584523167, 5035117.490706167183816 ], [ 291203.075958732981235, 5035105.493060223758221 ], [ 291239.069957554980647, 5035146.495309663005173 ], [ 291244.075335654779337, 5035155.493657689541578 ], [ 291251.32356559910113, 5035166.491575539112091 ], [ 291268.071286683203653, 5035187.497636866755784 ], [ 291281.817476456519216, 5035204.494463451206684 ], [ 291308.823233230737969, 5035248.496228349395096 ], [ 291311.569172519608401, 5035251.495681116357446 ], [ 291328.580771226785146, 5035277.990640873089433 ], [ 291329.322852627548855, 5035279.490415249951184 ], [ 291339.317118678125553, 5035294.487567215226591 ], [ 291350.572959597688168, 5035309.994613681919873 ], [ 291351.818031625123695, 5035311.494389657862484 ], [ 291360.567133601987734, 5035322.492312281392515 ], [ 291415.320896971272305, 5035390.489517711102962 ], [ 291452.815900049055927, 5035358.495733864605427 ], [ 291474.31345673429314, 5035340.48923818115145 ], [ 291476.828516227775253, 5035338.489683484658599 ], [ 291508.064700948423706, 5035317.493674543686211 ], [ 291524.317733066505753, 5035306.49583141785115 ], [ 291533.066889113630168, 5035300.49707115907222 ], [ 291537.56921478791628, 5035297.48764162696898 ], [ 291578.065849206410348, 5035269.493092704564333 ], [ 291594.31890994834248, 5035249.496917465701699 ], [ 291626.561130021174904, 5035211.494229027070105 ], [ 291657.814070302410983, 5035141.497634377330542 ], [ 291661.310471970296931, 5035120.491637418977916 ] ] ] } },
{ "type": "Feature", "properties": { "division_name": "SANTA CROCE" }, "geometry": { "type": "Polygon", "coordinates": [ [ [ 289775.852094828849658, 5035501.483333114534616 ], [ 289785.214216033171397, 5035502.845337477512658 ], [ 289789.598232308868319, 5035503.483039520680904 ], [ 289793.845029524702113, 5035479.487500738352537 ], [ 289795.849027207354084, 5035468.479712492786348 ], [ 289820.100568920723163, 5035470.479352315887809 ], [ 289923.094224167289212, 5035478.488130453974009 ], [ 289946.851178278680891, 5035479.487987352535129 ], [ 289996.846852526417933, 5035540.486608253791928 ], [ 289999.345396422490012, 5035543.485960239544511 ], [ 290001.340956053696573, 5035544.485947926528752 ], [ 290027.596463606867474, 5035545.485812773928046 ], [ 290027.596358625567518, 5035578.479397181421518 ], [ 290047.345590603072196, 5035578.479459988884628 ], [ 290050.594730056938715, 5035578.479470322839916 ], [ 290081.08863179909531, 5035556.483777699992061 ], [ 290124.8425119255553, 5035526.479676664806902 ], [ 290143.091013225377537, 5035513.4821772063151 ], [ 290158.593756147369277, 5035503.484213053248823 ], [ 290182.086762897786684, 5035489.48694892693311 ], [ 290200.088059260684531, 5035479.488792722113431 ], [ 290235.843222081428394, 5035407.482649917714298 ], [ 290263.838875384884886, 5035352.483165125362575 ], [ 290310.850101580610499, 5035257.491286990232766 ], [ 290332.339437949995045, 5035214.489557655528188 ], [ 290336.338988867355511, 5035206.49111960735172 ], [ 290340.585522458772175, 5035202.491807731799781 ], [ 290353.837097785086371, 5035195.493180454708636 ], [ 290379.589617889723741, 5035195.493262349627912 ], [ 290428.834976147743873, 5035234.486091428436339 ], [ 290448.839952429872938, 5035250.493056391365826 ], [ 290454.084432432602625, 5035257.491742489859462 ], [ 290479.333856938988902, 5035290.485607190057635 ], [ 290515.336039684596471, 5035336.487063388340175 ], [ 290515.83082728413865, 5035337.486846309155226 ], [ 290538.086917083826847, 5035367.491157268173993 ], [ 290548.831472326302901, 5035381.488530275411904 ], [ 290559.081436786917038, 5035395.485901712439954 ], [ 290568.580637504637707, 5035402.484601341187954 ], [ 290571.08758442546241, 5035404.484171999618411 ], [ 290587.33224350650562, 5035416.491999621503055 ], [ 290614.832861058413982, 5035438.487876682542264 ], [ 290618.832178578421008, 5035440.987442763522267 ], [ 290638.078376987716183, 5035454.485052133910358 ], [ 290657.332970436895266, 5035469.492233361117542 ], [ 290671.829671667190269, 5035478.490511574782431 ], [ 290694.333025286206976, 5035486.989024574868381 ], [ 290698.827136767678894, 5035488.488810881972313 ], [ 290715.830599237699062, 5035494.987543703056872 ], [ 290736.330393373908009, 5035502.486268983222544 ], [ 290748.575746100628749, 5035508.484996003098786 ], [ 290750.826900969375856, 5035509.484984503127635 ], [ 290761.579691051971167, 5035512.48436273727566 ], [ 290792.081884482817259, 5035524.482235881499946 ], [ 290827.07819095562445, 5035537.489904476329684 ], [ 290855.824020298197865, 5035548.487790694460273 ], [ 290884.57825266441796, 5035558.486095587722957 ], [ 290902.835088599647861, 5035565.984613738954067 ], [ 290927.828818080364726, 5035567.484465234912932 ], [ 290937.072642644518055, 5035568.484275974333286 ], [ 290956.079878910211846, 5035571.483680456876755 ], [ 290993.574767484678887, 5035575.483125069178641 ], [ 290997.574092959344853, 5035575.48313778731972 ], [ 291033.823833366041072, 5035570.484146329574287 ], [ 291075.3262663485948, 5035568.484715608879924 ], [ 291090.070391598797869, 5035568.48476249165833 ], [ 291094.325315490539651, 5035567.484994675964117 ], [ 291105.069921598653309, 5035565.495465961284935 ], [ 291119.319265644298866, 5035562.485967424698174 ], [ 291130.319473382725846, 5035558.486877017654479 ], [ 291163.320290236501023, 5035548.488768499344587 ], [ 291187.819462332350668, 5035539.490614287555218 ], [ 291227.070772284874693, 5035526.48318178858608 ], [ 291245.566859426093288, 5035516.485227142460644 ], [ 291265.068726235302165, 5035506.987066370435059 ], [ 291297.82236995943822, 5035489.990287641063333 ], [ 291295.818616840289906, 5035486.990937228314579 ], [ 291333.568996078334749, 5035460.995942275039852 ], [ 291335.325568148633465, 5035459.486176027916372 ], [ 291344.816816729318816, 5035451.487755441106856 ], [ 291360.072173801308963, 5035438.490246451459825 ], [ 291379.821459853963461, 5035421.493626368232071 ], [ 291389.81590226967819, 5035412.485426218248904 ], [ 291400.815925915667322, 5035403.487029084935784 ], [ 291410.068178949819412, 5035395.488607740029693 ], [ 291415.321096967265476, 5035390.489517709240317 ], [ 291360.567333597340621, 5035322.492412280291319 ], [ 291351.818131622858346, 5035311.494389657862484 ], [ 291350.572959597688168, 5035309.994613681919873 ], [ 291339.317218675801996, 5035294.487667214125395 ], [ 291329.323052623018157, 5035279.490515249781311 ], [ 291328.580871224636212, 5035277.990740873850882 ], [ 291311.569272517110221, 5035251.495781117118895 ], [ 291308.82333322946215, 5035248.496228348463774 ], [ 291281.817576454253867, 5035204.494563451968133 ], [ 291268.071286683203653, 5035187.497636866755784 ], [ 291251.323665596893989, 5035166.491575540043414 ], [ 291244.075435652397573, 5035155.49375768750906 ], [ 291239.070157551090233, 5035146.495309662073851 ], [ 291203.076158728217706, 5035105.493160222657025 ], [ 291193.576497584523167, 5035117.490706167183816 ], [ 291164.822307740279939, 5035156.993077704682946 ], [ 291163.824521562899463, 5035158.492846548557281 ], [ 291180.069174318341538, 5035172.490237045101821 ], [ 291181.322747777798213, 5035173.490022377111018 ], [ 291157.334724779822864, 5035195.495735519565642 ], [ 291155.570152890461031, 5035196.995501926168799 ], [ 291150.325634716660716, 5035201.994591980241239 ], [ 291128.572371696587652, 5035223.490321742370725 ], [ 291109.07027782604564, 5035241.496923764236271 ], [ 291106.835713105334435, 5035243.496479354798794 ], [ 291097.575460220163222, 5035251.495100670494139 ], [ 291090.326976209762506, 5035257.493765699677169 ], [ 291085.321655167965218, 5035261.99306583404541 ], [ 291072.32587030378636, 5035270.491265952587128 ], [ 291052.832097180769779, 5035250.494977054186165 ], [ 291055.322477809037082, 5035241.996743529103696 ], [ 291052.33733661705628, 5035240.996952693909407 ], [ 291052.329147933865897, 5035237.487618141807616 ], [ 291033.074560811975971, 5035220.490674042142928 ], [ 290997.327906461199746, 5035195.495226730592549 ], [ 290988.323290163709316, 5035190.49629136826843 ], [ 290983.829180272761732, 5035188.496514391154051 ], [ 290969.324256928928662, 5035186.496905573643744 ], [ 290947.323676447093021, 5035183.497491575777531 ], [ 290929.82561209378764, 5035180.487892087548971 ], [ 290912.327534984971862, 5035181.48761779256165 ], [ 290901.07974137191195, 5035182.497563183307648 ], [ 290886.327416277432349, 5035182.497516273520887 ], [ 290875.830408706213348, 5035183.497264238074422 ], [ 290849.583183732291218, 5035156.492284631356597 ], [ 290831.581979618407786, 5035137.495781821198761 ], [ 290800.576733537716791, 5035144.994343319907784 ], [ 290798.828564523952082, 5035145.494128433987498 ], [ 290773.57901595858857, 5035151.492936218157411 ], [ 290764.829966272343881, 5035155.492233778350055 ], [ 290734.327483785222284, 5035171.489038314670324 ], [ 290720.078331820317544, 5035176.987890403717756 ], [ 290719.327948984806426, 5035175.988106668926775 ], [ 290683.828562763286754, 5035190.995113782584667 ], [ 290676.332929479656741, 5035182.496848507784307 ], [ 290663.328810012666509, 5035170.489031193777919 ], [ 290640.330711740418337, 5035147.493387111462653 ], [ 290631.086747618974186, 5035127.497130805626512 ], [ 290628.085448113328312, 5035113.489782611839473 ], [ 290624.580954771023244, 5035100.492213973775506 ], [ 290623.830381481791846, 5035096.492886207997799 ], [ 290620.581499281455763, 5035078.496411653235555 ], [ 290617.332604389870539, 5035064.489062672480941 ], [ 290618.330436690477654, 5035048.491964317858219 ], [ 290622.082585855037905, 5035042.493288172408938 ], [ 290627.335116603993811, 5035033.49487276840955 ], [ 290636.084388552233577, 5035022.497105784714222 ], [ 290642.582292911945842, 5035014.498475688509643 ], [ 290659.585807894472964, 5035004.490516489371657 ], [ 290679.335078040254302, 5034992.492803146131337 ], [ 290687.828738847048953, 5034986.493942081928253 ], [ 290695.332424463937059, 5034978.495515177957714 ], [ 290709.078809653758071, 5034965.498001400381327 ], [ 290720.342828377673868, 5034956.499805107712746 ], [ 290731.838042824412696, 5034947.491609735414386 ], [ 290743.580452633788809, 5034938.493414965458214 ], [ 290750.333942687371746, 5034933.494329714216292 ], [ 290748.841605486930348, 5034922.496330172754824 ], [ 290733.578210823237896, 5034884.493590689264238 ], [ 290733.083423223812133, 5034883.493807770311832 ], [ 290725.579423497780226, 5034864.497338348068297 ], [ 290712.080783225712366, 5034830.493729863315821 ], [ 290706.085942652076483, 5034815.496590618975461 ], [ 290702.83702546072891, 5034808.497910871170461 ], [ 290672.582176536670886, 5034812.496940045617521 ], [ 290635.334670642507263, 5034812.496821601875126 ], [ 290637.833134986169171, 5034840.501707028597593 ], [ 290639.581245154608041, 5034858.49817680940032 ], [ 290642.343507795594633, 5034885.493081917986274 ], [ 290625.587597742327489, 5034892.501697868108749 ], [ 290615.081983972166199, 5034895.501008500345051 ], [ 290614.084231224958785, 5034886.492773403413594 ], [ 290602.580842409166507, 5034887.492518168874085 ], [ 290587.333920172182843, 5034889.492232374846935 ], [ 290584.332376105769072, 5034889.492222828790545 ], [ 290583.33447697549127, 5034926.495129251852632 ], [ 290584.332231344247703, 5034934.993573861196637 ], [ 290585.082612589932978, 5034936.493148266337812 ], [ 290577.083948920830153, 5034940.492448214441538 ], [ 290550.086207457410637, 5034954.499701011925936 ], [ 290522.338080007815734, 5034968.496951607987285 ], [ 290501.582631794153713, 5034979.494680408388376 ], [ 290482.336358636850491, 5034989.492832658812404 ], [ 290473.842910549254157, 5034991.492368342354894 ], [ 290422.337844895664603, 5034999.490655320696533 ], [ 290394.837144644698128, 5035003.48989324644208 ], [ 290393.592012382869143, 5034989.492550450377166 ], [ 290395.587607005436439, 5034979.494343343190849 ], [ 290403.842183634522371, 5034938.492334612645209 ], [ 290407.585767951677553, 5034921.49546364787966 ], [ 290405.087271768250503, 5034903.49899148195982 ], [ 290408.336471691261977, 5034884.492556439712644 ], [ 290418.339076184784062, 5034824.493907711468637 ], [ 290348.585633300011978, 5034806.497221677564085 ], [ 290290.83835395827191, 5034792.499699202366173 ], [ 290257.837594378390349, 5034784.500943501479924 ], [ 290243.340877249836922, 5034780.501772015355527 ], [ 290162.092454975121655, 5034760.495286920107901 ], [ 290114.347582879068796, 5034748.497358940541744 ], [ 290091.093635305936914, 5034742.498396920971572 ], [ 290087.844622685573995, 5034765.494157526642084 ], [ 290084.843014966114424, 5034785.50037470087409 ], [ 290075.095986616448499, 5034851.497712309472263 ], [ 290071.855231102730613, 5034856.496808728203177 ], [ 290058.59540185239166, 5034880.492118852213025 ], [ 290041.847624843707308, 5034908.496743072755635 ], [ 290040.84163404663559, 5034911.49628390558064 ], [ 290021.347784144454636, 5034978.493371868506074 ], [ 290008.846486644528341, 5035019.495567084290087 ], [ 289996.848398886562791, 5035054.488876017741859 ], [ 289989.855681446264498, 5035069.495973776094615 ], [ 289977.849225654732436, 5035094.491269224323332 ], [ 289959.345037285529543, 5035073.495202121324837 ], [ 289933.345445890212432, 5035034.492447156459093 ], [ 289896.345310389937367, 5034979.492755676619709 ], [ 289831.10264120210195, 5034880.491395373828709 ], [ 289756.352393731358461, 5034767.492666004225612 ], [ 289677.602636673487723, 5034649.504817015491426 ], [ 289563.6013052520575, 5034478.497045187279582 ], [ 289547.109130298020318, 5034441.50388297252357 ], [ 289522.107164406101219, 5034451.502016908489168 ], [ 289499.859134468017146, 5034465.499284982681274 ], [ 289478.60888911690563, 5034478.496774883940816 ], [ 289455.610669944551773, 5034493.503821730613708 ], [ 289434.607819983386435, 5034506.501312420703471 ], [ 289413.604960477619898, 5034522.498147141188383 ], [ 289302.612558377033565, 5034607.501608101651073 ], [ 289257.860900077736005, 5034636.495924776419997 ], [ 289167.360195667482913, 5034696.494317452423275 ], [ 289106.866798870498314, 5034735.496597323566675 ], [ 289201.613767071452457, 5034881.989165358245373 ], [ 289206.610850087716244, 5034889.487841338850558 ], [ 289264.860878182807937, 5034979.490747301839292 ], [ 289330.853923811228015, 5035081.491654037497938 ], [ 289371.853159317746758, 5035144.489809001795948 ], [ 289407.607918008812703, 5035199.489496528171003 ], [ 289463.351205587619916, 5035285.483269338496029 ], [ 289522.854603947955184, 5035377.496141807176173 ], [ 289558.601162829843815, 5035432.485629503615201 ], [ 289569.8486959656002, 5035450.482329491525888 ], [ 289602.35488067031838, 5035453.481976912356913 ], [ 289654.60189432738116, 5035457.481268469244242 ], [ 289726.351138198864646, 5035463.480384735390544 ], [ 289781.847091313044075, 5035467.479886618442833 ], [ 289779.85149026021827, 5035479.497456045821309 ], [ 289775.852094828849658, 5035501.483333114534616 ] ] ] } }
]
}
